Ref,LEA_Name,Reference,Contract,POST Participating,City,Latitude,Longitude,County,State,LEA_Type,Site,Policy_Manual_Exists,Mil_Equip_Policy_Exists,Military Equipment Inventory Exists,QA_Policy_Manual,QA_Mil_Equip_Policy,QA Mil_Equip_Inventory (if separate),Notes
SB978-703,Baldwin Park Police Department,,no,yes,Baldwin Park,34.08536,-117.9603,Los Angeles County,California,Police,https://www.baldwinparkpolice.com/Search?searchPhrase=manual,TRUE,TRUE/Draft,TRUE,https://www.baldwinparkpolice.com/DocumentCenter/View/96/Baldwin-Park-Police-Department-Policy-Manual-PDF,https://www.baldwinpark.com/public-notices/2914-bppd-military-equipment-policy-706/file,https://www.baldwinpark.com/public-notices/2914-bppd-military-equipment-policy-706/file,"The current manual, from 2/28/2022 is listed on the site but the link does not work."
SB978-704,Bell Police Department,,no,yes,Bell,33.97977,-118.1888,Los Angeles County,California,Police,https://www.cityofbell.org/?NavID=1,TRUE,FALSE,FALSE,https://www.cityofbell.org/home/showdocument?id=13315,,,
SB978-705,Bishop Police Department,,no,yes,Bishop,37.36680,-118.3953,Inyo County,California,Police,https://www.cityofbishop.com/departments/police/,TRUE,TRUE,Incomplete,https://www.cityofbishop.com/Document%20Center/Department/Police/Information/RELEASE_20210614_T113133_Bishop_PD_Policy_Manual.pdf,https://www.cityofbishop.com/Document%20Center/Department/Police/Information/Ordinance%20No.%20575%20AB%20481%20Military%20Equipment%20Use%20Policy%20w.attachments%20EXECUTED%202022%2003%2028.pdf,,Incomplete inventory.
SB978-706,Burbank-Glendale-Pasadena Airport Authority Police Department,,no,yes,Burbank,34.18182,-118.3078,Los Angeles County,California,Police,https://www.hollywoodburbankairport.com/airport-authority/bgpaa-police/,TRUE,FALSE,FALSE,https://www.dropbox.com/s/ymbaguthmpnatzv/BGPAAPD%20Policy%20Manual%20March%202022.pdf?dl=0,,,Lexipol
SB978-710,Carmel Police Department,,no,yes,Carmel by the Sea,36.55443,-121.9244,Monterey County,California,Police,https://ci.carmel.ca.us/,TRUE,FALSE,FALSE,https://ci.carmel.ca.us/sites/main/files/file-attachments/carmel_by_the_sea_pd_policy_manual.pdf?1621872907,,,
SB978-711,Cerritos Community College District Police Department,,no,yes,Cerritos,33.86866,-118.0637,Los Angeles County,California,College/University,https://www.cerritos.edu/police/default.htm,TRUE,FALSE,FALSE,https://www.cerritos.edu/police/_includes/docs/RELEASE_20220222_T115017_Cerritos_College_PD_Policy_Manual.pdf,,,
SB978-714,Coast Community College District Police Department,,no,yes,Costa Mesa,33.66389,-117.9024,Orange County,California,College/University,https://www.goldenwestcollege.edu/public-safety/index.html,TRUE,FALSE,FALSE,https://www.goldenwestcollege.edu/Links/pdf/RELEASE_20190924_T141046_Coast_Community_College_Police_Department_Protocol_Manual.pdf,,,
SB978-715,Compton Community College Police Department,,,,Compton,33.89569,-118.2244,Los Angeles County,California,College/University,https://www.compton.edu//adminandoperations/campuspolice/,TRUE,FALSE,FALSE,https://www.compton.edu//adminandoperations/campuspolice/Documents/CCPD_Policy-Manual.pdf,,,Lexipol
SB978-718,Corning Police Department,,no,yes,Corning,39.92791,-122.1791,Tehama County,California,Police,http://www.corning.org/police_dep.html,TRUE,TRUE,TRUE,https://www.corning.org/documents/policy-manual/,https://www.corning.org/documents/military-equipment-policy/,,
SB978-719,Crescent City Police Department,,no,yes,Cresent City,41.756111,-124.201667,Del Norte County,California,Police,https://www.crescentcity.org/departments/Police,TRUE,TRUE,,https://www.crescentcity.org/media/Police/RELEASE_20220811_T170935_Crescent_City__Police_Department_Manual.pdf,https://www.crescentcity.org/media/Police/RELEASE_20220811_T170935_Crescent_City__Police_Department_Manual.pdf,,
SB978-720,CSU Maritime Academy Police Department,,no,yes,Vallejo,38.10095,-122.2549,Solano County,California,College/University,https://www.csum.edu/police-department/,TRUE,FALSE,FALSE,https://www.csum.edu/police-department/media/csucalmaritimepolicymanual.pdf,,,
SB978-721,CSU San Francisco Police Department,,no,yes,San Francisco,37.75570,-122.4428,San Francisco County,California,College/University,https://upd.sfsu.edu/,TRUE,FALSE,FALSE,https://upd.sfsu.edu/sites/default/files/documents/SFSUPD_GO_2020.pdf,,,
SB978-722,CSU Stanislaus University Police Department,,no,yes,Stanislaus,37.56,-120.99,Stanislaus County,California,College/University,http://www.csustan.edu/upd/PoliceServices/Introduction.html,TRUE,TRUE,,https://www.csustan.edu/sites/default/files/groups/University%20Police%20Department/documents/stanislaus-state-pd-policy-manual-2022.pdf,https://www.csustan.edu/sites/default/files/groups/University%20Police%20Department/documents/stanislaus-state-pd-policy-manual-2022.pdf,,
SB978-723,El Rancho Unified School District Police Department,,no,no,Pico Rivera ,33.988889,-118.089167,Los Angeles County,California,School District,https://www.erusd.org/apps/pages/index.jsp?uREC_ID=155468&type=d&pREC_ID=2200244,TRUE,FALSE,FALSE,https://www.muckrock.com/foi/pico-rivera-3371/sb-978-policiesurl-125264/#file-1013392,,,Only available via Muckrock
SB978-725,Fontana Unified School District Police Department,,no,yes,Fontana,34.10261,-117.4358,San Bernandino County,California,School District,https://www.fusd.net/domain/245,TRUE,TRUE,,https://www.fusd.net/cms/lib/CA50000190/Centricity/Domain/245/20220812%20Fontana%20Unified%20School%20Dist%20PD%20Policy%20Manual.pdf,https://www.fusd.net/cms/lib/CA50000190/Centricity/Domain/245/Military%20Equipment.pdf,,
SB978-726,Foothill De-Anza Community College District Police Department,,,,Los Altos,37.38308,-122.1142,Santa Clara County,California,College/University,https://police.fhda.edu/,TRUE,TRUE,TRUE,https://police.fhda.edu/_downloads/FHDA%20PD%20Policy%20-%20Redacted%20-%20January%202022.pdf,https://police.fhda.edu/_resources-top-menu/FHDAPD%20Policy%20706%20Military%20Equipment%20DRAFT.pdf,,Policy has placeholder for military equipment policy. Lexipol.
SB978-727,Fulton-El Camino Park Police Department,,no,no,Sacramento,38.57944,-121.4908,Sacramento County,California,Police,https://www.fecrpd.com/park-police,TRUE,TRUE,,https://www.fecrpd.com/files/ce455c49f/FEC+Park+Police+Manual+2020.pdf,https://www.fecrpd.com/files/ad6db496c/FEPD+Public+Notice+Policy+8701-Military+Equipment.pdf,,
SB978-728,Glendale Police Department Park Rangers,,no,yes,Glendale,34.14633,-118.2486,Los Angeles County,California,Police,https://www.glendaleca.gov/government/departments/community-services-parks/csp-policies-procedures,TRUE,FALSE,FALSE,https://www.glendaleca.gov/home/showpublisheddocument/29179/635955639723470000,,,There was something requested in Muckrock but we could not see it.
SB978-731,Imperial County Sheriff's Department,,no,yes,El Centro,32.79616,-115.5700,Imperial County,California,Sheriff,https://icso.imperialcounty.org/,TRUE,TRUE,,https://icso.imperialcounty.org/wp-content/uploads/2020/12/Imperial-County-SD-Policy-Manual.pdf,https://icso.imperialcounty.org/wp-content/uploads/2022/05/AB-481.pdf,,
SB978-734,Lake Shastina District Police Department,,no,yes,Weed ,41.422650,-122.386127,Siskiyou County,California,Siskiyou County,https://www.lakeshastina.com/lscsdinfo.htm,TRUE,TRUE,,https://www.lakeshastina.com/Docs_PDFs/RELEASE_20220202_T185234_Lake_Shastina_PD_Policy_Manual.pdf,https://www.lakeshastina.com/Docs_PDFs/CSD%20Notices/Military%20Equipment%20Use%20-%20Copy.pdf,,
SB978-735,Lathrop Police Department,,no,yes,Lathrop,37.80439,-121.3026,San Joaquin County,California,Police,https://www.ci.lathrop.ca.us/police,TRUE,TRUE,,https://www.ci.lathrop.ca.us/sites/default/files/fileattachments/police/page/23972/lathrop_police_department_policy_manual_2022.pdf,https://leginfo.legislature.ca.gov/faces/billTextClient.xhtml?bill_id=202120220AB481,,
SB978-737,Mariposa County Sheriff's Department,,no,yes,Mariposa,37.48411,-119.9647,Mariposa County,California,Sheriff,https://www.mariposacounty.org/82/Sheriffs-Office,TRUE,TRUE/Draft,FALSE,https://www.mariposacounty.org/DocumentCenter/View/91325/Office-Policy-Manual?bidId=,https://www.mariposacounty.org/DocumentCenter/View/91689,,
SB978-738,Montebello Unified School District Police Department,,no,yes,Montebello,34.01958,-118.1164,Los Angeles County,California,College/University,https://www.montebello.k12.ca.us/apps/pages/index.jsp?uREC_ID=2210591&type=d&pREC_ID=2195302,TRUE,FALSE,FALSE,https://4.files.edl.io/72a4/09/26/22/163847-bd8aed58-85d7-4f97-9b94-dbe034ea02dd.pdf,,,
SB978-740,Oakland City Housing Authority Police Department,,no,yes,Oakland,37.80508,-122.2731,Alameda County,California,Public Safety,http://www.ohapd.org/,TRUE,TRUE,TRUE,https://public.powerdms.com/OHAPD/tree/documents/2712094,https://public.powerdms.com/OHAPD/tree/documents/2820305,,
SB978-741,Oakley Police Department,,no,yes,Oakley,37.99638,-121.7130,Contra Costa County,California,Police,https://www.ci.oakley.ca.us/departments/police/,TRUE,TRUE,,https://www.ci.oakley.ca.us/wp-content/uploads/2022/05/Oakley-Police-Department-Policy-2022.1.pdf,https://www.ci.oakley.ca.us/wp-content/uploads/2022/06/Military-Equipment-Policy.pdf,,
SB978-745,Port San Luis Harbor District Harbor Patrol Department,,no,no,Avila Beach,35.17931,-120.7354,San Luis Obispo County,California,Police,https://www.portsanluis.com/,TRUE,FALSE,FALSE,https://www.portsanluis.com/DocumentCenter/View/5657/Harbor-Patrol-Policy-Manual-HPPM-Complete,,,They received funding to move to Lexipol.
SB978-747,Salinas Police Department,,no,yes,Salinas,36.67087,-121.6548,Monterery County,California,Police,http://www.salinaspd.com/,TRUE,TRUE,,https://salinasca-my.sharepoint.com/:b:/g/personal/salinaspdod_ci_salinas_ca_us/EZqixBpjY41Jp-rnR4lYc-MBpaTnXp-M74De6en2HJSOcA?e=NsdQsM,https://salinaspd.org/wp-content/uploads/2022/08/709-Military-Equipment-Addendum-A-8-18-22-1.pdf,,
SB978-748,San Bernardino Community College District Police Department,,no,yes,San Bernandino,34.1,-117.3,San Bernandino County,California,College/University,https://sbccd.edu/district-services/police-department/index.php,TRUE,FALSE,FALSE,https://sbccd.edu/district-services/police-department/how-we-serve/documents/sbccd-police-department-policy-manual-2014-01-16.pdf ,,,
SB978-749,San Bernardino Unified School District Police Department,,no,yes,San Bernandino,34.1,-117.3,San Bernandino County,California,School District,https://sbcusd.com/district_offices/district_police,TRUE,FALSE,FALSE,https://cdnsm5-ss13.sharpschool.com/UserFiles/Servers/Server_59869/File/RELEASE_20220224_T135233_San_Bernardino_City_USD_CA_Policy_Manual.pdf,,,
SB978-750,San Carlos Police Department,,no,yes,San Carlos,37.50494,-122.2628,San Mateo County,California,Police,https://www.smcsheriff.com/patrol-services/san-carlos-police-bureau,TRUE,TRUE,,https://www.smcsheriff.com/sites/default/files/content_files/2020_Operations_Policy_Manual.pdf,https://www.smcsheriff.com/sites/default/files/resources_files/San%20Mateo%20County%20Sheriff%27s%20Office%20Lexipol%20Policy%20705%20Military%20Equipment_0.pdf,,
SB978-751,San Diego Community College District Police Department,,no,yes,San Diego,32.71568,-117.1617,San Diego County,California,College/University,https://www.sdccd.edu/about/departments-and-offices/police-department/,TRUE,FALSE,FALSE,https://www.sdccd.edu/about/departments-and-offices/police-department/about/college-police-policies-procedures.aspx,,,
SB978-752,San Francisco Community College District Police Department,,no,yes,San Francisco,37.75570,-122.4428,San Francisco County,California,College/University,https://www.ccsf.edu/campus-police,TRUE,FALSE,FALSE,https://www.ccsf.edu/about-ccsf/board-trustees/ccsf-policies-administrative-procedures,,,
SB978-754,San Jos√©/Evergreen Community College District Police Department,,no,yes,San Jose,37.33865,-121.8854,Santa Clara County,California,College/University,http://www.sjeccd.edu/district-services/district-police,TRUE,FALSE,FALSE,https://www.sjeccd.edu/DistrictPolice/Documents/SJECCD%20PD%20Policy%20Manual.pdf,,,
SB978-756,Solano Community College District Department of Public Safety,,no,yes,Phelan,34.42605,-117.5725,San Bernandino County,California,College/University,http://www.solano.edu/police/,TRUE,FALSE,FALSE,https://solano.edu/police/2122/Solano_Community_College_DPS_Policy_Manual.pdf,,,
SB978-757,Stallion Springs Police Department,,no,yes,Stallion Springs,35.08237,-118.6362,Kern County,California,Police,https://www.stallionspringscsd.com/police-department-ec708c6,TRUE,TRUE,,https://www.stallionspringscsd.com/police-departmentt,https://www.stallionspringscsd.com/files/4165c9386/BOARD+PACKET+SEPT+2022.pdf,,
SB978-758,State Center Community College District Police Department,,no,yes,Fresno,36.74084,-119.7855,Fresno County,California,College/University,http://scccdpolice.com/,FALSE,TRUE,TRUE,,https://www.scccd.edu/_uploaded-files/documents/departments/police/policies/draft-scccd-policy-706-military-equipment_acc.pdf,https://www.scccd.edu/_uploaded-files/documents/departments/police/policies/attachment-a-to-policy-706-military-equipment_acc.pdf,
SB978-759,Susanville Police Department,,no,yes,Susanville,40.41570,-120.6498,Lassen County,California,Police,http://www.cityofsusanville.net/rooptown/police-department/,TRUE,FALSE,FALSE,http://www.cityofsusanville.net/rooptown/wp-content/uploads/2021/12/PDPolicyManual2021revPUBLIC.pdf,,,
SB978-760,Sutter Creek Police Department,,no,yes,Sutter Creek,38.39341,-120.8030,Amador County,California,Police,https://cityofsuttercreek.org/sutter-creek-police-department/,TRUE,TRUE/Draft,FALSE,https://cityofsuttercreek.org/police/Sutter_Creek_PD_Policy_Manual.pdf,,,"Policy date 2022/08/01, ""Draft"" Lexipol. The manual includes MI policy but there is no inventory"
SB978-761,Tulare County Probation Department,,no,no,Visalia,36.33377,-119.2926,Tulare County,California,Probation,http://tularecounty.ca.gov/probation/,TRUE,TRUE,,https://tularecoprobation.org/information-center/reports-information/policies-and-procedures/facility-policy-and-procedure/,https://tularecoprobation.org/information-center/public-resources/public-notices/ab-481-military-equipment/military-equipment-policy/,,
SB978-762,Tulelake Police Department,,no,yes,Tulelake,41.95422,-121.4767,Siskiyou County,California,Police,http://www.cityoftulelake.com/departments/police-department,TRUE,TRUE,,https://cityofsuttercreek.org/police/Sutter_Creek_PD_Policy_Manual.pdf,https://cityofsuttercreek.org/police/Sutter_Creek_PD_Policy_Manual.pdf,,
SB978-766,Val Verde Unified School District Police Department,,no,yes,Perris,33.78241,-117.2283,Riverside County,California,School District,https://www.valverde.edu/police-department-security-communications-96b31b07/overview-0bcee34a,TRUE,FALSE,FALSE,https://www.edjoin.org/JobDescriptions/566/School%20Police%20Officer%2006%2012%2019-20200826122740.pdf,,,
SB978-769,Yuba Community College District Police Department,,no,yes,Yuba City,39.14094,-121.6198,Sutter County,California,College/University,https://yc.yccd.edu/campus/safety/,TRUE,FALSE,FALSE,https://yc.yccd.edu/publicsafety/wp-content/uploads/sites/14/2020/04/Rules-Regulations-Revised-April-2018-Most-Current.pdf,,,
SB978-001,Alameda County District Attorney,,no,no,Oakland,37.80508,-122.2731,Alameda County,California,District Attorney,https://www.alcoda.org,TRUE,FALSE,FALSE,https://www.alcoda.org/about_us/files/INSPECTOR_POLICY_MANUAL_04182022.pdf,,,
SB978-002,Alameda County Sheriff's Office,,no,yes,Oakland,37.80508,-122.2731,Alameda County,California,Sheriff,https://www.alamedacountysheriff.org,TRUE,TRUE,TRUE,https://www.alamedacountysheriff.org/about-us/public-policies,https://public.powerdms.com/ACSO3/documents/1021442,https://www.alamedacountysheriff.org/home/showpublisheddocument/352/638127567748900000,Updated inventory under review 2/23/23
SB978-003,Alameda Police Department,,no,yes,Alameda,37.76707,-122.2458,Alameda County,California,Police,https://www.alamedaca.gov,TRUE,TRUE,,https://www.alamedaca.gov/files/assets/public/departments/alameda/police/alamda-police-department-policy-manual-10102022.pdf,https://www.alamedaca.gov/files/assets/public/departments/alameda/police/alamda-police-department-policy-manual-10102022.pdf,,
SB978-004,Albany Police Department,,no,yes,Albany,37.88769,-122.2981,Contra Costa County,California,Police,https://www.albanyca.org/departments/police-department,TRUE,TRUE,,https://www.albanyca.org/home/showpublisheddocument/50437/637825246175230000,https://www.albanyca.org/home/showpublisheddocument/50768,,
SB978-005,Alhambra Police Department,,no,yes,Alhambra,34.09442,-118.1278,Los Angeles County,California,Police,https://www.cityofalhambra.org/231/Police-Department,TRUE,TRUE,,https://cityofalhambra.org/DocumentCenter/View/1990/Alhambra_PD_Policy_Manual-PDF,https://www.cityofalhambra.org/DocumentCenter/View/3244/APD-Policy-706-Military-Equipment-draft---PDF,,
SB978-008,Alpine County Sheriff's Department,,no,yes,Markleeville,38.69459,-119.7800,Alpine County,California,Sheriff,https://www.alpinecountyca.gov/204/Sheriff,TRUE,TRUE,,https://www.alpinecountyca.gov/DocumentCenter/View/2842/Alpine-County-Sheriffs-Office-Policy-Manual,NA,,
SB978-009,Alturas Police Department,,no,yes,Alturas,41.49432,-120.5426,Modoc County,California,Police,http://www.cityofalturas.us/departments/public_safety/index.php,TRUE,TRUE,,https://cms4files1.revize.com/alturas/2021%20Alturas%20PD%20Policy%20Manual.pdf,https://cms4files1.revize.com/alturas/2021%20Alturas%20PD%20Policy%20Manual.pdf,,
SB978-011,Amador County Sheriff's Department,,no,yes,Jackson,38.34712,-120.7734,Amador County,California,Sheriff,https://www.amadorsheriff.org,TRUE,TRUE,,https://amadorsheriff.org/images/administration-div/Docs/Amador_CO_SO_CA_Policy_Manual_3_2022.pdf,https://amadorsheriff.org/images/administration-div/Docs/Amador_CO_SO_CA_Policy_Manual_3_2022.pdf,,
SB978-012,American River College Police Department,Los Rios Community College District Police Department,no,yes,Sacramento,38.57944,-121.4908,Sacramento County,California,College/University,https://police.losrios.edu,TRUE,TRUE,,https://police.losrios.edu/lrpd/doc/policy-manual.pdf,https://police.losrios.edu/lrpd/doc/policy-manual.pdf,,
SB978-014,Anaheim Police Department,,no,yes,Anaheim,33.83286,-117.9152,Orange County,California,Police,http://www.anaheim.net,TRUE,TRUE,,https://www.anaheim.net/DocumentCenter/View/29459/APD-Policy-Manual,https://anaheim.net/DocumentCenter/View/44283/Military-Equipment-Policy-May-2022,,
SB978-015,Anderson Police Department,,no,yes,Anderson,40.45056,-122.3012,Shasta County,California,Police,https://www.andersonpolice.org,TRUE,TRUE,,https://www.andersonpolice.org/_files/ugd/b36806_d2a266ebeb1d45e3ae0f60bcc67ec92a.pdf,https://5c939e29-1258-4f7d-8c66-e5109faca613.filesusr.com/ugd/3f9102_e5f42dfaeace4c65a4472088b6aacb49.docx?dn=AB%20481%20policy%203.2022.docx,,
SB978-016,Angels Camp Police Department,,no,yes,Angels Camp,38.07009,-120.5408,Calaveras County,California,Police,http://angelscamp.gov,TRUE,TRUE,,http://angelscamp.gov/wp-content/uploads/2020/02/ACPD-POLICY-MANUAL.pdf,http://angelscamp.gov/wp-content/uploads/Military_Equipment-10.pdf,,
SB978-017,Antioch Police Department,,no,yes,Antioch,38.01583,-121.8197,Contra Costa County,California,Police,https://www.antiochca.gov,TRUE,TRUE,,https://www.antiochca.gov/fc/police/apd-policy-manual.pdf,https://www.antiochca.gov/fc/police/apd-policy-manual.pdf,,
SB978-018,Apple Valley Unified School District Police Department,,no,yes,Apple Valley,34.52373,-117.2164,San Bernardino County,California,School,https://www.avusd.org/departments/district-police,TRUE,TRUE,,NA,NA,,
SB978-019,Arcadia Police Department,,no,yes,Arcadia,34.13641,-118.0386,Los Angeles County,California,Police,https://www.arcadiaca.gov,TRUE,TRUE,,https://cms9files.revize.com/arcadia/Protect%20Arcadia/police/Policy%20Manual%20Released%209-12-2022.pdf,https://cms9files.revize.com/arcadia/Arcadia%20PD%20-%20Policy%20708%20Military%20Equipment-Final.pdf,,
SB978-020,Arcata Police Department,,no,yes,Arcata,40.86766,-124.0851,Humboldt County,California,Police,https://www.cityofarcata.org,TRUE,TRUE,,https://www.cityofarcata.org/DocumentCenter/View/11850/Arcata-PD-Policy-Manual-04202022,https://www.cityofarcata.org/DocumentCenter/View/11850/Arcata-PD-Policy-Manual-04202022,,
SB978-021,Arroyo Grande Police Department,,no,yes,Arroyo Grande,35.12435,-120.5768,San Luis Obispo County,California,Police,http://www.agpd.org,TRUE,TRUE,,http://www.agpd.org/DocumentCenter/View/7635/AGPD-Policy-Manual-PDF?bidId=,https://www.agpd.org/DocumentCenter/View/10409/Assembly-Bill-481-Military-Equipment,,
SB978-022,Arvin Police Department,,no,yes,Arvin,35.20902,-118.8289,Kern County,California,Police,https://www.arvin.org,TRUE,TRUE,,https://www.arvin.org/DocumentCenter/View/288/Arvin-Police-Department-Policy-Manual-PDF,NA,,
SB978-023,Atascadero Police Department,,no,yes,Atascadero,35.48880,-120.6693,San Luis Obispo County,California,Police,https://www.atascadero.org,TRUE,TRUE,TRUE,https://www.atascadero.org/files/PD/PD_Policy_Manual.pdf,https://www.atascadero.org/files/PD/Draft%20AB%20481%20Military%20Equipment%20Lexipol%20Based%20Policy.pdf,https://www.atascadero.org/files/PD/AB%20481%20Military%20Equipement%20List%20Attachement%20A%20Policy%20708.pdf,
SB978-024,Atherton Police Department,,no,yes,Atherton,37.46248,-122.1978,San Mateo County,California,Police,https://www.ci.atherton.ca.us,TRUE,TRUE,,https://www.ci.atherton.ca.us/DocumentCenter/View/9863/Lexipol-Policy-Manual-1-26-2022,https://www.ci.atherton.ca.us/DocumentCenter/View/9863/Lexipol-Policy-Manual-1-26-2022,,
SB978-025,Atwater Police Department,,no,yes,Atwater,37.34584,-120.6088,Merced County,California,Police,https://www.atwater.org,TRUE,TRUE,,https://www.atwater.org/wp-content/uploads/2019/12/Atwater_PD_Policy_Manual.pdf,https://www.atwater.org/wp-content/uploads/2022/02/Military_Equipment_policy_draft-1.pdf,,
SB978-026,Auburn Police Department,,no,yes,Auburn,38.89620,-121.0789,Placer County,California,Police,https://www.auburn.ca.gov,TRUE,TRUE,,https://www.auburn.ca.gov/DocumentCenter/View/1657/Auburn-Police-Department-Policy-and-Procedure-Manual-12-23-19,https://www.auburn.ca.gov/603/Assembly-Bill-481,,"The military equipment policies are linked here, but they aren't publicly available. You have to create an account to view them?"
SB978-027,Avenal Police Department,,no,yes,Avenal,36.00390,-120.1298,Kings County,California,Police,https://www.cityofavenal.com,TRUE,TRUE,,https://cityofavenal.com/DocumentCenter/View/2488/LAW-ENFORCEMENT-CODE-OF-ETHICS,https://cityofavenal.com/DocumentCenter/View/3226/Chapter---11---Military-Use-Updated-4192022,,"Policies are all separated out and there isn't a shareable link to post here. If you go to the /DocumentCenter link, click on the Police folder and then the Policies and Procedures subfolder you should see them."
SB978-029,Azusa Police Department,,no,yes,Azusa,34.13361,-117.9060,Los Angeles County,California,Police,https://azusapd.org,TRUE,TRUE,,https://www.azusapd.org/images/SB978_Training/Manual/Azusa%20PD%20Policy%20Manual%2007-13-2022.pdf,NA,,
SB978-030,Bakersfield Police Department,,no,yes,Bakersfield,35.36723,-119.0189,Kern County,California,Police,https://www.bakersfieldcity.us,TRUE,TRUE,,https://content.civicplus.com/api/assets/c25047cc-bf92-485b-baeb-e2b4cf1d1629,NA,,
SB978-033,Banning Police Department,,no,yes,Banning,33.92544,-116.8765,Riverside County,California,Police,http://www.banning.ca.us,TRUE,TRUE,TRUE,https://banningca.gov/DocumentCenter/View/10226/RELEASE_20220310_T212247_Banning_PD_Policy_Manual?bidId=,https://banningca.gov/DocumentCenter/View/10367/Att-2-BPD-Policy-708---Military-Equipment,https://banningca.gov/DocumentCenter/View/10415/Att-3-BPD-Specialized-Police-Equipment-Inventory,
SB978-034,Barstow Police Department,,no,yes,Barstow,34.89308,-117.0255,San Bernardino County,California,Police,https://www.barstowca.org,TRUE,TRUE,,https://www.barstowca.org/home/showdocument?id=5837,https://www.barstowca.org/home/showpublisheddocument/7552,,
SB978-035,Bay Area Rapid Transit Police Department,,no,yes,Oakland,37.80508,-122.2731,San Francisco Bay Area Rapid Transit District (Calif.),California,Transit,https://www.bart.gov,TRUE,TRUE,, https://www.bart.gov/sites/default/files/docs/Lexipol%20Policy%20Manual%20March%202020.pdf,https://www.bart.gov/sites/default/files/docs/Draft%20Military%20Equipment%20Use%20Policy%20%28Lexipol%20Policy%20711%29%20and%20Military%20Equipment%20Inventory_0.pdf,,
SB978-036,Bear Valley Police Department,,no,yes,Tehachapi,35.13224,-118.4491,Alpine County,California,Police,https://www.bvcsd.com,TRUE,TRUE,,https://uploads-ssl.webflow.com/5cdc7ca6d8a73b946527cfa1/5fe25ea5f050d567db516cd3_RELEASE_20201222_T133105_Bear_Valley_PD_Policy_Manual%20(1).pdf,NA,,
SB978-037,Beaumont Police Department,,no,yes,Beaumont,33.92938,-116.9746,Riverside County,California,Police,http://beaumontpd.org,TRUE,TRUE,,http://www.beaumontpd.org/DocumentCenter/View/37037/Beaumont-Police-Department-Policy-PDF,http://beaumontpd.org/DocumentCenter/View/37346/Policy-709-Military-Specialized-Police-Equipment,,
SB978-038,Bell Gardens Police Department,,no,yes,Bell Gardens,33.96998,-118.1490,Los Angeles County,California,Police,https://www.bellgardens.org,TRUE,TRUE,,https://www.bellgardens.org/home/showpublisheddocument/5591/637938257880670000,https://www.bellgardens.org/home/showpublisheddocument/5591/637938257880670000,,
SB978-040,Belmont Police Department,,no,yes,Belmont,37.51842,-122.2763,San Mateo County,California,Police,https://www.belmont.gov,TRUE,TRUE,,https://www.belmont.gov/home/showpublisheddocument/18935/637632371657830000,https://www.belmont.gov/home/showpublisheddocument/21597/637920986984100000,,
SB978-041,Belvedere Police Department,,no,yes,Belvedere,37.87494,-122.4674,Marin County,California,Police,https://www.cityofbelvedere.org,TRUE,TRUE,,https://www.cityofbelvedere.org/DocumentCenter/View/7587/Policy-207---Police-Policy-Manual,https://www.cityofbelvedere.org/DocumentCenter/View/8437/RELEASE_20220814_T171606_Belvedere_PD_Policy_Manual,,
SB978-042,Benicia Police Department,,no,yes,Benicia,38.05285,-122.1535,Solano County,California,Police,https://www.ci.benicia.ca.us,TRUE,TRUE,,https://www.ci.benicia.ca.us/vertical/sites/%7BF991A639-AAED-4E1A-9735-86EA195E2C8D%7D/uploads/RELEASE_20220428_T130216_Benicia_PD_Policy_Manual.pdf,https://www.ci.benicia.ca.us/vertical/sites/%7BF991A639-AAED-4E1A-9735-86EA195E2C8D%7D/uploads/AB_481_Draft_Policy.pdf,,
SB978-043,Berkeley Police Department,,no,yes,Berkeley,37.86988,-122.2705,Alameda County,California,Police,https://berkeleyca.gov,TRUE,TRUE,,https://berkeleyca.gov/sites/default/files/documents/RELEASE_20220921_T152222_Berkeley_PD_Policy_Manual.pdf,https://berkeleyca.gov/sites/default/files/documents/RELEASE_20220921_T152222_Berkeley_PD_Policy_Manual.pdf,,
SB978-044,Beverly Hills Police Department,,no,yes,Beverly Hills,34.07360,-118.4005,Los Angeles County,California,Police,https://www.beverlyhills.org,TRUE,TRUE,TRUE,https://www.beverlyhills.org/cbhfiles/storage/files/1787600804952259300/BHPDManual(2-2020).pdf,https://www.beverlyhills.org/cbhfiles/storage/files/1477884586602467599/Military_Equipment_Use_Policy(5).pdf,https://www.beverlyhills.org/cbhfiles/storage/files/5367468081035991777/MilitaryEquipmentInventory.pdf,
SB978-049,Blythe Police Department,,no,yes,Blythe,33.61040,-114.5985,Riverside County,California,Police,https://www.cityofblythe.ca.gov,TRUE,TRUE,,https://www.cityofblythe.ca.gov/DocumentCenter/View/1465/Blythe-Police-Department-Policy-Manual,https://www.cityofblythe.ca.gov/DocumentCenter/View/1808/Blythe-Police-Department---Military-Equipment-Use-Policy---Draft-3-12-2022?bidId=,,
SB978-050,Brawley Police Department,,no,yes,Brawley,32.97863,-115.5340,Imperial County,California,Police,http://www.brawley-ca.gov,TRUE,TRUE,TRUE,https://www.brawley-ca.gov/cms/kcfinder/upload/files/police_department/Policies/RELEASE_20220524_T133234_Brawley_PD_CA_Policy_Manual.pdf,https://www.brawley-ca.gov/cms/kcfinder/upload/files/police_department/Self-Service/Policy%20709.pdf,http://www.brawley-ca.gov/cms/kcfinder/upload/files/police_department/Policies/Brawley%20Police%20Department%20AB481%20Military%20Equipment%20List.pdf,
SB978-051,Brea Police Department,,no,yes,Brea,33.91759,-117.8890,Orange County,California,Police,https://www.ci.brea.ca.us,TRUE,TRUE,,https://www.ci.brea.ca.us/DocumentCenter/View/10023/Brea_PD_Policy_Manual_May2022?bidId=,https://www.ci.brea.ca.us/DocumentCenter/View/10023/Brea_PD_Policy_Manual_May2022?bidId=,,
SB978-052,Brentwood Police Department,,no,yes,Brentwood,37.93406,-121.6927,Contra Costa County,California,Police,https://www.brentwoodca.gov,TRUE,TRUE,,https://www.brentwoodca.gov/home/showpublisheddocument/2/637785573557000000,https://brentwoodca.prod.govaccess.org/home/showdocument?id=4960&t=637838235418693986,,
SB978-053,Brisbane Police Department,,no,yes,Brisbane,37.680833,-122.419167,San Francisco County,California,Police,https://www.brisbaneca.org,TRUE,TRUE,,https://www.brisbaneca.org/sites/default/files/fileattachments/police/page/6571/brisbane_pd_policy_manual_20180105.pdf,https://www.brisbaneca.org/sites/default/files/fileattachments/police/page/24131/brisbane_military_equipment_use_policy.pdf,,
SB978-054,Broadmoor Police Department,,no,yes,Daly City,37.69109,-122.4724,San Mateo County,California,Police,https://www.broadmoorpolice.com,TRUE,TRUE,,https://www.broadmoorpolice.com/wp-content/uploads/2021/07/broadmoor_police_policy_manual_2021.pdf,https://www.broadmoorpolice.com/wp-content/uploads/2022/05/brd_military_equipment_2022.pdf,,
SB978-055,Buena Park Police Department,,no,yes,Buena Park,33.86520,-117.9980,Orange County,California,Police,https://www.bppd.com/,TRUE,TRUE,,https://public.powerdms.com/BUENAPPD/tree,https://cms4files.revize.com/buenaparkpolice/document_center/GO%20409%20-%20Military%20Equipment%20Use%20Draft.pdf,,
SB978-056,Burbank Police Department,,no,yes,Burbank,34.18182,-118.3078,Los Angeles County,California,Police,https://www.burbankpd.org,TRUE,TRUE,,https://www.burbankpd.org/assets/1/7/Policy_Manual_2022.pdf,https://www.burbankpd.org/assets/1/7/Military_Equipment_Policy___Inventory_(2022)1.pdf,,
SB978-058,Burlingame Police Department,,no,yes,Burlingame,37.58037,-122.3509,San Mateo County,California,Police,https://www.burlingame.org,TRUE,TRUE,,https://cms6.revize.com/revize/burlingamecity/document_center/Police/Policies/Burlingame%20PD%20Policy%20Manual%2003-18-2022.pdf,https://cms6.revize.com/revize/burlingamecity/document_center/Police/Policies/Burlingame%20PD%20Policy%20Manual%2003-18-2022.pdf,,
SB978-062,Butte County Sheriff's Department/Coroner,,no,yes,Oroville,39.51388,-121.5561,Butte County,California,Sheriff,http://www.buttecounty.net,TRUE,TRUE,,https://www.buttecounty.net/Portals/30/Documents/2022%20BCDA%20Bureau%20of%20Investigation%20Policy%20Manual.pdf?ver=2022-04-14-111534-907,https://www.buttecounty.net/Portals/24/pdf/1BCSO%20AB%20481%20Policy%2004_22_22.pdf?ver=2022-04-25-080253-163,,
SB978-066,Calaveras County Sheriff's Department,,no,yes,San Andreas,38.19635,-120.6814,Calaveras County,California,Sheriff,https://sheriff.calaverasgov.us,TRUE,TRUE,,https://sheriff.calaverasgov.us/LinkClick.aspx?fileticket=IF8AUbjJzSk%3D&portalid=21,https://sheriff.calaverasgov.us/Portals/Sheriff/Documents/Policy%20709%20Calaveras%20County%20Sheriff.pdf?ver=Iu7-TXqGvPwQyOCpSyzWJA%3D%3D,,"Policy says to see attachement ""CCSO 2022 Military Equipment Report"" but it's not on their site (as of 10-18-22)"
SB978-067,Calexico Police Department,,no,yes,Calexico,32.67864,-115.4987,Imperial County,California,Police,https://www.calexico.ca.gov,TRUE,TRUE,TRUE,https://www.calexico.ca.gov/vertical/sites/%7B342ED706-1EBB-4FDE-BD1E-9543BAD44C09%7D/uploads/CPD_Policy_Manual_RELEASE_20201205_T023716_Calexico_PD_Policy_Manual.pdf,https://www.calexico.ca.gov/vertical/sites/%7B342ED706-1EBB-4FDE-BD1E-9543BAD44C09%7D/uploads/RELEASE_20220228_T143708_Calexico_PD_Policy_Manual.pdf,https://www.calexico.ca.gov/vertical/sites/%7B342ED706-1EBB-4FDE-BD1E-9543BAD44C09%7D/uploads/Calexico_Military_Equipment_List_.pdf,
SB978-068,California City Police Department,,no,yes,California City,35.12894,-117.9856,Kern County,California,Police,https://www.californiacity-ca.gov,TRUE,TRUE,,https://www.californiacity-ca.gov/CC/images/California_City_PD_-_Policy_Manual_2022.pdf,https://www.californiacity-ca.gov/CC/images/California_City_PD_-_Policy_Manual_2022.pdf,,
SB978-071,Calistoga Police Department,,no,yes,Calistoga,38.57878,-122.5795,Napa County,California,Police,https://www.ci.calistoga.ca.us,TRUE,TRUE,,https://www.ci.calistoga.ca.us/home/showpublisheddocument/35615/637453678162830000,https://www.ci.calistoga.ca.us/home/showpublisheddocument/37873,,
SB978-072,Campbell Police Department,,no,yes,Campbell,37.28890,-121.9449,Santa Clara County,California,Police,https://www.ci.campbell.ca.us,TRUE,TRUE,,https://www.campbellca.gov/DocumentCenter/View/16869/08262022_Campbell_PD_Policy_Manual?bidId=,https://www.campbellca.gov/DocumentCenter/View/16869/08262022_Campbell_PD_Policy_Manual?bidId=,,
SB978-073,City of Capitola,,,yes,Capitola,36.97472,-121.9537,Santa Cruz County,California,Police,https://www.cityofcapitola.org,TRUE,TRUE,TRUE,https://www.cityofcapitola.org/sites/default/files/fileattachments/police/page/14101/release_20220831_t132606_capitola_pd_ca_policy_manual_1.pdf,https://www.cityofcapitola.org/sites/default/files/fileattachments/police/page/21751/cpd_ab481_dally_final_.pdf,https://www.cityofcapitola.org/sites/default/files/fileattachments/police/page/21751/cpd_equipment_ab_481.pdf,
SB978-074,Carlsbad Police Department,,no,yes,Carlsbad,33.16588,-117.3382,San Diego County,California,Police,https://www.carlsbadca.gov/departments/police,TRUE,TRUE,TRUE,https://www.carlsbadca.gov/home/showpublisheddocument/4661/637521732227470000,https://www.carlsbadca.gov/home/showpublisheddocument/10009/637877016964218030,https://www.carlsbadca.gov/home/showpublisheddocument/9565/637885488390100000,
SB978-075,Carmel Police Department,,no,yes,Carmel,36.55443,-121.9244,Monterey County,California,Police,https://ci.carmel.ca.us,TRUE,TRUE,,https://ci.carmel.ca.us/sites/main/files/file-attachments/carmel_by_the_sea_pd_policy_manual.pdf,NA,,
SB978-076,Cathedral City Police Department,,no,yes,Cathedral City,33.78101,-116.4643,Riverside County,California,Police,http://www.cathedralcitypolice.com,TRUE,TRUE,,https://www.cathedralcitypolice.com/wp-content/uploads/2020/07/RELEASE_20200722_T102646_Cathedral_City_Police_Department_Policy_Manual_Redacted.pdf,https://www.cathedralcitypolice.com/wp-content/uploads/2022/01/Military_Equipment-Policy-708-CCPD.pdf,,
SB978-077,Central Marin Police Authority,,no,yes,Larkspur,37.93506,-122.5355,Marin County,California,Police,https://www.centralmarinpolice.org,TRUE,TRUE,,https://www.centralmarinpolice.org/DocumentCenter/View/993/Policy-Manual-09-19-2019,https://www.centralmarinpolice.org/DocumentCenter/View/1215/CMPA-Military-Equipment-Use-Policy---Attachement-1-4-5-2022,,
SB978-078,Ceres Department of Public Safety,,no,yes,Ceres,37.59476,-120.9560,Stanislaus County,California,Police,https://www.ci.calistoga.ca.us,TRUE,TRUE,,https://www.ci.calistoga.ca.us/home/showpublisheddocument/35615/637453678162830000,https://www.ci.calistoga.ca.us/home/showpublisheddocument/37873,,
SB978-080,Chaffey Community College District Police Department,,no,yes,Rancho Cucamonga,34.10280,-117.5753,San Bernardino County,California,College/University,https://www.chaffey.edu,TRUE,FALSE,FALSE,https://www.chaffey.edu/police/docs/policy-manual.pdf ,NA,,
SB978-082,Chico Police Department,,no,yes,Chico,39.73200,-121.8420,Butte County,California,Police,https://chico.ca.us,TRUE,TRUE,,https://chico.ca.us/sites/main/files/file-attachments/chico_pd_ca_policy_manual.pdf,https://chico.ca.us/sites/main/files/file-attachments/proposed_policy_709_-_military_equipment_and_inventory.pdf?1646702442,,
SB978-083,Chino Police Department,,no,yes,Chino,34.01342,-117.6893,San Bernardino County,California,Police,https://www.cityofchino.org,TRUE,TRUE,TRUE,https://cityofchino.org/DocumentCenter/View/2603/Chino_PD_Policy_Manual-Updated-3232022?bidId=,https://cityofchino.org/DocumentCenter/View/2603/Chino_PD_Policy_Manual-Updated-3232022?bidId=,https://ca-chino.civicplus.com/DocumentCenter/View/3267/January-2023-CPD-Policy-Manual?bidId=,
SB978-084,Chowchilla Police Department,,no,yes,Chowchilla,37.12319,-120.2596,Madera County,California,Police,https://www.cityofchowchilla.org,TRUE,TRUE,,https://www.cityofchowchilla.org/DocumentCenter/View/1547/Department-Policy-Manual?bidId=,https://www.cityofchowchilla.org/DocumentCenter/View/2650/Item-333-Policy-705---Military-Equipment-Use-Policy-AB-481-00932674x7AD00-002,,
SB978-085,Chula Vista Police Department,,no,yes,Chula Vista,32.64090,-117.0843,San Diego County,California,Police,https://www.chulavistaca.gov,TRUE,TRUE,TRUE,https://www.chulavistaca.gov/home/showpublisheddocument/25855/638140352222070000,https://www.chulavistaca.gov/home/showpublisheddocument/25847/638139883003830000,,
SB978-087,Citrus Heights Police Department,,no,yes,Citrus Heights,38.69879,-121.2717,Sacramento County,California,Police,http://www.citrusheights.net,TRUE,TRUE,,http://citrusheights.net/1006/Department-Policies,https://www.citrusheights.net/DocumentCenter/View/17618/Military-Equipment-Use---Proposed-Policy-706,,
SB978-089,Claremont Police Department,,no,yes,Claremont,34.09641,-117.7164,Los Angeles County,California,Police,https://www.ci.claremont.ca.us,TRUE,TRUE,,https://www.ci.claremont.ca.us/home/showpublisheddocument/14969/637296403391470000,https://www.ci.claremont.ca.us/home/showpublisheddocument/18217/637879380386230000,,"Not sure if this counts as a policy manual; can't find a link to all of their policies (i.e. a manual / list of policies) on their website, but they have individual policies scattered throughout"
SB978-090,Clayton Police Department,,no,yes,Clayton,37.94285,-121.9372,Contra Costa County,California,Police,https://ci.clayton.ca.us,TRUE,TRUE,,https://claytonca.gov/fc/police/clayton-police-department-policy-manual.pdf,https://claytonca.gov/fc/police/clayton-police-department-policy-manual.pdf,,
SB978-091,Clearlake Police Department,,no,yes,Clearlake,38.95072,-122.6224,Lake County,California,Police,https://clearlake.ca.us,TRUE,TRUE,,https://www.clearlake.ca.us/DocumentCenter/View/1439/Clearlake-PD-Policy-Manual-2019-12-27,https://www.clearlake.ca.us/DocumentCenter/View/1908/Draft-CPD-Military-Equipment-Policy---30-Day-Reviewpdf,,
SB978-092,Cloverdale Police Department,,no,yes,Cloverdale,38.80610,-123.0177,Sonoma County,California,Police,https://www.cloverdale.net,TRUE,TRUE,,https://www.cloverdale.net/DocumentCenter/View/4285/Updated-Policy-manual?bidId=,https://www.cloverdale.net/DocumentCenter/View/4960/2021-AB-481-CLOVERDALE-POLICE-MILITARY-EQUIPMENT-USE-POLICY-pdf,,
SB978-093,Clovis Police Department,,no,yes,Clovis,36.82396,-119.6943,Fresno County,California,Police,https://cityofclovis.com,TRUE,TRUE,,https://cityofclovis.com/wp-content/uploads/2021/10/CPD-Policy-Manual-09152021.pdf,https://cityofclovis.com/wp-content/uploads/2022/03/CPD-Policy-Manual-03302022.pdf,,
SB978-094,Clovis Unified School District Police Department,,no,yes,Clovis,36.82396,-119.6943,Fresno County,California,School,https://www.cusd.com,TRUE,TRUE,,https://www.cusd.com/Downloads/CUSD%20POLICY%20MANUAL.pdf,NA,,
SB978-095,Coalinga Police Department,,no,yes,Coalinga,36.13745,-120.3625,Fresno County,California,Police,https://www.coalinga.com,TRUE,TRUE,,https://www.coalinga.com/DocumentCenter/View/89/10-02-2018-Release-Coalinga-Police-Department-Policy-Manual-PDF,NA,,
SB978-096,Coast Community College District Police Department,,no,yes,Costa Mesa,33.66389,-117.9024,Orange County,California,College/University,https://www.goldenwestcollege.edu,TRUE,TRUE,,https://www.goldenwestcollege.edu/Links/pdf/RELEASE_20190924_T141046_Coast_Community_College_Police_Department_Protocol_Manual.pdf,NA,,
SB978-098,Colma Police Department,,no,yes,Colma,37.67792,-122.4598,San Mateo County,California,Police,https://www.colma.ca.gov,TRUE,TRUE,,https://storage.googleapis.com/proudcity/colmaca/uploads/2019/12/RELEASE_20220908_T151533_Colma_PD_Policy_Manual.pdf,https://storage.googleapis.com/proudcity/colmaca/uploads/2022/03/Colma-Police-Military-Equipment-Policy.pdf,,
SB978-099,Colton Police Department,,no,yes,Colton,34.07214,-117.3232,San Bernardino County,California,Police,https://www.coltonpd.org,TRUE,TRUE,,https://coltonpd.org/DocumentCenter/View/283/Colton-Police-Department-Policy-Manual-PDF,https://coltonpd.org/DocumentCenter/View/296/Policy-707-Colton-Military-Equipment-Use-Policy?bidId=,,
SB978-100,Colusa County District Attorney,,no,yes,Colusa,39.21428,-122.0090,Colusa County,California,District Attorney,https://www.countyofcolusa.org,TRUE,TRUE,TRUE,https://www.countyofcolusa.org/DocumentCenter/View/13410/Colusa-County-Sheriffs-Office-Policy-Manual,https://www.countyofcolusa.org/DocumentCenter/View/15369/CCSO-POLICY-709,https://www.countyofcolusa.org/DocumentCenter/View/15370/CCSO-POLICY-7094-MILITARY-EQUIPMENT-INVENTORY,
SB978-101,Colusa County Sheriff's Department,,no,yes,Colusa,39.21428,-122.0090,Colusa County,California,Sheriff,https://countyofcolusa.org,TRUE,TRUE,TRUE,https://www.countyofcolusa.org/DocumentCenter/View/13410/Colusa-County-Sheriffs-Office-Policy-Manual,https://countyofcolusa.org/DocumentCenter/View/15369/CCSO-POLICY-709,https://countyofcolusa.org/DocumentCenter/View/15370/CCSO-POLICY-7094-MILITARY-EQUIPMENT-INVENTORY,
SB978-102,Colusa Police Department,,no,yes,Colusa,39.21428,-122.0090,Colusa County,California,Police,https://www.cityofcolusa.com,TRUE,TRUE,TRUE,https://countyofcolusa.org/DocumentCenter/View/13410/Colusa-County-Sheriffs-Office-Policy-Manual,https://www.countyofcolusa.org/DocumentCenter/View/15369/CCSO-POLICY-709,https://www.countyofcolusa.org/DocumentCenter/View/15370/CCSO-POLICY-7094-MILITARY-EQUIPMENT-INVENTORY?bidId=,
SB978-105,Concord Police Department,,no,yes,Concord,37.98165,-122.0258,Contra Costa County,California,Police,http://www.cityofconcord.org,TRUE,TRUE,,https://www.cityofconcord.org/841/Department-Policy,https://cityofconcord.org/DocumentCenter/View/7502/CPD-Draft-Policy-706---Military-Equipment?bidId=,,
SB978-107,Contra Costa Community College District Police Department,,no,yes,Martinez,38.01393,-122.1349,Contra Costa County,California,College/University,https://www.4cd.edu,TRUE,TRUE,,https://www.4cd.edu/pd/docs/contra-costa-community-college-pd-manual.pdf,https://www.4cd.edu/pd/docs/contra-costa-community-college-pd-manual.pdf,,
SB978-108,Contra Costa County District Attorney,,no,yes,Martinez,38.01393,-122.1349,Contra Costa County,California,District Attorney,https://www.contracosta.ca.gov,TRUE,TRUE,TRUE,https://www.contracosta.ca.gov/DocumentCenter/View/67484/CCCDAO-Policy-Manual-PDF?bidId=,https://www.cocosheriff.org/home/showpublisheddocument/484/637962536977370000,https://www.cocosheriff.org/home/showpublisheddocument/486/637962537855200000,
SB978-109,Contra Costa County Sheriff's Department/Coroner,,no,yes,Martinez,38.01393,-122.1349,Contra Costa County,California,Sheriff,https://www.cocosheriff.org,TRUE,TRUE,,https://www.cocosheriff.org/home/showpublisheddocument/442/637873667474700611,https://www.cocosheriff.org/home/showpublisheddocument/442/637873667474700611,,
SB978-110,Corcoran Police Department,,no,yes,Corcoran,36.09805,-119.5590,Kings County,California,Police,https://www.cityofcorcoran.com/,TRUE,TRUE,,https://cms9files.revize.com/corcoranca/Corcoran%20PD%20Policy%20Manual%20(2022_05).pdf,https://cms9files.revize.com/corcoranca/Corcoran%20PD%20Policy%20Manual%20(2022_05).pdf,,
SB978-112,Corona Police Department,,no,yes,Corona,33.87925,-117.5748,Riverside County,California,Police,https://www.coronaca.gov,TRUE,TRUE,TRUE,https://www.coronaca.gov/home/showpublisheddocument/17388/637496635842370000,https://www.coronaca.gov/home/showpublisheddocument/21524/637926319841070000,https://www.coronaca.gov/home/showpublisheddocument/22568/637932194757500000,
SB978-113,Coronado Police Department,,no,yes,Coronado,32.67619,-117.1709,San Diego County,California,Police,https://coronado.ca.us,TRUE,TRUE,,https://www.coronado.ca.us/DocumentCenter/View/1164/Policy-Manual-PDF,https://www.coronado.ca.us/DocumentCenter/View/1166/AB-481-PDF,,
SB978-114,Costa Mesa Police Department,,no,yes,Costa Mesa,33.66389,-117.9024,Orange County,California,Police,https://www.costamesaca.gov,TRUE,TRUE,TRUE,https://www.costamesaca.gov/home/showpublisheddocument/40449/637442270717970000,https://www.costamesaca.gov/home/showpublisheddocument/51018/637855506206230000,https://www.costamesaca.gov/home/showpublisheddocument/51016/637908990846430000,
SB978-115,Cosumnes River College Police Department,Los Rios Community College District Police Department,no,yes,Sacramento,38.57944,-121.4908,Sacramento County,California,College/University,https://police.losrios.edu,TRUE,TRUE,,https://police.losrios.edu/lrpd/doc/policy-manual.pdf,https://police.losrios.edu/lrpd/doc/policy-manual.pdf,,
SB978-116,Cotati Police Department,,no,yes,Cotati,38.32336,-122.7083,Sonoma County,California,Police,http://www.cotaticity.org,TRUE,TRUE,,https://www.cotaticity.org/DocumentCenter/View/432/Cotati-Police-Department-Policy-Manual-PDF,https://www.cotaticity.org/DocumentCenter/View/433/Military-Equipment-PDF,,
SB978-117,Covina Police Department,,no,yes,Covina,34.08743,-117.8899,Los Angeles County,California,Police,https://covinaca.gov,TRUE,TRUE,,https://covinapd.org/wp-content/uploads/2022/09/covinapd-policy-manual-2022-09.pdf,https://covinapd.org/wp-content/uploads/2022/09/covinapd-policy-manual-2022-09.pdf,,
SB978-118,CPSU Pomona Department of Public Safety,,no,yes,Pomona,34.05499,-117.7500,Los Angeles County,California,College/University,https://www.cpp.edu,TRUE,TRUE,,https://www.cpp.edu/police/csu_pomona_policy_and_procedure_manual.pdf,NA,,
SB978-119,Cal Poly University Police,,,,San Luis Obispo,35.28579,-120.6627,San Luis Obispo County,California,College/University,https://afd.calpoly.edu,TRUE,TRUE,,https://afd.calpoly.edu/police/police-administration/policies,https://afd.calpoly.edu/police/police-administration/policies/700/709-regulated-equipment-tools.pdf,,
SB978-121,CSU Bakersfield University Police Department,,no,yes,Bakersfield,35.36723,-119.0189,Kern County,California,College/University,https://www.csub.edu,TRUE,TRUE,,https://www.csub.edu/bas/police/_files/CSUB-Policy-Manual-RELEASE.pdf,https://www.csub.edu/bas/police/_files/Regulated-Equipment-and-Tools-Policy.pdf,,
SB978-122,CSU Channel Islands University Police Department,,no,yes,Camarillo,34.22340,-119.0507,Ventura County,California,College/University,https://www.csuci.edu,TRUE,TRUE,,https://www.csuci.edu/publicsafety/police/lexipol-manuals/lexipol-manual-06172020.pdf,NA,,
SB978-123,CSU Chico University Police Department,,no,yes,Chico,39.73200,-121.8420,Butte County,California,College/University,https://www.csuchico.edu,TRUE,TRUE,,https://www.csuchico.edu/up/_assets/documents/upd-policy.pdf,NA,,
SB978-124,CSU Dominguez Hills University Police and Parking,,no,yes,Carson,33.83161,-118.2621,Los Angeles County,California,College/University,https://www.csudh.edu,TRUE,TRUE,,https://www.csudh.edu/Assets/csudh-sites/dhpd/docs/RELEASE_20191203_T174623_CSU_Dominguez_Hills_PD_CA_Policy_Manual%20(1).pdf,NA,,
SB978-125,CSU East Bay University Police Department,,no,yes,Hayward,37.67134,-122.0856,Alameda County,California,College/University,https://www.csueastbay.edu,TRUE,TRUE,,https://www.csueastbay.edu/upd/files/docs/csu-east-bay-policy-and-procedure-manual.pdf,NA,,
SB978-126,CSU Fresno University Police Department,,no,yes,Fresno,36.74084,-119.7855,Fresno County,California,College/University,http://www.fresnostate.edu,TRUE,TRUE,,https://adminfinance.fresnostate.edu/police/policies.html,NA,,
SB978-127,CSU Fullerton University Police Department,,no,yes,Fullerton,33.87033,-117.9290,Orange County,California,College/University,https://police.fullerton.edu,TRUE,TRUE,,https://police.fullerton.edu/policies-training/Default.php,NA,,
SB978-128,Cal Poly Humboldt Police Department ,,,yes,Arcata,40.86766,-124.0851,Humboldt County,California,College/University,https://police.humboldt.edu,TRUE,FALSE,FALSE,https://police.humboldt.edu/sites/default/files/policy_manual_04-01-2022.pdf,,,A task force determined to disarm the police department: https://associatedstudents.humboldt.edu/sites/default/files/res_2020-21-06_restructure_upd.pdf
SB978-129,CSU Long Beach University Police Department,,no,yes,Long Beach,33.76672,-118.1924,Los Angeles County,California,College/University,https://www.csulb.edu,TRUE,TRUE,,https://drive.google.com/file/d/1o5vFDJhQj3-NeQ_oG2BG6Gv6OZMdM_71/view?usp=sharing,NA,,Access is denied to this doc. Linked from https://csumb.edu/police/ 
SB978-130,Cal State LA Police Department,,,yes,Los Angeles,34.05357,-118.2454,Los Angeles County,California,College/University,https://www.calstatela.edu,TRUE,FALSE,FALSE,https://www.calstatela.edu/police/policies-and-training,,,
SB978-132,CSU Monterey Bay University Police Department,,no,yes,Seaside,36.60390,-121.8530,Monterey County,California,College/University,https://csumb.edu,TRUE,TRUE,,https://csumb.edu/media/csumb/section-editors/university-police/CSU_Monterey_Bay_PD_CA_Policy_Manual.pdf,NA,,Link is broken
SB978-133,CSU Northridge Department of Police Services,,no,yes,Northridge,34.23512,-118.5338,Los Angeles County,California,College/University,https://www.csun.edu,TRUE,TRUE,,https://www.csun.edu/police/policy-manual-0,NA,,
SB978-134,CSU Sacramento Public Safety/University Police Department,,no,yes,Sacramento,38.57944,-121.4908,Sacramento County,California,College/University,https://www.csus.edu,TRUE,TRUE,,https://www.csus.edu/campus-safety/police-department/_internal/_documents/public__csu_sacramento_pd_policy_manual.pdf,NA,,
SB978-135,CSU San Bernardino University Police Department,,no,yes,San Bernardino,34.12717,-117.3348,San Bernardino County,California,College/University,https://www.csusb.edu,TRUE,FALSE,FALSE,https://www.csusb.edu/police/public-information/csusb-university-police-policies,,,
SB978-136,San Diego State University Police Department,,,,San Diego,32.71568,-117.1617,San Diego County,California,College/University,https://police.sdsu.edu,TRUE,FALSE,FALSE,https://police.sdsu.edu/about/sdsupd_manual.pdf,,,
SB978-138,CSU San Jos√© University Police Department,,no,yes,San Jose,37.33865,-121.8854,Santa Clara County,California,College/University,https://www.sjsu.edu,TRUE,TRUE,, https://www.sjsu.edu/police/docs/forms/UPD%20Policy%20Manual.pdf,NA,,
SB978-139,CSU San Marcos University Police Department,,no,yes,San Marcos,33.14115,-117.1607,San Diego County,California,College/University,https://www.csusm.edu,TRUE,TRUE,,https://www.csusm.edu/police/policepolicymanual.pdf,NA,,
SB978-140,Sonoma State University Police and Parking Services,,,,Rohnert Park,38.34242,-122.7102,Sonoma County,California,College/University,https://web.sonoma.edu,TRUE,FALSE,FALSE,https://police.sonoma.edu/sites/police/files/images/release_20211005_t155608_sonoma_state_university_police_policy_manual.pdf,,,
SB978-141,CSU Stanislaus Police Department,,,,Turlock,37.49528,-120.8467,Stanislaus County,California,College/University,https://www.csustan.edu,TRUE,FALSE,FALSE, https://www.csustan.edu/sites/default/files/groups/University%20Police%20Department/documents/20200617_stanislaus_state_pd_policy_manual.pdf,,,
SB978-142,Cuesta College Department of Public Safety,,no,yes,San Luis Obispo,35.28579,-120.6627,San Luis Obispo County,California,College/University,https://www.cuesta.edu,TRUE,TRUE,,https://www.cuesta.edu/about/documents/publicsafety/PolicyManualFull_09_2020.pdf,NA,,
SB978-143,Culver City Police Department,,no,yes,Culver City,34.02161,-118.3962,Los Angeles County,California,Police,https://www.culvercitypd.org,TRUE,TRUE,,https://www.culvercitypd.org/files/assets/police/documents/policies/release_20220615_culver_city_pd_policy_manual.pdf,https://www.culvercitypd.org/files/assets/police/documents/policies/release_20220615_culver_city_pd_policy_manual.pdf,,
SB978-144,Cypress Police Department,,no,yes,Cypress,33.82434,-118.0372,Orange County,California,Police,https://www.cypressca.org,TRUE,TRUE,,https://www.cypressca.org/home/showpublisheddocument/9444/637540739710700000,https://www.culvercitypd.org/files/assets/police/documents/policies/release_20220615_culver_city_pd_policy_manual.pdf,,
SB978-145,Daly City Police Department,,no,yes,Daly City,37.69109,-122.4724,San Mateo County,California,Police,https://www.dalycity.org/,TRUE,TRUE,TRUE,https://public.powerdms.com/DalyCityPD/tree/documents/2526717,https://dalycity.org/DocumentCenter/View/6172/Military-Equipment-Draft-4722-PDF,https://dalycity.org/DocumentCenter/View/6171/Military-Equipment-List-Draft-PDF?bidId=,
SB978-148,Davis Police Department,,no,yes,Davis,38.54669,-121.7446,Yolo County,California,Police,https://www.cityofdavis.org,TRUE,TRUE,,https://www.cityofdavis.org/city-hall/police-department/administration/department-manual,https://www.cityofdavis.org/home/showpublisheddocument/17599,,
SB978-150,Del Norte County Sheriff's Department,,no,yes,Crescent City,41.75281,-124.2005,Del Norte County,California,Sheriff,http://www.co.del-norte.ca.us,TRUE,TRUE,,https://www.co.del-norte.ca.us/media/Sheriffs/SO_Policy_Manual%2007.01.2020.pdf,NA,,
SB978-151,Del Rey Oaks Police Department,,no,yes,Del Rey Oaks,36.59535,-121.8404,Monterey County,California,Police,https://www.delreyoaks.org,TRUE,TRUE,TRUE,https://www.delreyoaks.org/sites/default/files/fileattachments/police_department/page/2726/release_20211207_t180436_del_rey_oaks_pd_ca_policy_manual.pdf,https://www.delreyoaks.org/sites/default/files/fileattachments/police_department/page/141/del_rey_oaks_draft_military_equipment_use_policy.pdf,https://www.delreyoaks.org/sites/default/files/fileattachments/police_department/page/141/section_1_qualifying_equipment_dro_pd_owns.pdf  https://www.delreyoaks.org/sites/default/files/fileattachments/police_department/page/141/section_3_qualifying_equipment_dro_pd_is_seeking.pdf,
SB978-152,Delano Police Department,,no,yes,Delano,35.77046,-119.2453,Kern County,California,Police,http://www.cityofdelano.org,TRUE,TRUE,,https://www.cityofdelano.org/DocumentCenter/View/5576/Delano-Police-Department-Policy-Manual-,https://www.cityofdelano.org/DocumentCenter/View/6158/Delano-Police-Department-Proposed-Military-Equipment-Policy,,
SB978-153,Desert Hot Springs Police Department,,no,yes,Desert Hot Springs,33.96145,-116.5102,Riverside County,California,Police,https://www.cityofdhs.org,TRUE,TRUE,,https://cdn2.hubspot.net/hubfs/4435988/pd%20DHSPD%20Policy%20and%20Procedure%20Manual.pdf,NA,,
SB978-154,Dinuba Police Department,,no,yes,Dinuba,36.54431,-119.3856,Tulare County,California,Police,http://www.dinuba.org,TRUE,TRUE,,https://www.dinuba.org/images/2020/Dinuba-PD-Policy-Manual.pdf,https://dinuba.org/images/2022/Dinuba_PD_Policy_Manual.pdf,,
SB978-155,Dixon Police Department,,no,yes,Dixon,38.44552,-121.8171,Solano County,California,Police,https://www.dixonpolice.org,TRUE,TRUE,,https://www.dixonpolice.org/media/howdoi/Dixon%20Police%20Department%20Policy%202022.pdf,https://www.dixonpolice.org/media/howdoi/Dixon%20Police%20Department%20Policy%202022.pdf,,
SB978-156,Dos Palos Police Department,,no,yes,Dos Palos,36.98560,-120.6278,Merced County,California,Police,https://www.dospalospd.org,TRUE,TRUE,,https://www.dospalospd.org/_files/ugd/87680d_b57afbfcb2bf416faa5127e5a83d7857.pdf,https://www.dospalospd.org/_files/ugd/87680d_b57afbfcb2bf416faa5127e5a83d7857.pdf,,
SB978-157,Downey Police Department,,no,yes,Downey,33.94077,-118.1277,Los Angeles County,California,Police,https://www.downeyca.org,TRUE,TRUE,,https://www.downeyca.org/Home/ShowAsyncTempDocument?folderGuid=52AN6WJV&fileName=2a7c3e1daea54edd932dea9e4ef2b731_DPD_PolicyManual.pdf&ContentType=application%2Fpdf,https://www.downeyca.org/home/showpublisheddocument/6512/637878573693470000,,
SB978-158,East Bay Regional Parks District Department of Public Safety,,no,yes,Castro Valley,37.69469,-122.0853,Alameda County,California,Parks,https://www.ebparks.org,TRUE,TRUE,,https://www.ebparks.org/sites/default/files/EBRPD%20Police%20Policy%20Manual%202021%2006-21.pdf,NA,,
SB978-159,East Palo Alto Police Department,,no,yes,East Palo Alto,37.47320,-122.1396,San Mateo County,California,Police,https://www.cityofepa.org,TRUE,TRUE,,https://www.cityofepa.org/police/page/policies-and-procedures,https://www.cityofepa.org/sites/default/files/fileattachments/police_department/page/8571/705_military_equipment_policy.pdf,,
SB978-160,El Cajon Police Department,,no,yes,El Cajon,32.79495,-116.9590,San Diego County,California,Police,https://docs.cityofelcajon.us,TRUE,TRUE,,NA,NA,,
SB978-161,El Camino Community College District Police Department,,no,yes,Torrance,33.83707,-118.3432,Los Angeles County,California,College/University,https://www.elcamino.edu,TRUE,TRUE,,https://www.elcamino.edu/about/depts/police/docs/ECPD%20Manual.pdf,https://www.elcamino.edu/support/health-safety/police/specnotice/docs/Policy_706.pdf,,
SB978-162,El Centro Police Department,,no,yes,El Centro,32.79616,-115.5700,Imperial County,California,Police,http://www.cityofelcentro.org,TRUE,TRUE,,https://cityofelcentro.org/police/wp-content/uploads/sites/9/2022/07/RELEASE_20220308_T173248_El_Centro_PD_Policy_Manual-1.pdf,https://cityofelcentro.org/police/wp-content/uploads/sites/9/2022/07/RELEASE_20220308_T173248_El_Centro_PD_Policy_Manual-1.pdf,,
SB978-163,El Cerrito Police Department,,no,yes,El Cerrito,37.91563,-122.3115,Contra Costa County,California,Police,https://www.el-cerrito.org,TRUE,TRUE,,https://www.el-cerrito.org/DocumentCenter/View/17217/El-Cerrito-PD-Policy-Manual,https://www.el-cerrito.org/DocumentCenter/View/17217/El-Cerrito-PD-Policy-Manual,,
SB978-165,El Dorado County Sheriff's Department,,no,yes,South Lake Tahoe,38.91162,-120.0078,El Dorado County,California,Sheriff,https://www.edcgov.us,TRUE,TRUE,,https://www.edcgov.us/Government/sheriff/Documents/2020_EDSO_Policy_Manual.pdf,https://www.edcgov.us/Government/sheriff/Documents/EDSOPolicy709Military_Equipment.pdf,,
SB978-166,El Monte Police Department,,no,yes,El Monte,34.07105,-118.0309,Los Angeles County,California,Police,https://www.ci.el-monte.ca.us,TRUE,TRUE,TRUE,https://www.ci.el-monte.ca.us/DocumentCenter/View/3728/El-Monte-Police-Policy-Manual-01-22-20,https://www.ci.el-monte.ca.us/DocumentCenter/View/5311/EMPD-Policy-706---Military_Equipment,https://www.ci.el-monte.ca.us/DocumentCenter/View/5310/El-Monte-PD-Military-Equipment-Inventory-,
SB978-168,El Segundo Police Department,,no,yes,El Segundo,33.92084,-118.4160,Los Angeles County,California,Police,https://www.elsegundopd.org,TRUE,TRUE,,https://www.elsegundopd.org/Home/ShowDocument?id=1061,https://www.elsegundopd.org/home/showpublisheddocument/5178/637831155687070000,,
SB978-169,Elk Grove Police Department,,no,yes,Elk Grove,38.40902,-121.3651,Sacramento County,California,Police,http://www.elkgrovepd.org,TRUE,TRUE,,https://www.elkgrovepd.org/transparency/egpd_policy_manual,https://cdn5-hosted.civiclive.com/UserFiles/Servers/Server_118017/File/Education%20and%20Training%20Materials/Military%20Equipment%20031022.pdf,,
SB978-170,Emeryville Police Department,,no,yes,Emeryville,37.83717,-122.3017,Alameda County,California,Police,https://www.ci.emeryville.ca.us,TRUE,TRUE,,https://www.ci.emeryville.ca.us/ArchiveCenter/ViewFile/Item/5064,https://www.ci.emeryville.ca.us/ArchiveCenter/ViewFile/Item/5064,,
SB978-171,Escalon Police Department,,no,yes,Escalon,37.79676,-120.9954,San Joaquin County,California,Police,http://www.cityofescalon.org,TRUE,TRUE,,https://escalon.hosted.civiclive.com/government/departments/police/policiesprocedures,NA,,
SB978-172,Escondido Police Department,,no,yes,Escondido,33.12354,-117.0823,San Diego County,California,Police,https://police.escondido.org,TRUE,TRUE,,https://police.escondido.org/SharedFiles/Download.aspx?pageid=3026&mid=5045&fileid=118583,https://www.police.escondido.org/Data/Sites/4/media/pdfs/DI1.55MilitaryEquipmentUsePolicy031722.pdf,,
SB978-173,Etna Police Department,,no,yes,Etna,41.45711,-122.8928,Siskiyou County,California,Police,https://www.etnaca.com,TRUE,TRUE,,https://www.etnaca.com/_files/ugd/70436e_409291161be64ec28b1cac784312754d.pdf,NA,,
SB978-174,Eureka Police Department,,no,yes,Eureka,40.80327,-124.1595,Humboldt County,California,Police,http://www.ci.eureka.ca.gov,TRUE,TRUE,,https://new.ci.eureka.ca.gov/civicax/filebank/blobdload.aspx?BlobID=19155,NA,,
SB978-175,Exeter Police Department,,no,yes,Exeter,36.29779,-119.1361,Tulare County,California,Police,https://cityofexeter.com/departments/exeter-police-department/,TRUE,TRUE/Draft,TRUE,https://cityofexeter.com/documents/police-department-policy-manual/,https://cityofexeter.com/wp-content/uploads/2022/05/Draft-Uncodified-Ordinance-703-Exhibit-A-EPD-Policy-706-Military-Equipment.pdf,https://cityofexeter.com/wp-content/uploads/2022/05/Exeter-Police-Department-Military-Equipment-Inventory.pdf,Inventory is separate. Seems to be not yet approved but not a draft.
SB978-177,Fairfax Police Department,,no,yes,Fairfax,37.98517,-122.5904,Marin County,California,Police,https://www.townoffairfax.org,TRUE,TRUE,TRUE,https://www.fostercity.org/sites/default/files/fileattachments/police/page/18231/2022_fcpd_policy_manual.pdf,https://www.fostercity.org/sites/default/files/fileattachments/police/page/41631/military_equipment_use_policy.pdf,https://www.fostercity.org/sites/default/files/fileattachments/police/page/41631/equipment_list_ab_481.pdf,
SB978-178,Fairfield Police Department,,no,yes,Fairfield,38.24924,-122.0443,Solano County,California,Police,http://www.fairfield.ca.gov,TRUE,TRUE,,https://www.fairfield.ca.gov/home/showpublisheddocument/3690/637746495363430000,https://www.fairfield.ca.gov/home/showpublisheddocument/6879/637847620058430000,,
SB978-179,Farmersville Police Department,,no,yes,Farmersville,36.29924,-119.2072,Tulare County,California,Police,https://www.cityoffarmersville-ca.gov,TRUE,TRUE,,https://www.cityoffarmersville-ca.gov/DocumentCenter/View/736/Farmersville_PD_Policy_Manual-ver-07-22-2020,NA,,
SB978-180,Ferndale Police Department,,no,yes,Ferndale,40.58029,-124.2605,Humboldt County,California,Police,https://ci.ferndale.ca.us,TRUE,TRUE,,https://ci.ferndale.ca.us/wp/wp-content/uploads/Ferndale_PD_Policy_Manual-7-12-22.pdf,https://ci.ferndale.ca.us/wp/wp-content/uploads/Ferndale_PD_Policy_Manual-7-12-22.pdf,,
SB978-181,Firebaugh Police Department,,no,yes,Firebaugh,36.85605,-120.4551,Fresno County,California,Police,https://firebaugh.org,TRUE,TRUE,,https://firebaugh.org/wp-content/uploads/2020/07/Firebaugh_PD_Policy_Manual.pdf,https://firebaugh.org/wp-content/uploads/2022/05/AB481.pdf,,
SB978-182,Folsom Lake College Police Department,Los Rios Community College District Police Department,no,yes,Folsom,38.68175,-121.1628,Sacramento County,California,College/University,https://police.losrios.edu,TRUE,TRUE,,https://police.losrios.edu/lrpd/doc/policy-manual.pdf,https://police.losrios.edu/lrpd/doc/policy-manual.pdf,,
SB978-183,Folsom Police Department,,no,yes,Folsom,38.68175,-121.1628,Sacramento County,California,Police,https://www.folsom.ca.us,TRUE,TRUE,TRUE,https://www.folsom.ca.us/home/showpublisheddocument/8726/637767882069630000,https://www.folsom.ca.us/home/showpublisheddocument/11025/637915899246144580,https://www.folsom.ca.us/home/showpublisheddocument/9999/637837281174470000,
SB978-184,Fontana Police Department,,no,yes,Fontana,34.10261,-117.4358,San Bernardino County,California,Police,https://www.fontana.org,TRUE,TRUE,,https://www.fontana.org/3263/Training-Materials,https://www.fontana.org/DocumentCenter/View/37815/709-Military-Equipment,,
SB978-187,Fort Bragg Police Department,,no,yes,Fort Bragg,39.44672,-123.8059,Mendocino County,California,Police,https://city.fortbragg.com,TRUE,TRUE,,https://www.city.fortbragg.com/home/showpublisheddocument/284/637709979557930000,NA,,
SB978-188,Fortuna Police Department,,no,yes,Fortuna,40.59756,-124.1555,Humboldt County,California,Police,https://www.friendlyfortuna.com,TRUE,TRUE,,https://cms8.revize.com/revize/fortunaca/Document%20center/Department/Public%20Safety/Department%20Policies/Fortuna%20PD%20Policy%20Manual%2001-2022.pdf,https://cms8.revize.com/revize/fortunaca/Document%20center/Department/Public%20Safety/Assembly%20Bill%20481/2022-753_Military%20Equipment%20Use%20Policy.pdf,,
SB978-189,Foster City Police Department,,no,yes,Foster City,37.56114,-122.2689,San Mateo County,California,Police,https://www.fostercity.org,TRUE,TRUE,,https://www.fostercity.org/sites/default/files/fileattachments/police/page/18231/2022_fcpd_policy_manual.pdf,https://www.fostercity.org/sites/default/files/fileattachments/police/page/18231/2022_fcpd_policy_manual.pdf,,
SB978-190,Fountain Valley Police Department,,no,yes,Fountain Valley,33.708611,-117.956389,Orange County,California,Police,https://www.fountainvalley.org,TRUE,TRUE,,https://www.fountainvalley.org/DocumentCenter/View/10504/Department-Policy-Manualpdf,https://www.fountainvalley.org/DocumentCenter/View/14952/AB-481---Military-Equipment-Website,,
SB978-191,Fowler Police Department,,no,yes,Fowler,36.62998,-119.6783,Fresno County,California,Police,http://fowlercity.org,TRUE,TRUE,,https://fowlercity.org/wp-content/uploads/2019/12/FPD-Policy-Manual-2020.pdf,http://fowlercity.org/wp-content/uploads/2022/03/Policy-Final-705-Military-Equipment.pdf,,
SB978-192,Fremont Police Department,,no,yes,Fremont,37.55148,-121.9833,Alameda County,California,Police,https://www.fremontpolice.gov,TRUE,TRUE,TRUE,https://public.powerdms.com/FremontPD/tree,https://www.fremontpolice.gov/home/showdocument?id=662&t=637831505654673630,https://www.fremontpolice.gov/home/showdocument?id=664&t=637831505661392494,
SB978-194,Fresno County Sheriff's Department,,no,yes,Fresno,36.74084,-119.7855,Fresno County,California,Sheriff,https://publicinfo.fresnosheriff.org,TRUE,TRUE,TRUE,https://publicinfo.fresnosheriff.org/docs/DocView.aspx?id=6515&dbid=0&repo=SheriffPublic&cr=1,https://publicinfo.fresnosheriff.org/docs/DocView.aspx?id=6515&dbid=0&repo=SheriffPublic&cr=1,https://www.fresnosheriff.org/images/pdfs/Assembly%20Bill%20481.pdf,
SB978-195,Fresno Police Department,,no,yes,Fresno,36.74084,-119.7855,Fresno County,California,Police,https://www.fresno.gov,TRUE,TRUE,TRUE,https://cityoffresno.wpenginepowered.com/police/wp-content/uploads/sites/5/2022/10/PolicyManual-Redacted-July-2022_Redacted.pdf,https://www.fresno.gov/police/wp-content/uploads/sites/5/2022/04/Policy-706-Military-DRAFT-A-AC-AK-approved.pdf,https://www.fresno.gov/police/wp-content/uploads/sites/5/2022/04/Inventory-April-12-20222.pdf,
SB978-197,Fullerton Police Department,,no,yes,Fullerton,33.87033,-117.9290,Orange County,California,Police,http://www.fullertonpd.org,TRUE,TRUE,,https://www.cityoffullerton.com/home/showpublisheddocument/4059/637514175760700000,https://www.cityoffullerton.com/home/showpublisheddocument/5931/637828681130730000,,
SB978-198,Galt Police Department,,no,yes,Galt,38.25299,-121.3008,Sacramento County,California,Police,http://www.ci.galt.ca.us,TRUE,TRUE,,https://www.ci.galt.ca.us/home/showpublisheddocument/37970,https://www.cityofgalt.org/home/showpublisheddocument/39105/637855490695261516,,
SB978-199,Garden Grove Police Department,,no,yes,Garden Grove,33.77607,-117.9361,Orange County,California,Police,https://ggcity.org/police,TRUE,TRUE,,https://public.powerdms.com/GGPDE/tree,https://ggcity.org/sites/default/files/g.o.-2.29-military-equipment_0.pdf,,
SB978-200,Gardena Police Department,,no,yes,Gardena,33.88379,-118.3070,Los Angeles County,California,Police,http://www.gardenapd.org,TRUE,TRUE,,http://www.gardenapd.org/wp-content/uploads/2021/01/Gardena-PD-Policy-Manual.pdf,http://www.gardenapd.org/wp-content/uploads/2022/07/CA-Gardena-PD-Policy-Manual-072122.pdf,,
SB978-202,Gilroy Police Department,,no,yes,Gilroy,37.00441,-121.5717,Santa Clara County,California,Police,http://www.cityofgilroy.org,TRUE,TRUE,,https://www.cityofgilroy.org/DocumentCenter/View/8858/Policy-Manual,https://www.cityofgilroy.org/DocumentCenter/View/12674/GPD-Proposed-Policy-708-and-Equipment-Inventory?bidId=,,
SB978-203,Glendale Community College District Police Department,,no,yes,Glendale,34.14633,-118.2486,Los Angeles County,California,College/University,https://www.glendale.edu,TRUE,FALSE,FALSE,https://www.glendale.edu/home/showpublisheddocument?id=42509,,,There is a muckrock request.
SB978-204,Glendale Police Department,,no,yes,Glendale,34.14633,-118.2486,Los Angeles County,California,Police,https://www.glendaleca.gov/government/departments/police-department,TRUE,TRUE,,https://www.glendaleca.gov/home/showdocument?id=54469,https://www.glendaleca.gov/home/showpublisheddocument/66249/637866449003800000,,
SB978-206,Glendora Police Department,,no,yes,Glendora,34.13602,-117.8644,Los Angeles County,California,Police,https://www.cityofglendora.org,TRUE,TRUE,,https://www.cityofglendora.org/home/showpublisheddocument/19086/637468394005900000,https://www.cityofglendora.org/home/showpublisheddocument/19086/637900959477600000,,
SB978-209,Glenn County Sheriff's Department/Coroner,,no,yes,Orland,39.74740,-122.1954,Glenn County,California,Sheriff,https://www.countyofglenn.net,TRUE,TRUE,TRUE,https://www.countyofglenn.net/sites/default/files/RELEASE_20210312_T104331_Glenn_County_SO_Policy_Manual.pdf,https://www.countyofglenn.net/sites/default/files/Sheriff/Military_Equipment_Draft_Policy%208-22.pdf,https://www.countyofglenn.net/sites/default/files/Sheriff/Military%20Equipment%20List%202022.pdf,
SB978-210,Gonzales Police Department,,no,yes,Gonzales,36.50777,-121.4434,Monterey County,California,Police,https://gonzalesca.gov,TRUE,TRUE,,https://gonzalesca.gov/sites/default/files/2019-12/12-19-2019.pdf,https://gonzalesca.gov/sites/default/files/2022-04/Military%20Equipment%2004192022_2.pdf,,
SB978-211,Grass Valley Police Department,,no,yes,Grass Valley,39.21926,-121.0615,Nevada County,California,Police,https://www.cityofgrassvalley.com,TRUE,TRUE,,https://www.cityofgrassvalley.com/sites/main/files/file-attachments/grass_valley_pd_ca_policy_manual.pdf?1610035304,https://www.cityofgrassvalley.com/sites/main/files/file-attachments/grass_valley_pd_ca_policy_manual.pdf?1610035304,,
SB978-212,Greenfield Police Department,,no,yes,Greenfield,36.31908,-121.2418,Monterey County,California,Police,https://ci.greenfield.ca.us,TRUE,TRUE,,https://ci.greenfield.ca.us/DocumentCenter/View/699/Greenfield-Police-Department-Policy-Manual?bidId=,https://www.ci.greenfield.ca.us/DocumentCenter/View/2804/Greenfield-PD-Military-Equipment-Policy?bidId=,,
SB978-213,Gridley Police Department,,no,yes,Gridley,39.36590,-121.6964,Butte County,California,Police,http://gridley.ca.us,TRUE,TRUE,,http://gridley.ca.us/public/uploads/pdfs/RELEASE_20201214_T101142_Gridley_PD_Policy_Manual.pdf,http://gridley.ca.us/public/uploads/pdfs/GPD_Policy_706_(Proposed)_and_Inventory.pdf,,
SB978-214,Grover Beach Police Department,,no,yes,Grover Beach,35.12137,-120.6215,San Luis Obispo County,California,Police,https://www.grover.org,TRUE,TRUE,,https://www.grover.org/DocumentCenter/View/9807/2021-Policy-Manual?bidId=,https://www.grover.org/DocumentCenter/View/12730/Military_Equipment-Draft-May-22,,
SB978-215,Guadalupe Police Department,,no,yes,Guadalupe,34.95934,-120.5740,Santa Barbara County,California,Police,https://ci.guadalupe.ca.us,TRUE,TRUE,,https://ci.guadalupe.ca.us/wp-content/uploads/2020/07/Guadalupe-Police-Department-Policy-Manual-1.pdf,NA,,
SB978-216,Gustine Police Department,,no,yes,Gustine,37.25683,-121.0019,Merced County,California,Police,https://www.cityofgustine.com,TRUE,TRUE,,https://www.cityofgustine.com/files/documents/PoliceDepartmentPolicyManual1588071349010720PM.pdf,https://www.cityofredding.org/home/showpublisheddocument/27221/637853515566100000,,"The Redding department seems to be in Gustine, see https://www.cityofgustine.com/newsview.aspx?nid=11164 "
SB978-218,Hanford Police Department,,no,yes,Hanford,36.32743,-119.6459,Kings County,California,Police,https://www.ci.hanford.ca.us/departments/police/index.php,TRUE,TRUE,,https://cms6.revize.com/revize/hanfordca/document_center/Police/Hanford%20PD%20Policy%20Manual%2001-2020.pdf,https://cms6.revize.com/revize/hanfordca/document_center/Police/MILITARY_EQUIPMENT.pdf,,404 error for this link
SB978-219,Hawthorne Police Department,,no,yes,Hawthorne,33.91822,-118.3527,Los Angeles County,California,Police,https://hawthornepolice.com,TRUE,FALSE,FALSE,https://static1.squarespace.com/static/51b4c088e4b09f20ab794c84/t/5ff39c815de1995715fc0981/1609800836639/Hawthorne+PD+Policy+1.4.2021.pdf,,https://static1.squarespace.com/static/51b4c088e4b09f20ab794c84/t/625077d01b677a5ca9bf0dbd/1649440721124/AB+841+Military+Equipment+List+Final+Version+Full-+Hawthorne+PD+2022.pdf,Can't find the military equipment policy even though the inventory list is available
SB978-220,Hayward Police Department,,no,yes,Hayward,37.67134,-122.0856,Alameda County,California,Police,https://www.hayward-ca.gov/police-department,TRUE,TRUE,TRUE,https://www.hayward-ca.gov/sites/default/files/documents/Hayward-PD-Policy-Manual-2106.pdf,https://www.hayward-ca.gov/sites/default/files/police/Policy%20706%20-%20Military%20Equipment%20Use%20-%20FINAL.pdf,https://www.hayward-ca.gov/sites/default/files/police/AB-481-HPD-Equipment-List-%28PDF-Final%29.pdf,
SB978-221,Healdsburg Police Department,,no,yes,Healdsburg,38.61064,-122.8688,Sonoma County,California,Police,https://www.ci.healdsburg.ca.us,TRUE,TRUE,TRUE,https://www.ci.healdsburg.ca.us/DocumentCenter/View/11325/Healdsburg_PD_Policy_Manual,https://www.ci.healdsburg.ca.us/DocumentCenter/View/13993/Proposed_Military_Equipment_Use_Policy?bidId=,https://www.ci.healdsburg.ca.us/DocumentCenter/View/13994/Healdsburg_Police_Military_Use_Policy_Inventory_List?bidId=,
SB978-222,Hemet Police Department,,no,yes,Hemet,33.74937,-116.9676,Riverside County,California,Police,http://www.hemetca.gov,TRUE,TRUE,,https://www.hemetca.gov/DocumentCenter/View/6188/Hemet_PD_Policy_Manual--Update-release-12242019,https://hemetpd.com/wp-content/uploads/2022/06/hemet-police-military-equipment-policy-update.pdf,,
SB978-223,Hercules Police Department,,no,yes,Hercules,38.01040,-122.2654,Contra Costa County,California,Police,https://www.ci.hercules.ca.us,TRUE,TRUE,,https://www.ci.hercules.ca.us/home/showpublisheddocument/13285/637492559842770000,https://www.ci.hercules.ca.us/home/showpublisheddocument/15171/637837243015670000,,
SB978-224,Hermosa Beach Police Department,,no,yes,Hermosa Beach,33.86404,-118.3953,Los Angeles County,California,Police,https://www.hermosabeach.gov,TRUE,TRUE,TRUE,https://www.hermosabeach.gov/Home/ShowDocument?id=13444,https://www.hermosabeach.gov/home/showpublisheddocument/17032/637846759975270000,https://www.hermosabeach.gov/home/showpublisheddocument/17006/637842252818500000,
SB978-226,Hillsborough Police Department,,no,yes,Hillsborough,37.57796,-122.3556,San Mateo County,California,Police,https://www.hillsborough.net,TRUE,TRUE,,https://www.hillsborough.net/DocumentCenter/View/3774/HPD-Policy-Manual-?bidId=,https://www.hillsborough.net/DocumentCenter/View/3774/HPD-Policy-Manual-?bidId=,,
SB978-227,Hollister Police Department,,no,yes,Hollister,36.85254,-121.4034,San Benito County,California,Police,http://hollister.ca.gov,TRUE,TRUE,TRUE,http://hollister.ca.gov/wp-content/uploads/2020/01/Hollister_PD_Policy_Manual-RELEASE_20191226.pdf,http://hollister.ca.gov/wp-content/uploads/2022/04/HPD-Policy-710-Military_Equipment.pdf,https://hollister.ca.gov/wp-content/uploads/2022/04/Military-Equip-in-Use-2022-Rpt..pdf,
SB978-229,Humboldt County Sheriff's Department,,,YES,Eureka,40.80327,-124.1595,Humboldt County,California,Sheriff,https://humboldtgov.org,TRUE,FALSE,FALSE,https://humboldtgov.org/DocumentCenter/View/86838/HCSO-Policy-Manual,,,Mentions they will be uploading their policy here; not available as of 11-30-22.
SB978-231,Huntington Beach Police Department,,no,yes,Huntington Beach,33.67893,-118.0016,Orange County,California,Police,https://www.huntingtonbeachca.gov,TRUE,TRUE,,https://www.huntingtonbeachca.gov/government/departments/pd/documents/HBPD-Policy-Manual.pdf, https://huntingtonbeachca.gov/government/departments/pd/documents/AB481-Policy.pdf,,
SB978-232,Huntington Park Police Department,,no,yes,Huntington Park,33.98143,-118.2191,Los Angeles County,California,Police,http://hppolice.org,TRUE,TRUE,,http://hppolice.org/wp-content/uploads/2022/09/RELEASE_20220428_T225337_Huntington_Park_PD_Policy_Manual-1.pdf,https://hppolice.org/wp-content/uploads/2022/09/RELEASE_20220428_T225337_Huntington_Park_PD_Policy_Manual-1.pdf,,
SB978-233,Huron Police Department,,no,yes,Huron,36.20341,-120.1035,Fresno County,California,Police,http://cityofhuron.com,TRUE,TRUE,,http://cityofhuron.com/wp-content/uploads/2020/01/Huron_PD_Policy_Manual-002.pdf,NA,,
SB978-236,Imperial Police Department,,no,yes,Imperial,32.84748,-115.5695,Imperial County,California,Police,https://www.cityofimperial.org,TRUE,TRUE,,https://www.cityofimperial.org/public_docs/Docs/IPD/IPD_Policy_Manual.pdf,NA,,
SB978-237,Indio Police Department,,no,yes,Indio,33.72213,-116.2194,Riverside County,California,Police,https://www.indio.org,TRUE,TRUE,,https://www.indiopd.org/about-ipd/policy-manual,NA,,There's nothing at this link.
SB978-238,Inglewood Police Department,,no,yes,Inglewood,33.96178,-118.3565,Los Angeles County,California,Police,https://www.cityofinglewood.org,TRUE,TRUE,,https://www.cityofinglewood.org/DocumentCenter/View/15751/IPDPolicyManual-12302020,NA,,
SB978-241,Inyo County Sheriff's Department,,no,yes,Bishop,37.36680,-118.3953,Inyo County,California,Sheriff,https://www.inyocounty.us,TRUE,TRUE,,https://www.inyocounty.us/sites/default/files/2022-06/DA%20Policy%20Manual%20June%202022.pdf,https://www.inyocounty.us/sites/default/files/2022-06/DA%20Policy%20Manual%20June%202022.pdf,,
SB978-242,Ione Police Department,,no,yes,Ione,38.35250,-120.9333,Amador County,California,Police,https://www.ione-ca.com,TRUE,TRUE,,https://www.ione-ca.com/images/pdfs/Police_Dept/RELEASE_20220801_T160510_Ione_PD_Policy_Manual.pdf,NA,,
SB978-243,Irvine Police Department,,no,yes,Irvine,33.68730,-117.8259,Orange County,California,Police,https://www.cityofirvine.org,TRUE,TRUE,,https://www.cityofirvine.org/cmis/views/b5478395-05d9-46ff-aa28-9797babfc5f2%253B1.2, https://www.cityofirvine.org/cmis/views/6506369d-8966-4bc8-bcd8-b2122bc2749a%253B1.0,,
SB978-245,Irwindale Police Department,,no,yes,Irwindale,34.10514,-117.9338,Los Angeles County,California,Police,https://www.irwindaleca.gov,TRUE,TRUE,,https://www.irwindaleca.gov/DocumentCenter/View/5953/RELEASE_20200330_T150412_Irwindale_PD_Policy_Manual,NA,,
SB978-246,Jackson Police Department,,no,yes,Jackson,38.34712,-120.7734,Amador County,California,Police,https://www.ci.jackson.ca.us,TRUE,TRUE,,https://cms8.revize.com/revize/jacksonca/Document%20Center/City%20Services/Police/Jackson_PD_Policy_Manual.pdf,https://cms8.revize.com/revize/jacksonca/Document%20Center/City%20Services/Police/Jackson%20-%20Military%20Equipment%20Use%20Policy%20(AB%20481)-4.2022.pdf,,
SB978-247,Kensington Police Department,,no,yes,Kensington,37.91285,-122.2813,Contra Costa County,California,Police,https://www.kppcsd.org,TRUE,TRUE,,https://www.kppcsd.org/files/d7b410116/Kensington_PD_Policy_Manual.pdf,NA,,
SB978-248,Kerman Police Department,,no,yes,Kerman,36.72926,-120.0603,Fresno County,California,Police,https://cityofkerman.net,TRUE,TRUE,,https://cityofkerman.net/wp-content/uploads/2022/07/Kerman_PD_RELEASE_20220628_T125233_Policy_Manual.pdf,https://cityofkerman.net/wp-content/uploads/2022/07/Kerman_PD_RELEASE_20220628_T125233_Policy_Manual.pdf,,
SB978-251,Kern County Sheriff's Department,,no,yes,Bakersfield,35.36723,-119.0189,Kern County,California,Sheriff,https://www.kernsheriff.org,TRUE,TRUE,,https://kernsheriff.org/Policies,https://www.kernsheriff.org/Policies_Document/Department/DepartmentPolicies_SectionJ.pdf,,
SB978-253,King City Police Department,,no,yes,King City,36.21086,-121.1266,Monterey County,California,Police,http://www.kingcity.com,TRUE,TRUE,,https://www.kingcity.com/wp-content/uploads/2015/03/King-City-Police-Department-Policy-Manual.pdf,https://www.kingcity.com/wp-content/uploads/2022/04/April-12-2022-City-Council-Agenda-Packet.pdf,,Policy + inventory is included in these agenda minutes
SB978-256,Kings County Sheriff's Department,,no,yes,Hanford,36.32743,-119.6459,Kings County,California,Sheriff,https://www.countyofkings.com,TRUE,TRUE,,https://www.countyofkings.com/home/showpublisheddocument/29224/637921834929700000,https://www.countyofkings.com/home/showpublisheddocument/29224/637921834929700000,,
SB978-257,Kingsburg Police Department,,no,yes,Kingsburg,36.51515,-119.5523,Fresno County,California,Police,https://www.cityofkingsburg-ca.gov,TRUE,TRUE,,https://www.cityofkingsburg-ca.gov/DocumentCenter/View/1146/Kingsburg-Police-Department-Policy-Manual,NA,,
SB978-258,La Habra Police Department,,no,yes,La Habra,33.93187,-117.9435,Orange County,California,Police,https://www.lahabracity.com,TRUE,TRUE,,https://www.lahabraca.gov/DocumentCenter/View/12340/LHPD-Policy-Manual-Updated-41922,https://www.lahabraca.gov/DocumentCenter/View/12340/LHPD-Policy-Manual-Updated-41922,,
SB978-259,La Mesa Police Department,,no,yes,La Mesa,32.76604,-117.0244,San Diego County,California,Police,https://www.cityoflamesa.us,TRUE,TRUE,,https://www.cityoflamesa.us/1594/Police-Policies-and-Training-Materials,NA,,"Not available, currently updating using Lexipol."
SB978-260,La Palma Police Department,,no,yes,La Palma,33.84847,-118.0373,Orange County,California,Police,https://www.cityoflapalma.org,TRUE,TRUE,,https://www.cityoflapalma.org/DocumentCenter/View/9623/Policy-Manual-Public-Version,https://www.cityoflapalma.org/DocumentCenter/View/11425/Military-Equipment-DRAFT-Policy?bidId=,,
SB978-261,La Verne Police Department,,no,yes,La Verne,34.11300,-117.7653,Los Angeles County,California,Police,https://www.lvpd.org,TRUE,TRUE,TRUE,https://www.lvpd.org/uploads/files/Policy%20Manual/RELEASE_20220211_T133953_La_Verne_PD_Policy_Manual.pdf,https://www.lvpd.org/uploads/files/Policy%20Manual/Military_Equipment%20(new%20policy%20draft%20Jan%202022)LVPD.pdf,https://www.lvpd.org/uploads/files/Policy%20Manual/709%20MILITARY%20EQUIPMENT%20INVENTORY-%20%20Draft%20Policy.pdf,
SB978-262,Laguna Beach Police Department,,no,yes,Laguna Beach,33.54536,-117.7815,Orange County,California,Police,https://www.lagunabeachcity.net,TRUE,TRUE,TRUE,https://www.lagunabeachcity.net/home/showpublisheddocument/298/637364568958030000,https://www.lagunabeachcity.net/home/showpublisheddocument/12216/637946033134300000,https://www.lagunabeachcity.net/home/showpublisheddocument/11729/637892378521370000,
SB978-264,Lake County Sheriff's Department,,no,yes,Lakeport,39.04371,-122.9152,Lake County,California,Sheriff,http://www.lakesheriff.com,TRUE,TRUE,,http://www.lakesheriff.com/Assets/Sheriff+Site/docs/DeptPolicy.pdf,https://www.lakesheriff.com/Assets/Sheriff+Site/Public+Resources/Use+of+Force/LCSO+Policies/militaryequipment.pdf,,
SB978-266,Lakeport Police Department,,no,yes,Lakeport,39.04371,-122.9152,Lake County,California,Police,https://www.cityoflakeport.com,TRUE,TRUE,,https://files4.revize.com/lakeportca/Police/Documents/Redact%20-%20LPD%20Policy%20Manual%20Ver.%2022.1.pdf,https://files4.revize.com/lakeportca/Police/Documents/Redact%20-%20LPD%20Policy%20Manual%20Ver.%2022.1.pdf,,
SB978-268,Lassen County Sheriff's Department,,no,yes,Susanville,40.41570,-120.6498,Lassen County,California,Sheriff,http://www.lassencounty.org,TRUE,TRUE,,http://www.lassencounty.org/sites/default/files/RELEASE_20191126_T130807_Lassen_County_Sheriff_Policy_Manual_Redacted.pdf,NA,,
SB978-269,Lemoore Police Department,,no,yes,Lemoore,36.30101,-119.7864,Kings County,California,Police,https://lemoore.com,TRUE,TRUE,,https://lemoore.com/wp-content/uploads/2022/06/Lemoore_PD_Policy_Manual-2022.pdf,https://lemoore.com/wp-content/uploads/2022/06/Lemoore_PD_Policy_Manual-2022.pdf,,
SB978-270,Lincoln Police Department,,no,yes,Lincoln,38.89161,-121.2928,Placer County,California,Police,http://www.lincolnca.gov,TRUE,TRUE,,https://www.lincolnca.gov/en/living-here/Public-Safety/Lincoln_PD_Policy_Manual.pdf, https://www.lincolnca.gov/en/living-here/Public-Safety/AB-481.pdf,,
SB978-271,Lindsay Department of Public Safety,,no,yes,Lindsay,36.20387,-119.0893,Tulare County,California,Police,https://www.lindsay.ca.us,TRUE,TRUE,,https://www.lindsay.ca.us/sites/default/files/fileattachments/public_safety/page/5431/release_20220330_t033854_lindsay_department_of_public_safety_le_policy_manual.pdf,NA,,
SB978-272,Livermore Police Department,,no,yes,Livermore,37.67570,-121.7586,Alameda County,California,Police,https://www.livermoreca.gov/,TRUE,TRUE,TRUE,https://www.livermoreca.gov/home/showpublisheddocument/6757/637584118623030000,https://www.livermoreca.gov/home/showpublisheddocument/8736/637818346386686936, https://www.livermoreca.gov/home/showpublisheddocument/8744,
SB978-273,Livingston Police Department,,no,yes,Livingston,37.38202,-120.7233,Merced County,California,Police,https://livingston.govoffice2.com,TRUE,TRUE,,http://livingston.govoffice2.com/vertical/Sites/%7BD74BD72B-ED1F-4198-8BE1-70824D6808D7%7D/uploads/Livingston_PD_Policy_Manual_2020.pdf,https://www.cityoflivingston.org/sites/default/files/fileattachments/police_services/page/3201/military_equipment_1.pdf,,
SB978-274,Lodi Police Department,,no,yes,Lodi,38.13018,-121.2755,San Joaquin County,California,Police,http://www.lodi.gov,TRUE,TRUE,TRUE,http://library.lodi.gov/DocumentCenter/View/3080/Lodi-Police-Policy-and-Procedure,http://library.lodi.gov/DocumentCenter/View/5158/Military_Equipment-Policy?bidId=, https://www.lodi.gov/DocumentCenter/View/5157/Military-Equipment-Inventory-2022,
SB978-275,Lompoc Police Department,,no,yes,Lompoc,34.64048,-120.4579,Santa Barbara County,California,Police,https://www.cityoflompoc.com,TRUE,TRUE,,https://www.cityoflompoc.com/home/showdocument?id=27744,https://www.cityoflompoc.com/home/showpublisheddocument/34588/637856368545570000,,
SB978-276,Long Beach Police Department,,no,yes,Long Beach,33.76672,-118.1924,Los Angeles County,California,Police,https://citydocs.longbeach.gov,TRUE,TRUE,,http://citydocs.longbeach.gov/LBPDPublicDocs/0/doc/131219/Electronic.aspx,https://www.longbeach.gov/globalassets/police/media-library/documents/about-the-lbpd/ab-481/military-equipment-so,,
SB978-278,Los Alamitos Police Department,,no,yes,Los Alamitos,33.80316,-118.0769,Orange County,California,Police,https://cityoflosalamitos.org,TRUE,TRUE,,https://www.cityoflosalamitos.org/DocumentCenter/View/583/Los-Alamitos-Police-Department-Policy-Manual-PDF, https://cityoflosalamitos.org/DocumentCenter/View/1952/Policy-709---AB-481-Military-Equipment-Policy,,
SB978-279,Los Altos Police Department,,no,yes,Los Altos,37.38308,-122.1142,Santa Clara County,California,Police,https://www.losaltosca.gov,TRUE,TRUE,,https://www.losaltosca.gov/sites/default/files/fileattachments/police/page/48764/lexipol_manual_release_07-13-22.pdf,https://www.losaltosca.gov/sites/default/files/fileattachments/police/page/83411/attachment_1_military_equipment_9.8.22.pdf,,
SB978-280,Los Angeles City Department of Recreation and Parks,,,yes,Los Angeles,34.05357,-118.2454,Los Angeles County,California,Parks,https://www.laparks.org,TRUE,FALSE,FALSE,https://www.laparks.org/sites/default/files/ranger/pdf/2020%20Manual%20for%20Web.pdf,,,No muckrock request
SB978-281,Los Angeles County District Attorney,,no,yes,Los Angeles,34.05357,-118.2454,Los Angeles County,California,District Attorney,http://da.lacounty.gov,TRUE,FALSE,FALSE,https://da.lacounty.gov/sites/default/files/pdf/Bureau-of-Investigation-Lexipol-Manual-03092023.pdf,FALSE,,
SB978-282,Los Angeles County Probation Department,,no,no,Los Angeles,34.05357,-118.2454,Los Angeles County,California,Probation,https://probation.lacounty.gov,TRUE,FALSE,FALSE,https://file.lacounty.gov/SDSInter/probation/1102323_PPM.pdf,,,See here for links to more policies: https://probation.lacounty.gov/probation_manual/ 
SB978-283,Los Angeles County Sheriff's Department,,no,yes,Los Angeles,34.05357,-118.2454,Los Angeles County,California,Sheriff,http://pars.lasd.org,TRUE,FALSE,FALSE,https://pars.lasd.org/Viewer/Manuals/10008,,,LACS has their policy in a cumbersome file management system. Difficult to access. https://pars.lasd.org/Viewer/Menu
SB978-284,Los Angeles Police Department,,no,yes,Los Angeles,34.05357,-118.2454,Los Angeles County,California,Police,https://lapdonline.org,TRUE,TRUE,TRUE,https://www.lapdonline.org/policies-procedures-training-sb-978/,https://lapdonlinestrgeacc.blob.core.usgovcloudapi.net/lapdonlinemedia/2022/04/NEW-CA-ASSEMBLY-BILL-481-EQUIPTMENT-REPORT-2022.pdf,,These documents are scanned and skewed. Not a policy but a memo with attached equipment report. Linked from: https://www.lapdonline.org/lapd-manual-2nd-quarter 
SB978-285,Los Angeles Port Police Department,,no,yes,Los Angeles,34.05357,-118.2454,Los Angeles County,California,Port,https://www.portoflosangeles.org/community/los-angeles-port-police,TRUE,TRUE,TRUE,https://kentico.portoflosangeles.org/getmedia/c9fa7d7a-b857-4864-9cc4-5b614c477a50/los-angeles-port-police-policy-manual,https://kentico.portoflosangeles.org/getmedia/170247ea-4fd2-441a-b765-b4a4bb175ce3/lapp-section-709-military-equipment,https://kentico.portoflosangeles.org/getmedia/c9fa7d7a-b857-4864-9cc4-5b614c477a50/los-angeles-port-police-policy-manual,
SB978-287,Los Angeles School Police Department,,no,yes,Los Angeles,34.05357,-118.2454,Los Angeles County,California,School,https://achieve.lausd.net,TRUE,FALSE,FALSE,https://achieve.lausd.net/cms/lib/CA01000043/Centricity/Domain/596/LASPD%20POLICY%20MANUAL.pdf,NA,,
SB978-289,Los Angeles World Airports Police Department,,no,yes,Los Angeles,34.05357,-118.2454,Los Angeles County,California,Airport,https://www.lawa.org,TRUE,FALSE,FALSE,https://public.powerdms.com/lawa/tree,,,
SB978-290,Los Banos Police Department,,no,yes,Los Banos,37.06138,-120.8476,Merced County,California,Police,http://www.losbanos.org,TRUE,TRUE,TRUE,https://www.losbanos.org/wp-content/uploads/2022/02/02-01-2022-LBPD-Policy-Manual.pdf,https://losbanos.org/wp-content/uploads/2022/08/Military-Equipment-policy.pdf,https://losbanos.org/wp-content/uploads/2022/04/LBPD-Policy-Manual-Attachment-706.4-pdf..pdf,
SB978-291,Los Gatos/Monte Sereno Police Department,,no,yes,Los Gatos,37.22131,-121.9793,Santa Clara County,California,Police,https://www.losgatosca.gov,TRUE,TRUE,TRUE,https://www.losgatosca.gov/DocumentCenter/View/27563/REDACTED-LGMSPD-POLICY-MANUAL-Rev-June-2021,https://www.losgatosca.gov/DocumentCenter/View/30275/Draft-Policy-Military-Equipment,https://www.losgatosca.gov/DocumentCenter/View/30276/Military-Equipment-Inventory,
SB978-292,Los Rios Community College District Police Department,,no,yes,Sacramento,38.57944,-121.4908,Sacramento County,California,College/University,https://police.losrios.edu,TRUE,TRUE,,https://police.losrios.edu/lrpd/doc/policy-manual.pdf,https://police.losrios.edu/lrpd/doc/policy-manual.pdf,,
SB978-295,Madera County Sheriff's Department,,no,yes,Madera,36.96205,-120.0640,Madera County,California,Sheriff,https://www.maderacounty.com,TRUE,TRUE,,https://www.maderacounty.com/home/showpublisheddocument/19312/637135172384470000, https://www.maderacounty.com/home/showpublisheddocument/30209/637836735612330000,,
SB978-296,Madera Police Department,,no,yes,Madera,36.96205,-120.0640,Madera County,California,Police,https://www.madera.gov,TRUE,TRUE,TRUE,https://www.madera.gov/wp-content/uploads/2022/02/MPD-Policy-2-2022.pdf, https://www.madera.gov/wp-content/uploads/2022/04/Military-Equipment-Policy-Draft.pdf,https://www.madera.gov/wp-content/uploads/2022/06/MPD-Military-Equipment-Final.pdf,
SB978-297,Mammoth Lakes Police Department,,no,yes,Mammoth Lakes,37.64878,-118.9779,Mono County,California,Police,https://www.townofmammothlakes.ca.gov,TRUE,TRUE,,https://townofmammothlakes.ca.gov/DocumentCenter/View/10077/Mammoth-Lakes-Police-Department-Policy-Manual---Updated-3242022?bidId=, https://www.townofmammothlakes.ca.gov/DocumentCenter/View/12048/Military_EquipmentPolicy706?bidId=,,
SB978-298,Manhattan Beach Police Department,,no,yes,Manhattan Beach,33.88720,-118.4109,Los Angeles County,California,Police,https://www.citymb.info,TRUE,TRUE,,https://www.manhattanbeach.gov/home/showpublisheddocument/41283/637933221320000000,https://www.manhattanbeach.gov/home/showpublisheddocument/41283/637933221320000000,,
SB978-299,Manteca Police Department,,no,yes,Manteca,37.79917,-121.2322,San Joaquin County,California,Police,https://www.ci.manteca.ca.us,TRUE,TRUE,,https://www.ci.manteca.ca.us/Police/PublicAffairs/Documents/PolicePolicyManual.pdf, https://www.ci.manteca.ca.us/Police/Documents/Assembly%20Bill%20481.pdf,,
SB978-300,Marin Community College District Police Department,,no,yes,Kentfield,37.95616,-122.5481,Marin County,California,College/University,http://police.marin.edu,TRUE,TRUE,,https://police.marin.edu/sites/police/files/MCCD-Police-Policy-Manual.pdf,NA,,
SB978-303,Marin County Sheriff's Department,,no,yes,San Rafael,37.97461,-122.5329,Marin County,California,Sheriff,https://www.marinsheriff.org,TRUE,TRUE,,https://www.marinsheriff.org/assets/downloads/RELEASE_20220719_T135248_Marin_County_Sheriff_s_Office_Policy_Manual-002.pdf,https://www.marinsheriff.org/assets/downloads/RELEASE_20220719_T135248_Marin_County_Sheriff_s_Office_Policy_Manual-002.pdf,,
SB978-305,Marina Department of Public Safety,,no,yes,Marina,36.68162,-121.8023,Monterey County,California,Police,https://www.cityofmarina.org,TRUE,TRUE,,https://www.cityofmarina.org/DocumentCenter/View/10733/RELEASE_20200701_T164506_Marina_Police_Department_Policy_Manual?bidId=,https://cityofmarina.org/ArchiveCenter/ViewFile/Item/11300,,
SB978-308,Martinez Police Department,,no,yes,Martinez,38.01393,-122.1349,Contra Costa County,California,Police,https://www.cityofmartinez.org,TRUE,TRUE,TRUE,https://www.cityofmartinez.org/home/showpublisheddocument/1643/637805954022030000,https://www.cityofmartinez.org/home/showpublisheddocument/2298/637867532351370000,https://www.cityofmartinez.org/home/showpublisheddocument/2299/637867527498730000,
SB978-309,Marysville Police Department,,no,yes,Marysville,39.14497,-121.5872,Yuba County,California,Police,https://www.marysvillepd.org,TRUE,TRUE,,https://www.marysvillepd.org/_files/ugd/a4cd76_0545882fa3fa476ea8cc321a0fab4a40.pdf,https://www.marysvillepd.org/_files/ugd/a4cd76_484dba83ac1040e2ac2c5996efd1c49d.pdf,,Doesn't have any info about equipment or a policy
SB978-310,McFarland Police Department,,no,yes,McFarland,35.67746,-119.2280,Kern County,California,Police,http://www.mcfarlandcity.org,TRUE,TRUE,,http://www.mcfarlandcity.org/DocumentCenter/View/2117/Redacted-20200518_T172742_McFarland__PD_Policy_Manual-1,NA,,
SB978-313,Mendocino County Sheriff's Department,,no,yes,Ukiah,39.15093,-123.2079,Mendocino County,California,Sheriff,https://mendocinosheriff.com,TRUE,TRUE,,https://mendocinosheriff.org/publications/sb-978-materials/,https://mendocinosheriff.org/wp-content/uploads/2022/06/Proposed-Military-Equipment-Use-Policy.pdf,,
SB978-314,Mendota Police Department,,no,yes,Mendota,36.75406,-120.3788,Fresno County,California,Police,https://www.ci.mendota.ca.us,TRUE,TRUE,,https://ci.mendota.ca.us/wp-content/uploads/2014/09/Mendota_PD_CA_Policy_Manual_20191110.pdf,NA,,
SB978-315,Menifee Police Department,,no,yes,Menifee,33.68500,-117.1539,Riverside County,California,Police,https://menifeepolice.org,TRUE,TRUE,,https://menifeepolice.org/wp-content/uploads/2021/12/RELEASE_20211028_T161345_Menifee_Police_Department_Policy_Manual.pdf, https://menifeepolice.org/wp-content/uploads/2022/03/Military-Equipment-policy-and-list.pdf,,
SB978-316,Menlo Park Police Department,,no,yes,Menlo Park,37.45550,-122.1788,San Mateo County,California,Police,https://www.menlopark.org,TRUE,TRUE,,https://beta.menlopark.org/Government/Departments/Police/Transparency/Department-policies/Department-policy-manual,https://beta.menlopark.org/Government/Departments/Police/Transparency/Department-policies/Department-policy-manual,,
SB978-317,Merced Community College Police Department,,no,yes,Merced,37.30152,-120.4869,Merced County,California,College/University,http://www.mccd.edu,TRUE,TRUE,,NA,NA,,"They have this directory with a Use of Force policy, but I don't see a manual https://www.mccd.edu/resources/police/downloads/ "
SB978-319,Merced County Sheriff's Department,,no,yes,Merced,37.30152,-120.4869,Merced County,California,Sheriff,https://www.co.merced.ca.us,TRUE,TRUE,,https://co.merced.ca.us/DocumentCenter/View/28614/Merced-County-Sheriff-Policy-Manual-12-7-21?bidId=, https://co.merced.ca.us/DocumentCenter/View/29116/Military-Equipment-Use-Policy-03-30-2022?bidId=,,
SB978-320,Merced Police Department,,no,yes,Merced,37.30152,-120.4869,Merced County,California,Police,https://www.cityofmerced.org,TRUE,TRUE,, https://www.cityofmerced.org/home/showpublisheddocument/10635/637901890039535874, https://www.cityofmerced.org/home/showpublisheddocument/10635/637901890039535874,,
SB978-321,Mill Valley Police Department,,no,yes,Mill Valley,37.90774,-122.5482,Marin County,California,Police,https://www.cityofmillvalley.org,TRUE,TRUE,TRUE,https://cityofmillvalley.org/DocumentCenter/View/474/MVPD-Policy-Manual-2019-PDF, https://cityofmillvalley.org/DocumentCenter/View/2886/New-Draft-Policy-709-Military-Equipment?bidId=,https://www.cityofmillvalley.org/DocumentCenter/View/3005/Final-Equipment-List--Website-UPDATED?bidId=,
SB978-323,Milpitas Police Department,,no,yes,Milpitas,37.43286,-121.8970,Santa Clara County,California,Police,https://www.milpitas.gov/,TRUE,TRUE,TRUE,https://www.milpitas.gov/_pdfs/MilpitasPolicePolicy.pdf,https://www.milpitas.gov/_pdfs/ab481/AB481_Policy_FINAL.pdf,https://www.milpitas.gov/_pdfs/ab481/AB481_Inventory_FINAL.pdf,
SB978-324,MiraCosta Community College District Police Department,,,,Oceanside,33.19715,-117.3806,San Diego County,California,College/University,https://miracosta.edu,TRUE,TRUE/Draft,FALSE,https://miracosta.edu/administrative/college-police/_docs/MCPD%20PP%20Manual.pdf,,,
SB978-325,Modesto Police Department,,no,yes,Modesto,37.64155,-121.0035,Stanislaus County,California,Police,https://www.modestogov.com,TRUE,TRUE,TRUE,https://www.modestogov.com/DocumentCenter/View/15365/Modesto-Police-Department-Policy-Manual-Printable-PDF,https://www.modestogov.com/DocumentCenter/View/18692/Military-Equipment--Policy-710-,https://www.modestogov.com/DocumentCenter/View/18693/Military-Equipment-Inventory,
SB978-326,Modoc County Sheriff's Department,,no,yes,Alturas,41.49432,-120.5426,Modoc County,California,Sheriff,https://www.modocsheriff.us,TRUE,TRUE,,https://www.modocsheriff.us/sheriffs-office/files/modoc-county-sheriffs-office-policy-manual,NA,,
SB978-328,Mono County Sheriff's Department,,no,yes,Bridgeport,38.25591,-119.2276,Mono County,California,Sheriff,https://monosheriff.org,TRUE,TRUE,,https://monosheriff.org/sites/default/files/fileattachments/sheriff_-_coroner/page/8062/mono_county_sheriff_patrol_policy_manual_.pdf,https://monosheriff.org/sites/default/files/fileattachments/sheriff_-_coroner/page/30424/military_equipment_policy.pdf,,
SB978-329,Monrovia Police Department,,no,yes,Monrovia,34.14783,-117.9988,Los Angeles County,California,Police,https://www.cityofmonrovia.org,TRUE,TRUE,TRUE,https://www.cityofmonrovia.org/home/showpublisheddocument/27766/637824223984130000,https://www.cityofmonrovia.org/home/showpublisheddocument/28377,https://www.cityofmonrovia.org/home/showpublisheddocument/28379/637860472492170000,
SB978-330,Montclair Police Department,,no,yes,Montclair,34.07401,-117.6912,San Bernardino County,California,Police,https://www.cityofmontclair.org,TRUE,TRUE,,https://storage.googleapis.com/proudcity/montclairca/uploads/2022/05/Policy-051622-CURRENT.pdf,https://storage.googleapis.com/proudcity/montclairca/uploads/2022/05/Policy-051622-CURRENT.pdf,,
SB978-331,Montebello Police Department,,no,yes,Montebello,34.01958,-118.1164,Los Angeles County,California,Police,https://www.montebelloca.gov/,TRUE,TRUE,,https://cdn5-hosted2.civiclive.com/UserFiles/Servers/Server_58672/Image/Departments/Police/RELEASE_20220119_T125903_Montebello_PD_Policy_Manual.pdf,https://cdn5-hosted2.civiclive.com/UserFiles/Servers/Server_58672/Image/Departments/Police/PDF's/montebello-military-equipment-policy.pdf,,
SB978-334,Monterey County Sheriff's Department,,no,yes,Monterey,36.59820,-121.8965,Monterey County,California,Sheriff,https://montereysheriff.org,TRUE,TRUE,,http://www.montereysheriff.org/wp-content/uploads/2016/08/Monterey_County_SO_Policy_Manual.pdf,http://montereysheriff.org/wp-content/uploads/2022/04/Military-Equipment.pdf ,,
SB978-335,Monterey Park Police Department,,no,yes,Monterey Park,34.05980,-118.1257,Los Angeles County,California,Police,http://www.montereypark.ca.gov,TRUE,TRUE,,https://www.montereypark.ca.gov/DocumentCenter/View/12110/Monterey_Park_PD_Policy_Manual-04132021, https://www.montereypark.ca.gov/DocumentCenter/View/12838/Monterey-Park-PD-Military-Equipment-Policy-Final-Draft-with-Inventory-2022?bidId=,,
SB978-337,Monterey Police Department,,no,yes,Monterey,36.59820,-121.8965,Monterey County,California,Police,https://www.monterey.org,TRUE,TRUE,,"https://files.monterey.org/Document%20Center/Police/Inside%20MPD/Policies,%20Procedures,%20and%20Training/MPD%20Policy%20Manual/MPD-Policy-Manual-05-04-22.pdf","https://files.monterey.org/Document%20Center/Police/Inside%20MPD/Policies,%20Procedures,%20and%20Training/MPD%20Policy%20Manual/MPD-Policy-Manual-05-04-22.pdf",,
SB978-339,Moraga Police Department,,no,yes,Moraga,37.85356,-122.1277,Contra Costa County,California,Police,https://police.moraga.ca.us,TRUE,TRUE,,https://police.moraga.ca.us/documents/MPD_Policy_Manual.pdf,https://www.moraga.ca.us/DocumentCenter/View/7030/Att-B-Moraga-Police-Military-Equipment-policy?bidId=,,
SB978-340,Morgan Hill Police Department,,no,yes,Morgan Hill,37.12608,-121.6619,Santa Clara County,California,Police,https://morgan-hill.ca.gov,TRUE,TRUE,,https://www.morgan-hill.ca.gov/DocumentCenter/View/35897/Morgan-Hill-Police-Department-Policy-Manual,https://www.morgan-hill.ca.gov/DocumentCenter/View/35897/Morgan-Hill-Police-Department-Policy-Manual,,
SB978-341,Morro Bay Police Department,,no,yes,Morro Bay,35.36692,-120.8468,San Luis Obispo County,California,Police,https://www.morro-bay.ca.us,TRUE,TRUE,TRUE,https://www.morro-bay.ca.us/DocumentCenter/View/13965/Morro-Bay-Police-Department-Policy-Manual-Jan-2020,https://www.morro-bay.ca.us/DocumentCenter/View/16456/Military_Equipment-Policy-707-rev-3112022,https://www.morro-bay.ca.us/DocumentCenter/View/16458/MBPD-Military-Equipment-Policy-Inventory-v2-rev-3112022,
SB978-342,Mountain View Police Department,,no,yes,Mountain View,37.38967,-122.0816,Santa Clara County,California,Police,https://mvpdpublicrecords.org,TRUE,TRUE,,https://mvpdpublicrecords.org/?AspxAutoDetectCookieSupport=1,https://mvpdpublicrecords.org/files/D2DF/709%20-%20Military%20Equipment.pdf,,
SB978-345,Mt. Shasta Police Department,,no,yes,Mt. Shasta,41.314444,-122.311389,Siskiyou County,California,Police,https://mtshastaca.gov,TRUE,TRUE,,https://mtshastaca.gov/wp-content/uploads/2022/02/RELEASE_20220216_T235437_Mount_Shasta_PD_Policy_Manual_v.2022.pdf,https://mtshastaca.gov/wp-content/uploads/2022/02/RELEASE_20220216_T235437_Mount_Shasta_PD_Policy_Manual_v.2022.pdf,,
SB978-346,Murrieta Police Department,,no,yes,Murrieta,33.55843,-117.2118,Riverside County,California,Police,https://www.murrietaca.gov,TRUE,TRUE,,https://www.murrietaca.gov/DocumentCenter/View/1872/Murrieta-Police-Department-Policy-Manual,https://www.murrietaca.gov/DocumentCenter/View/1872/Murrieta-Police-Department-Policy-Manual,,
SB978-348,Napa County Sheriff's Department,,no,yes,Napa,38.29911,-122.2854,Napa County,California,Sheriff,https://www.countyofnapa.org,TRUE,TRUE,,https://www.countyofnapa.org/DocumentCenter/View/15565/Napa-County-Sheriff-Office-Policy-Manual-2022-PDF?bidId=,https://www.countyofnapa.org/DocumentCenter/View/15565/Napa-County-Sheriff-Office-Policy-Manual-2022-PDF?bidId=,,
SB978-349,Napa Police Department,,no,yes,Napa,38.29911,-122.2854,Napa County,California,Police,https://www.cityofnapa.org,TRUE,TRUE,TRUE,https://www.cityofnapa.org/DocumentCenter/View/9641/Napa-Police-Department-Manual-PDF ,https://www.cityofnapa.org/DocumentCenter/View/9664/DRAFT-NPD-Policy---Military-Equipment-Funding-Acquisition-and-Use-PDF, https://www.cityofnapa.org/DocumentCenter/View/9663/NPD-Military-Equipment-Inventory-List-PDF,
SB978-350,Napa Valley College Police Department,,no,yes,Napa,38.29911,-122.2854,Napa County,California,College/University,https://www.napavalley.edu,TRUE,TRUE,,https://www.napavalley.edu/studentaffairs/Police/Documents/Napa%20Valley%20Community%20College%20District%20Police%20Policy%20Manual.pdf,NA,,
SB978-351,National City Police Department,,no,yes,National City,32.67218,-117.1056,San Diego County,California,Police,https://www.nationalcityca.gov,TRUE,TRUE,,https://www.nationalcityca.gov/home/showpublisheddocument/23000/637865693185330000, https://www.nationalcityca.gov/home/showpublisheddocument/28392/637835681377830000,,
SB978-354,Nevada County Sheriff's Department,,no,yes,Nevada City,39.26274,-121.0192,Nevada County,California,Sheriff,https://www.mynevadacounty.com,TRUE,FALSE,FALSE,https://www.nevadacountyca.gov/DocumentCenter/View/42819/Sheriffs-Office-Policy-Manual,,,
SB978-355,Newark Police Department,,no,yes,Newark,37.53682,-122.0303,Alameda County,California,Police,https://www.newark.org,TRUE,TRUE,,https://www.newark.org/departments/police/administrative-divisions/policy-manual,https://www.newark.org/home/showpublisheddocument/8594/637919242516170000,,
SB978-356,Newman Police Department,,no,yes,Newman,37.31733,-121.0220,Stanislaus County,California,Police,http://www.cityofnewman.com,TRUE,FALSE,FALSE,http://www.cityofnewman.com/docman/police-department/1094-newman-police-department-policy-manual-1/file.html,,,
SB978-357,Newport Beach Police Department,,no,yes,Newport Beach,33.61703,-117.9303,Orange County,California,Police,http://www.nbpd.org,TRUE,TRUE,,https://www.nbpd.org/home/showpublisheddocument/70549/637673233259430000,https://www.nbpd.org/home/showpublisheddocument/71613/637874457430830000,,
SB978-358,Novato Police Department,,no,yes,Novato,38.10609,-122.5679,Marin County,California,Police,https://www.novato.org,TRUE,TRUE,,http://www.novato.org/home/showdocument?id=28296,https://www.novato.org/home/showpublisheddocument/33915,,
SB978-359,Oakdale Police Department,,no,yes,Oakdale,37.76841,-120.8482,Stanislaus County,California,Police,https://www.oakdalegov.com,TRUE,TRUE,,https://www.oakdalegov.com/_files/ugd/49e361_59215c32f8974aecbd532e7cffcca263.pdf,https://www.oakdalegov.com/_files/ugd/49e361_59215c32f8974aecbd532e7cffcca263.pdf,,
SB978-361,Oakland Police Department,,no,yes,Oakland,37.80508,-122.2731,Alameda County,California,Police,https://www.oaklandca.gov,TRUE,FALSE,FALSE,https://oaklandmd.com/uploads/3/4/4/3/34438335/oakland_police_department_policies_and_procedures.pdf,,https://cao-94612.s3.amazonaws.com/documents/Militarized-Equipment-Inventory.pdf,
SB978-363,Oakley Police Department,,no,yes,Oakley,37.99638,-121.7130,Contra Costa County,California,Police,https://www.ci.oakley.ca.us,TRUE,TRUE,,https://www.ci.oakley.ca.us/wp-content/uploads/2022/05/Oakley-Police-Department-Policy-2022.1.pdf,https://www.ci.oakley.ca.us/wp-content/uploads/2022/06/Military-Equipment-Policy.pdf,,
SB978-365,Oceanside Police Department,,no,yes,Oceanside,33.19715,-117.3806,San Diego County,California,Police,https://www.ci.oceanside.ca.us,TRUE,TRUE,TRUE,https://www.ci.oceanside.ca.us/civicax/filebank/blobdload.aspx?BlobID=51483,https://www.ci.oceanside.ca.us/civicax/filebank/blobdload.aspx?BlobID=57228,https://www.ci.oceanside.ca.us/civicax/filebank/blobdload.aspx?BlobID=57526,
SB978-367,Ohlone Community College District Police Department,,no,yes,Fremont,37.55148,-121.9833,Alameda County,California,College/University,https://www.ohlone.edu,TRUE,FALSE,FALSE,https://www.ohlone.edu/sites/default/files/groups/Campus_Police_Services/documents/cps_guidelines_and_procedures.pdf,,,
SB978-368,Ontario Police Department,,no,yes,Ontario,34.06457,-117.6481,San Bernardino County,California,Police,https://cityofontario.app.box.com,TRUE,TRUE,,https://www.ontarioca.gov/sites/default/files/Ontario-Files/Police/Policy%20Manual/05-03-2019%20-%20Lexipol%20Update.pdf,https://www.ontarioca.gov/sites/default/files/Ontario-Files/Police/OPD%20AB%20481%20Military%20Equipment%20Inventory%20(Final%20Proposed).pdf,,
SB978-370,Orange County District Attorney,,no,yes,Santa Ana,33.74958,-117.8745,Orange County,California,District Attorney,http://orangecountyda.org,TRUE,TRUE,,https://orangecountyda.org/wp-content/uploads/Reports%20and%20Documents/OCDA%20INFORMANT%20MANUAL%20-%20FINAL%202020.pdf,https://orangecountyda.org/wp-content/uploads/2022/04/Military-Equipment-Policy.pdf,,
SB978-373,Orange County Sheriff's Department/Coroner,,no,yes,Santa Ana,33.74958,-117.8745,Orange County,California,Sheriff,https://www.ocsheriff.gov,TRUE,TRUE,,https://ocsheriff.gov/page/departments-manualcontent/uploads/2020/01/RELEASE_20190702_T131845_Orange_Cove_PD_Policy_Manual-1-1-4.pdf,https://www.ocsheriff.gov/sites/ocsd/files/2022-07/Policy%20711%20and%20Equipment%20Attachment.pdf,,
SB978-374,Orange Cove Police Department,,no,yes,Orange Cove,36.62359,-119.3049,Fresno County,California,Police,http://cityoforangecove.com,TRUE,TRUE,,https://cityoforangecove.com/wp-content/uploads/2020/01/RELEASE_20190702_T131845_Orange_Cove_PD_Policy_Manual-1-1-4.pdf,https://cityoforangecove.com/wp-content/uploads/2022/05/OCPD-Policy-706-Copy.pdf,,
SB978-375,Orange Police Department,,,yes,Orange,33.78787,-117.8507,Orange County,California,Police,https://citydocs.cityoforange.org,TRUE,TRUE,,https://citydocs.cityoforange.org/OrangePD/DocView.aspx?id=78497&dbid=0&repo=OrangePD,https://www.cityoforange.org/home/showpublisheddocument/3338/637846829980732070,,Lexipol. In a viewer.
SB978-376,Orland Police Department,,no,yes,Orland,39.74740,-122.1954,Glenn County,California,Police,http://cityoforland.com,TRUE,FALSE,FALSE,https://www.orlandpark.org/home/showpublisheddocument/1032/637577302652830000,,,
SB978-377,Oroville Police Department,,no,yes,Oroville,39.51388,-121.5561,Butte County,California,Police,https://www.cityoforoville.org,TRUE,FALSE,FALSE,https://www.cityoforoville.org/home/showpublisheddocument/19438/637371672846900000,,,
SB978-378,Oxnard Police Department,,no,yes,Oxnard,34.20034,-119.1801,Ventura County,California,Police,https://sites.google.com,TRUE,FALSE,FALSE,https://www.oxnardpd.org/wp-content/uploads/2020/05/2020-OPD-Policy-Manual-R.pdf,,,
SB978-379,Pacific Grove Police Department,,no,yes,Pacific Grove,36.61933,-121.9186,Monterey County,California,Police,https://www.cityofpacificgrove.org,TRUE,TRUE,,"https://www.cityofpacificgrove.org/Document_Center/Departments/Police/Policies,%20Manuals,%20and%20Training%20Outlines/RELEASE_20220630_T165655_Pacific_Grove_Police_Dept_Policy_Manual.pdf","https://files.cityofpacificgrove.org/Document_Center/Departments/Police/Policies,%20Manuals,%20and%20Training%20Outlines/PGPD%20Military%20Equipment%20Draft%20Policy%203-1-2022.pdf",,
SB978-381,Pacifica Police Department,,no,yes,Pacifica,37.63527,-122.4920,San Mateo County,California,Police,https://www.cityofpacifica.org,TRUE,TRUE,,https://public.powerdms.com/PacificaPD/tree,https://www.cityofpacifica.org/home/showpublisheddocument/2468/637838979997070000,,
SB978-382,Palm Springs Police Department,,no,yes,Palm Springs,33.82321,-116.5120,Riverside County,California,Police,https://www.palmspringsca.gov,TRUE,TRUE,,https://www.palmspringsca.gov/home/showpublisheddocument?id=71321,https://www.palmspringsca.gov/home/showpublisheddocument/81836/637837263990270000,,
SB978-383,Palo Alto Police Department,,no,yes,Palo Alto,37.44466,-122.1608,Santa Clara County,California,Police,https://www.cityofpaloalto.org,TRUE,TRUE,,https://www.cityofpaloalto.org/files/assets/public/police-department/police-information/general/redacted-papd-policy-manual-11-19-2019-for-web.pdf?t=73481.02,https://www.cityofpaloalto.org/files/assets/public/police-department/public-information-portal/proposed-papd-policy-regarding-ab-481.pdf,,
SB978-385,Palos Verdes Estates Police Department,,no,yes,Palos Verdes Estates,33.786944,-118.396667,Los Angeles County,California,Police,https://www.pvestates.org,TRUE,TRUE,TRUE,https://www.pvestates.org/services/police-department/pve-police-department-policies,https://www.pvestates.org/home/showpublisheddocument/16440/637837081337630000,https://www.pvestates.org/home/showpublisheddocument/16444/637837081346570000,
SB978-386,Paradise Police Department,,no,yes,Paradise,39.75077,-121.6077,Butte County,California,Police,https://www.townofparadise.com,TRUE,TRUE,,https://www.townofparadise.com/sites/default/files/fileattachments/police_department/page/5521/paradise_police_department_policy_manual_2022.pdf,https://www.townofparadise.com/sites/default/files/fileattachments/police_department/page/5521/ppd_policy_708_-_military_equipment.pdf,,
SB978-388,Pasadena City College District Police Department,,no,yes,Pasadena,34.14745,-118.1443,Los Angeles County,California,College/University,https://pasadena.edu,TRUE,FALSE,FALSE,https://pasadena.edu/police-and-college-safety/docs/Pasadena_City_College_Police_and_Safety_Services-Policy_Manual.pdf,,,
SB978-389,Pasadena Police Department,,no,yes,Pasadena,34.14745,-118.1443,Los Angeles County,California,Police,https://www.cityofpasadena.net,TRUE,TRUE,,https://pasadena.edu/police-and-college-safety/docs/Pasadena_City_College_Police_and_Safety_Services-Policy_Manual.pdf,https://www.cityofpasadena.net/police/wp-content/uploads/sites/28/PPD-Military-Equipment-Use-Policy.pdf,,
SB978-390,Paso Robles Police Department,,no,yes,Paso Robles,35.62541,-120.6913,San Luis Obispo County,California,Police,https://www.prcity.com,TRUE,TRUE,,https://www.prcity.com/DocumentCenter/View/30749/12-15-2020_Paso_Robles_PD_Policy_Manual,https://www.prcity.com/DocumentCenter/View/33783/Policy-706---Military-Equipment-Purpose-and-Scope,,
SB978-392,Petaluma Police Department,,no,yes,Petaluma,38.23247,-122.6444,Sonoma County,California,Police,https://cityofpetaluma.org,TRUE,TRUE,TRUE,https://cityofpetaluma.org/documents/petaluma-police-department-policy-manual/,https://petaluma.granicus.com/MetaViewer.php?view_id=31&event_id=45950&meta_id=529274,https://petaluma.granicus.com/MetaViewer.php?view_id=31&event_id=45950&meta_id=529276,
SB978-393,Piedmont Police Department,,no,yes,Piedmont,37.82475,-122.2323,Alameda County,California,Police,https://www.ci.piedmont.ca.us,TRUE,TRUE,,https://cdn5-hosted.civiclive.com/UserFiles/Servers/Server_13659739/File/PD_Policy_Manual_9_15_2021.pdf,https://cdn5-hosted.civiclive.com/UserFiles/Servers/Server_13659739/File/Military%20Equipment%20Use%20Policy.pdf?v=NwGOls0ZV&v=NwGOls0ZV,,
SB978-394,Pinole Police Department,,no,yes,Pinole,38.00478,-122.2907,Contra Costa County,California,Police,http://pinoleca.hosted.civiclive.com,TRUE,TRUE,,https://cdn5-hosted.civiclive.com/UserFiles/Servers/Server_10946972/File/City%20Government/Police/Resources/SB%20978-Public%20Records/2020-01%20Policy%20Manual.pdf,https://cdn5-hosted.civiclive.com/UserFiles/Servers/Server_10946972/File/City%20Government/Police/Resources/Pinole_PD_CA_Policy_Manual%20Policy%20707%20Draft%203_18.pdf,,
SB978-395,Pismo Beach Police Department,,no,yes,Pismo Beach,35.15666,-120.6678,San Luis Obispo County,California,Police,https://accesspismo.pismobeach.org,TRUE,TRUE,,https://accesspismo.pismobeach.org/WebLink/DocView.aspx?id=367513&dbid=0&repo=Laserfiche,https://codelibrary.amlegal.com/codes/pismobeach/latest/pismo_ca/0-0-0-23513,,
SB978-396,Pittsburg Police Department,,,yes,Pittsburg,38.01946,-121.8885,Contra Costa County,California,Police,http://www.ci.pittsburg.ca.us,TRUE,TRUE,TRUE,https://www.pittsburgca.gov/home/showpublisheddocument/13446/637704141638270000,https://www.pittsburgca.gov/home/showpublisheddocument/13795/637831086167100000,https://www.pittsburgca.gov/home/showpublisheddocument/13797/637831086443700000,
SB978-397,Placentia Police Department,,no,yes,Placentia,33.87121,-117.8602,Orange County,California,Police,http://placentia.org,TRUE,TRUE,,https://www.placentia.org/DocumentCenter/View/8317/Placentia-PD-Policy-Manual,https://www.placentia.org/DocumentCenter/View/9653/PPD-Draft-Policy-710---Miliary-Equipment,,
SB978-398,Placer County District Attorney,,no,yes,Roseville,38.74897,-121.2840,Placer County,California,District Attorney,https://www.placer.ca.gov,TRUE,TRUE,,https://www.placer.ca.gov/DocumentCenter/View/42002/Policy-Manual?bidId=,https://www.placer.ca.gov/DocumentCenter/View/59431/Military_Equipment?bidId=,,
SB978-400,Placer County Sheriff's Department,,no,yes,Roseville,38.74897,-121.2840,Placer County,California,Sheriff,https://www.placer.ca.gov,TRUE,FALSE,FALSE,https://www.placer.ca.gov/DocumentCenter/View/63746/General-Orders-8122,,,
SB978-401,Placerville Police Department,,no,yes,Placerville,38.72791,-120.8033,El Dorado County,California,Police,https://www.cityofplacerville.org,TRUE,TRUE,,https://www.cityofplacerville.org/media/Police/Policy%20Manual/2022/RELEASE_20220421_T164037_Placerville_PD_Policy_Manual.pdf,https://www.cityofplacerville.org/media/City%20Council%20Staff%20Reports/2022/04%2026%202022/10.1_Att2%20Military_Equipment%20(JW).pdf,,
SB978-402,Pleasant Hill Police Department,,no,yes,Pleasant Hill,37.94799,-122.0627,Contra Costa County,California,Police,http://www.ci.pleasant-hill.ca.us,TRUE,TRUE,,https://www.pleasanthillca.org/DocumentCenter/View/20381/RELEASE_20220311_T172014_Pleasant_Hill_PD_Policy_Manual_redacted,https://www.pleasanthillca.org/DocumentCenter/View/20381/RELEASE_20220311_T172014_Pleasant_Hill_PD_Policy_Manual_redacted,,
SB978-403,Pleasanton Police Services,,no,yes,Pleasanton,37.65822,-121.8771,Alameda County,California,Police,https://www.cityofpleasantonca.gov,TRUE,TRUE,,http://www.cityofpleasantonca.gov/civicax/filebank/blobdload.aspx?BlobID=27212,https://www.cityofpleasantonca.gov/civicax/filebank/blobdload.aspx?BlobID=36238,,
SB978-405,Plumas County Sheriff's Department,,no,yes,Quincy,39.93673,-120.9481,Plumas County,California,Sheriff,https://plumascounty.us,TRUE,FALSE,FALSE,https://www.plumascounty.us/DocumentCenter/View/36997/General-Orders-Update-21-Version-1,,,
SB978-406,Pomona Police Department,,no,yes,Pomona,34.05499,-117.7500,Los Angeles County,California,Police,https://www.pomonaca.gov,TRUE,TRUE,TRUE,https://www.pomonaca.gov/home/showpublisheddocument/464/637457098753730000,https://www.pomonaca.gov/home/showpublisheddocument/4274/637831072756030000,https://www.pomonaca.gov/home/showpublisheddocument/4354/637855247514700000,
SB978-408,Port Hueneme Police Department,,no,yes,Port Hueneme,34.15016,-119.1956,Ventura County,California,Police,https://www.ci.port-hueneme.ca.us,TRUE,TRUE,,https://www.ci.port-hueneme.ca.us/DocumentCenter/View/2960/RELEASE_20190829_Port_Hueneme_PD_Policy_Manual-Web-Site-Version?bidId=,https://www.ci.port-hueneme.ca.us/DocumentCenter/View/5377/2022-06-20-CC-10?bidId=,,
SB978-410,Porterville Police Department,,no,yes,Porterville,36.07096,-119.0162,Tulare County,California,Police,http://www.ci.porterville.ca.us,TRUE,TRUE,,https://cms9files.revize.com/PortervilleCA/PD%20Policy%20Manual%202-22-22.pdf,https://cms9files.revize.com/PortervilleCA/PD%20Policy%20Manual%202-22-22.pdf,,
SB978-411,Red Bluff Police Department,,no,yes,Red Bluff,40.17806,-122.2354,Tehama County,California,Police,http://www.rbpd.org,TRUE,TRUE,,https://www.rbpd.org/division/policies.php#outer-11,https://cms5.revize.com/revize/redbluffpolice/Proposed_Military_Equipment.pdf,,
SB978-412,Redding Police Department,,no,yes,Redding,40.58760,-122.3925,Shasta County,California,Police,https://www.cityofredding.org,TRUE,TRUE,,https://www.cityofredding.org/departments/police-department/about-the-police-department/administrative-division/policy-manual,https://www.cityofredding.org/home/showpublisheddocument/27221/637853515566100000,,
SB978-413,Redlands Police Department,,no,yes,Redlands,34.05538,-117.1826,San Bernardino County,California,Police,https://www.cityofredlands.org,TRUE,TRUE/Draft,TRUE/Draft,https://www.cityofredlands.org/sites/main/files/file-attachments/redlands_policy_manual.pdf?1579202064,https://www.cityofredlands.org/sites/main/files/file-attachments/military_equipment_use_policy_-_draft.pdf?1660581631,,
SB978-414,Redondo Beach Police Department,,no,yes,Redondo Beach,33.84468,-118.3876,Los Angeles County,California,Police,https://www.redondo.org,TRUE,TRUE,TRUE,https://www.redondo.org/civicax/filebank/blobdload.aspx?BlobID=38604,https://www.redondo.org/civicax/filebank/blobdload.aspx?t=47376.27&BlobID=40626,https://www.redondo.org/civicax/filebank/blobdload.aspx?t=56452.8&BlobID=41052,
SB978-415,Redwood City Police Department,,no,yes,Redwood City,37.48450,-122.2277,San Mateo County,California,Police,https://www.redwoodcity.org,TRUE,TRUE,TRUE,https://www.redwoodcity.org/home/showpublisheddocument/22949/637455234481900000,https://www.redwoodcity.org/home/showpublisheddocument/24802/637838327229230000,"https://www.redwoodcity.org/home/showpublisheddocument/24798/637838327220630000 ,  https://www.redwoodcity.org/home/showpublisheddocument/24800/637838327224570000",
SB978-416,Reedley Police Department,,no,yes,Reedley,36.59460,-119.4529,Fresno County,California,Police,https://reedley.ca.gov,TRUE,TRUE,TRUE,https://reedleyweb.s3.us-west-1.amazonaws.com/2022/05/Police_Department_Policy_Manual-1651764175.pdf,https://reedleyweb.s3.us-west-1.amazonaws.com/2022/03/Equipment_Policy-1647033657.pdf,https://reedleyweb.s3.us-west-1.amazonaws.com/2022/03/Reedley_Police_AB481_Equipment_List.pages-1647033672.pdf,
SB978-417,Rialto Police Department,,no,yes,Rialto,34.10032,-117.3728,San Bernardino County,California,Police,https://rialtopolice.com,TRUE,TRUE,TRUE,https://rialtopolice.com/wp-content/uploads/2022/05/rialtopd-policy-2022-03-16.pdf,https://rialtopolice.com/wp-content/uploads/2022/05/rialtopd-policy-2022-03-16.pdf,https://rialtopolice.com/wp-content/uploads/2022/07/rialto-pd-military-equipment-inventory-2022.pdf,
SB978-418,Richmond Police Department,,no,yes,Richmond,37.93784,-122.3429,Contra Costa County,California,Police,https://www.ci.richmond.ca.us,TRUE,TRUE,TRUE,https://www.ci.richmond.ca.us/DocumentCenter/View/51870/Policy-Manual-12312019,https://www.ci.richmond.ca.us/DocumentCenter/View/63138/AB-481-Draft-Policy-707,https://www.ci.richmond.ca.us/DocumentCenter/View/62784/AB-481-Inventory-Report,
SB978-419,Ridgecrest Police Department,,no,yes,Ridgecrest,35.62248,-117.6681,Kern County,California,Police,https://www.ridgecrest-ca.gov,TRUE,FALSE,FALSE,https://www.ridgecrest-ca.gov/DocumentCenter/View/6221/RPD-Policy-and-Procedure-Manual,,,
SB978-420,Rio Dell Police Department,,no,yes,Rio Dell,40.49871,-124.1061,Humboldt County,California,Police,https://cityofriodell.ca.gov,TRUE,FALSE,FALSE,https://www.cityofriodell.ca.gov/sites/g/files/vyhlif8526/f/uploads/release_20210322_t191538_rio_dell_pd_policy_manual.pdf,,,
SB978-422,Ripon Police Department,,no,yes,Ripon,37.74161,-121.1355,San Joaquin County,California,Police,https://riponpd.org,TRUE,TRUE,,https://riponpd.org/wp-content/uploads/2021/02/RELEASE_20210205_T164435_Ripon_PD_Policy_Manual.pdf,https://riponpd.org/wp-content/uploads/2022/05/Military-Equipment-Policy.pdf,,
SB978-423,Riverside Community College District Police Department,,no,yes,Riverside,33.98171,-117.3740,Riverside County,California,College/University,https://www.rccd.edu,TRUE,FALSE,FALSE,https://www.rccd.edu/police/Documents/manuals/Riverside_Community_College_District_Safety_and_Police_Department__Manual.pdf,,,
SB978-426,Riverside County Sheriff's Department,,no,yes,Riverside,33.98171,-117.3740,Riverside County,California,Sheriff,https://www.riversidesheriff.org,TRUE,TRUE,,https://www.riversidesheriff.org/DocumentCenter/View/6956/Department-Standards-Manual-71522,https://www.riversidesheriff.org/DocumentCenter/View/6513/DSM-712-Military-Equipment,,
SB978-427,Riverside Police Department,,no,yes,Riverside,33.98171,-117.3740,Riverside County,California,Police,https://riversideca.gov,TRUE,TRUE,,https://riversideca.gov/rpd/sites/riversideca.gov.rpd/files/pdf/2020/RELEASE_20200317_T100316_Riverside_PD_Policy_Manual.pdf,https://www.riversidesheriff.org/DocumentCenter/View/6513/DSM-712-Military-Equipment,,
SB978-428,Rocklin Police Department,,no,yes,Rocklin,38.79016,-121.2346,Placer County,California,Police,https://www.rocklin.ca.us,TRUE,TRUE,TRUE,https://www.rocklin.ca.us/sites/main/files/file-attachments/rocklin_pd_policy_manual_july_21_2021_version.pdf?1654704041,https://www.rocklin.ca.us/sites/main/files/file-attachments/rocklin_pd_policy_706_-_military_equipment.pdf?1650929530,https://www.rocklin.ca.us/sites/main/files/file-attachments/rocklin_pd_military_equipment_inventory.pdf?1650929546,
SB978-429,Rohnert Park Department of Public Safety,,no,yes,Rohnert Park,38.34242,-122.7102,Sonoma County,California,Police,https://www.rpcity.org,TRUE,TRUE,,https://cdn5-hosted.civiclive.com/UserFiles/Servers/Server_3037789/File/Public%20Safety/Police/RPDPS_Policy_Manual.pdf,https://cdn5-hosted.civiclive.com/UserFiles/Servers/Server_3037789/File/Public%20Safety/Police/Policy-706_Military-Equipment.pdf,,
SB978-430,Roseville Police Department,,no,yes,Roseville,38.74897,-121.2840,Placer County,California,Police,http://www.roseville.ca.us,TRUE,TRUE,TRUE,https://cdn5-hosted.civiclive.com/UserFiles/Servers/Server_7964838/Image/Government/Departments/Police%20Department/Roseville_Police_Dept_Policy_and_Procuedure_Manual%202021_2ndQuarterRedacted.pdf,https://www.roseville.ca.us/common/pages/DisplayFile.aspx?itemId=18307040,https://www.roseville.ca.us/common/pages/DisplayFile.aspx?itemId=18307038,
SB978-431,Ross Police Department,,no,yes,Ross,37.96284,-122.5560,Marin County,California,Police,https://www.townofross.org,TRUE,TRUE,,https://www.townofross.org/sites/default/files/fileattachments/police/page/2911/rpd_policy_manual.pdf,https://www.townofross.org/sites/default/files/fileattachments/police/page/4256/draft_military_equipment_use_policy_-_final_for_positing_4.29.22.pdf,,
SB978-436,Sacramento County Sheriff's Department,,no,yes,Sacramento,38.57944,-121.4908,Sacramento County,California,Sheriff,https://www.sacsheriff.com,TRUE,TRUE,TRUE,https://www.dropbox.com/sh/7cnppdnpee9fhtn/AADqXvAjEBYxo4DQxSe29U2Wa?dl=0,https://www.dropbox.com/s/flmkd0enip0zx6m/AB%20481%20Interim%20Order.pdf?dl=0,https://www.dropbox.com/s/sgyv809rye9gif9/AB481%20Military%20Equipment%20Inventory%20092022.pdf?dl=0,
SB978-437,Sacramento Police Department,,no,yes,Sacramento,38.57944,-121.4908,Sacramento County,California,Police,https://www.cityofsacramento.org,TRUE,TRUE,,https://www.cityofsacramento.org/Police/Transparency/General-Orders,https://www.cityofsacramento.org/-/media/Corporate/Files/Police/Transparency/Military-Use-Reports/GO-41006-Military-Use-Policy-Final091922.pdf?la=en,,
SB978-440,Saint Helena Police Department,,no,yes,Saint Helena,38.505278,-122.470278,Napa County,California,Police,https://www.cityofsthelena.org,TRUE,FALSE,FALSE,https://www.cityofsthelena.org/sites/default/files/fileattachments/police/page/981/release_20180727_t093404_st_helena_pd_policy_manual_1.pdf,,,
SB978-443,San Benito County Sheriff's Department,,no,yes,Hollister,36.85254,-121.4034,San Benito County,California,Sheriff,http://sbso.us,TRUE,TRUE,,https://www.cosb.us/home/showpublisheddocument/9184/637994383129370000,https://www.cosb.us/home/showpublisheddocument/8963/637946100730970000,,
SB978-446,San Bernardino County Sheriff-Coroner,,no,yes,San Bernardino,34.12717,-117.3348,San Bernardino County,California,Sheriff,https://wp.sbcounty.gov,TRUE,TRUE,FALSE,http://www.sbcounty.gov/uploads/sheriff/sb978/Department/Department%20Manual%20Master%2002-02-22.pdf,https://wp.sbcounty.gov/sheriff/wp-content/uploads/sites/17/Military-Equipment-Use-Policy-52422.pdf,,"The policy says that the inventory will be posted every year, but it is not posted."
SB978-447,San Bernardino Police Department,,no,yes,San Bernardino,34.12717,-117.3348,San Bernardino County,California,Police,http://www.sbcity.org,TRUE,TRUE,TRUE,https://cdnsm5-hosted.civiclive.com/UserFiles/Servers/Server_17442462/File/Government/Department/Police%20Department/SB%20978/San%20Bernardino%20PD%20Policy%20Manual/San%20Bernardino%20PD%20Policy%20Manual.pdf,https://cdnsm5-hosted.civiclive.com/UserFiles/Servers/Server_17442462/File/Government/Department/Police%20Department/AB%20481/Military%20Equipment%20Policy%20705.pdf,,There is no date on the ME policy
SB978-449,San Bruno Police Department,,no,yes,San Bruno,37.62517,-122.4143,San Mateo County,California,Police,https://www.sanbruno.ca.gov,TRUE,TRUE,,https://www.sanbruno.ca.gov/DocumentCenter/View/1322/San-Bruno-Police-Department-Policy-Manual-PDF,https://public.powerdms.com/SanBrunoPD/documents/2405067,,
SB978-456,San Diego County Sheriff's Department,,no,yes,San Diego,32.71568,-117.1617,San Diego County,California,Sheriff,https://www.sdsheriff.gov,TRUE,TRUE,,https://www.sdsheriff.gov/home/showpublisheddocument/5729/638000635365470000,https://www.sdsheriff.gov/home/showpublisheddocument/5244/637867547366170000,,
SB978-457,San Diego Harbor Police Department,,,,San Diego,32.71568,-117.1617,San Diego County,California,Port,https://www.portofsandiego.org,TRUE,TRUE,TRUE,https://pantheonstorage.blob.core.windows.net/public-safety/Port-of-San-Diego-Harbor-Police-Training-Documents-Policy-Manual.pdf,https://pantheonstorage.blob.core.windows.net/public-safety/Port-of-San-Diego-Harbor-Police-Policy-712-Military-Equipment-Use.pdf,https://pantheonstorage.blob.core.windows.net/public-safety/Port-of-San-Diego-Harbor-Police-481-military-equipment-list.pdf,
SB978-458,San Diego Police Department,,no,yes,San Diego,32.71568,-117.1617,San Diego County,California,Police,https://www.sandiego.gov,TRUE,TRUE,TRUE,https://www.sandiego.gov/sites/default/files/completedepartmentpolicymanual.pdf,https://www.sandiego.gov/sites/default/files/ab_481_procedure_public_draft.pdf,https://www.sandiego.gov/sites/default/files/2021_annual_military_equipment_report_public_draft.pdf,
SB978-460,San Fernando Police Department,,no,yes,San Fernando,34.28406,-118.4384,Los Angeles County,California,Police,https://ci.san-fernando.ca.us,TRUE,TRUE,,https://ci.san-fernando.ca.us/wp-content/uploads/2019/11/San-Fernando-Police-Department-Policy-Manual-2019.pdf,https://ci.san-fernando.ca.us/wp-content/uploads/2022/04/Military_Equipment-draft-042722.pdf,,
SB978-463,San Francisco County Sheriff's Department,,no,yes,San Francisco,37.75570,-122.4428,San Francisco County,California,Sheriff,https://www.sfsheriff.com,TRUE,TRUE,TRUE,https://www.sfsheriff.com/forms-policies-reports/policies-and-rules,https://www.sfsheriff.com/sites/default/files/2022-11/_704%20Military%20Equipment%20Policy_0.pdf,https://www.sfsheriff.com/sites/default/files/2023-01/AB481%20Presentation%2001312023%20Website%20Format_0.pdf,
SB978-465,San Francisco Police Department,,no,yes,San Francisco,37.75570,-122.4428,San Francisco County,California,Police,https://www.sanfranciscopolice.org,TRUE,TRUE,TRUE,https://www.sanfranciscopolice.org/your-sfpd/policies/general-orders,https://www.sanfranciscopolice.org/your-sfpd/policies/law-enforcement-equipment-use-policy,https://www.sanfranciscopolice.org/your-sfpd/policies/law-enforcement-equipment-use-policy,No costs or sources listed
SB978-466,San Gabriel Police Department,,no,yes,San Gabriel,34.09723,-118.1084,Los Angeles County,California,Police,https://www.sangabrielcity.com,TRUE,TRUE,,https://sangabrielcity.com/DocumentCenter/View/12155/San-Gabriel-PD-Policy-Manual?bidId=,https://sangabrielcity.com/DocumentCenter/View/16780/Lexipol-Policy-707-Pursuant-to-AB-481-1,,
SB978-469,San Joaquin County Probation Department,,no,no,Stockton,37.95373,-121.2905,San Joaquin County,California,Probation,https://www.sjgov.org,TRUE,FALSE,FALSE,https://www.sjgov.org/department/prob/policies/adult,,,"It exists, but it is a mess. Most documents are just memoranda about policies, not the policies themselves."
SB978-470,San Joaquin County Sheriff's Department,,no,yes,French Camp,37.88484,-121.2712,San Joaquin County,California,Sheriff,https://www.sjsheriff.org,TRUE,TRUE,,https://www.sjgov.org/docs/default-source/district-attorney-documents/units/investigations/bureau-of-investigations.pdf?sfvrsn=4ba6a96_7,https://sjsheriff.org/Downloads/policies/sjcso-military-equipment-policy-and-list-2022.pdf,,
SB978-471,San Joaquin Delta College Police Department,,no,yes,Stockton,37.95373,-121.2905,San Joaquin County,California,College/University,https://www.deltacollege.edu,TRUE,FALSE,FALSE,https://deltacollege.edu/district-police/transparency,,,
SB978-472,San Jose Police Department,,no,yes,San Jose,37.33865,-121.8854,Santa Clara County,California,Police,https://www.sjpd.org,TRUE,TRUE,TRUE,https://www.sjpd.org/home/showdocument?id=314,https://www.sjpd.org/home/showpublisheddocument/710/638006451003918952,https://www.sjpd.org/home/showpublisheddocument/712/638006450767197733,
SB978-475,San Leandro Police Department,,no,yes,San Leandro,37.72832,-122.1586,Alameda County,California,Police,https://www.sanleandro.org,TRUE,TRUE,TRUE,https://www.sanleandro.org/455/Lexipol-Policies,https://www.sanleandro.org/DocumentCenter/View/6875,https://www.sanleandro.org/1077/Assembly-Bill-481,
SB978-477,San Luis Obispo County Sheriff's Department,,no,yes,San Luis Obispo,35.28579,-120.6627,San Luis Obispo County,California,Sheriff,http://www.slosheriff.org,TRUE,TRUE,,https://www.slosheriff.org/San_Luis_Obispo_County_SO_Policy_Manual_May_2022.pdf,https://www.slosheriff.org/San_Luis_Obispo_County_SO_Policy_Manual_May_2022.pdf,,
SB978-478,San Luis Obispo Police Department,,no,yes,San Luis Obispo,35.28579,-120.6627,San Luis Obispo County,California,Police,https://www.slocity.org,TRUE,TRUE,,https://www.slocity.org/home/showpublisheddocument/32511/637939865425900000,https://www.slocity.org/home/showpublisheddocument/31899/637831994266470000,,
SB978-479,San Marino Police Department,,no,yes,San Marino,34.12215,-118.1050,Los Angeles County,California,Police,https://www.cityofsanmarino.org,TRUE,TRUE,,https://cms9files.revize.com/sanmarinoca/SMPD%20POLICY%20MANUAL.pdf,https://cms9files.revize.com/sanmarinoca/Police/San%20Marino%20Police%20Department%20Policy%20705%20(Draft).pdf,,
SB978-481,San Mateo County Sheriff's Office,,no,yes,Redwood City,37.48450,-122.2277,San Mateo County,California,Sheriff,https://www.smcsheriff.com,TRUE,TRUE,,https://www.smcsheriff.com/sites/default/files/content_files/2020_Operations_Policy_Manual.pdf,https://www.smcsheriff.com/sites/default/files/resources_files/San%20Mateo%20County%20Sheriff%27s%20Office%20Lexipol%20Policy%20705%20Military%20Equipment_0.pdf,,
SB978-482,San Mateo Police Department,,no,yes,San Mateo,37.54704,-122.3148,San Mateo County,California,Police,https://www.cityofsanmateo.org,TRUE,TRUE,,https://www.cityofsanmateo.org/DocumentCenter/View/79089/San-Mateo-PD-Policy-Manuall,https://www.cityofsanmateo.org/DocumentCenter/View/87368/Draft-Policy-709---Military-Equipment,,
SB978-483,San Pablo Police Department,,no,yes,San Pablo,37.96033,-122.3424,Contra Costa County,California,Police,https://www.sanpabloca.gov,TRUE,TRUE,,https://www.sanpabloca.gov/DocumentCenter/View/12653/RELEASE_20191230_T143925_Policy_Manual-12-30-2019,https://www.sanpabloca.gov/DocumentCenter/View/15159/San-Pablo-Police-AB481-Policy?bidId=,,
SB978-484,San Rafael Police Department,,no,yes,San Rafael,37.97461,-122.5329,Marin County,California,Police,https://www.srpd.org,TRUE,TRUE,,https://www.srpd.org/downloads/policies/San_Rafael_PD_Policy_Manual%209-18-19.pdf,https://www.srpd.org/downloads/AB481/AB-481-draft.pdf,,
SB978-485,San Ramon Police Department,,no,yes,San Ramon,37.77945,-121.9690,Contra Costa County,California,Police,https://www.sanramon.ca.gov,TRUE,TRUE,,https://www.sanramon.ca.gov/common/pages/DisplayFile.aspx?itemId=11573369,https://cdn5-hosted.civiclive.com/UserFiles/Servers/Server_10826046/File/Our%20City/Departments/Police/Home%20Page/Policy708.pdf,,
SB978-486,Sand City Police Department,,no,yes,Sand City,36.61405,-121.8506,Monterey County,California,Police,https://www.sandcity.org,TRUE,FALSE,FALSE,https://www.sandcity.org/home/showpublisheddocument/3654/637872675956500000,,,
SB978-487,Sanger Police Department,,no,yes,Sanger,36.70887,-119.5564,Fresno County,California,Police,http://www.ci.sanger.ca.us,TRUE,TRUE,,https://www.ci.sanger.ca.us/DocumentCenter/View/2257/2022-Sanger-PD-Policy-Manual,http://www.ci.sanger.ca.us/DocumentCenter/View/2198/SAPD-Military_Equipment-Policy,,
SB978-488,Santa Ana Police Department,,no,yes,Santa Ana,33.74958,-117.8745,Orange County,California,Police,https://www.santa-ana.org,TRUE,TRUE,,https://public.powerdms.com/SAPDCA/tree,https://voiceofoc.org/wp-content/uploads/2022/04/Policy-707-Military-Equipment.pdf,,
SB978-489,Santa Ana Unified School District Police Department,,no,yes,Santa Ana,33.74958,-117.8745,Orange County,California,School District,http://www.ci.sanger.ca.us,TRUE,FALSE,FALSE,https://www.sausd.us/cms/lib/CA01000471/Centricity/Domain/9/Lexipol%20Policy_2019.pdf,,,
SB978-491,Santa Barbara County Sheriff's Department,,no,yes,Santa Barbara,34.41938,-119.6990,Santa Barbara County,California,Sheriff,https://www.sbsheriff.org,TRUE,TRUE,,https://www.sbsheriff.org/wp-content/uploads/2021/03/Santa-Barbara-Sheriff-2021-Policy-Manual.pdf,https://www.sbsheriff.org/wp-content/uploads/2022/03/Lexipol-Military-Equipment-Policy-w-Inventory.pdf,,
SB978-492,Santa Barbara Police Department,,no,yes,Santa Barbara,34.41938,-119.6990,Santa Barbara County,California,Police,https://www.santabarbaraca.gov,TRUE,TRUE,TRUE,https://santabarbaraca.gov/sites/default/files/2022-09/2022%20SBPD%20Department%20Policy%20Manual.pdf,https://santabarbaraca.gov/sites/default/files/documents/Police/Military%20Equipment%20Inventory%20Per%20Assembly%20Bill%20No.%20481/Governing%20Body%20Specific%20Equipment%20Approval.pdf,https://santabarbaraca.gov/sites/default/files/documents/Police/Military%20Equipment%20Inventory%20Per%20Assembly%20Bill%20No.%20481/SBPD%20Military%20Equipment%20Inventory%202022.pdf,
SB978-495,Santa Clara County Sheriff's Department,,no,yes,San Jose,37.33865,-121.8854,Santa Clara County,California,Sheriff,https://countysheriff.sccgov.org,TRUE,TRUE,,https://countysheriff.sccgov.org/about-us/so-policies-procedures,https://countysheriff.sccgov.org/sites/g/files/exjcpb406/files/policy/General%20Order%20%2310.08%20Final%20Draft.pdf,,
SB978-496,Santa Clara Police Department,,no,yes,Santa Clara,37.35579,-121.9551,Santa Clara County,California,Police,https://www.santaclaraca.gov,TRUE,TRUE,,https://www.santaclaraca.gov/home/showpublisheddocument/78116/637962389744970000,https://www.santaclaraca.gov/home/showpublisheddocument/76608/637806211924170000,,
SB978-498,Santa Cruz County District Attorney,,no,yes,Santa Cruz,36.97424,-122.0310,Santa Cruz County,California,District Attorney,http://datinternet.co.santa-cruz.ca.us,TRUE,FALSE,FALSE,https://www.santacruzdistrictattorney.us/Portals/24/pdfs/SCDAI%20Policy%20Manual.pdf?ver=2019-12-23-143211-330,,,
SB978-499,Santa Cruz County Sheriff's Department,,no,yes,Santa Cruz,36.97424,-122.0310,Santa Cruz County,California,Sheriff,http://www.scsheriff.com,TRUE,TRUE,,https://www.scsheriff.com/Portals/1/County/sheriff/Policy%205_26_22.pdf,https://www.scsheriff.com/Portals/1/County/sheriff/Policy%205_26_22.pdf,,
SB978-500,Santa Cruz Police Department,,no,yes,Santa Cruz,36.97424,-122.0310,Santa Cruz County,California,Police,https://www.cityofsantacruz.com,TRUE,TRUE,,https://www.cityofsantacruz.com/home/showpublisheddocument/88456/637832021651670000,https://www.cityofsantacruz.com/home/showpublisheddocument/88444/637831499167900000,,
SB978-501,Santa Fe Springs Police Services,Whittier Police Department,yes,yes,Santa Fe Springs,33.94649,-118.0838,Los Angeles County,California,Police,https://www.cityofwhittier.org,TRUE,FALSE,FALSE,https://www.cityofwhittier.org/home/showdocument?id=892,,,
SB978-502,Santa Maria Police Department,,no,yes,Santa Maria,34.95313,-120.4345,Santa Barbara County,California,Police,https://www.cityofsantamaria.org,TRUE,TRUE,TRUE,https://www.cityofsantamaria.org/home/showdocument?id=27046,https://www.cityofsantamaria.org/home/showpublisheddocument/30262/637831197770770000,https://www.cityofsantamaria.org/home/showpublisheddocument/30260/637872810825630000,
SB978-504,Santa Monica Police Department,,no,yes,Santa Monica,34.01158,-118.4923,Los Angeles County,California,Police,https://www.santamonicapd.org,TRUE,TRUE,,https://public.powerdms.com/SANTAMONICACA/tree,https://www.santamonica.gov/media/Police/Policy%20707%20Military%20Equipment%20Draft%20Revision.pdf,,
SB978-505,Santa Paula Police Department,,no,yes,Santa Paula,34.35215,-119.0596,Ventura County,California,Police,https://spcity.org,TRUE,FALSE,FALSE,https://spcity.org/DocumentCenter/View/1200/Santa-Paula-Department-Policy-?bidId=,,,
SB978-506,Santa Rosa Junior College Police Department,,no,yes,Santa Rosa,38.43808,-122.7125,Sonoma County,California,College/University,https://police.santarosa.edu,TRUE,FALSE,FALSE,https://police.santarosa.edu/sites/police.santarosa.edu/files/documents/2020.SRJC_.PD_.TrainingPlan.pdf,,,
SB978-507,Santa Rosa Police Department,,no,yes,Santa Rosa,38.43808,-122.7125,Sonoma County,California,Police,https://srcity.org,TRUE,TRUE,TRUE,https://www.srcity.org/DocumentCenter/View/25467/2019-SRPD-Policy-Manual,https://srcity.org/DocumentCenter/View/35876/Lex-707-Military_Equipment,https://www.srcity.org/DocumentCenter/View/35874/481-Appendix-A,
SB978-508,Sausalito Police Department,,no,yes,Sausalito,37.85924,-122.4886,Marin County,California,Police,https://www.sausalito.gov,TRUE,TRUE,,https://www.sausalito.gov/home/showdocument?id=26616,https://www.sausalito.gov/home/showpublisheddocument/31307/637866717307530000,,
SB978-509,Scotts Valley Police Department,,no,yes,Scotts Valley,37.04957,-122.0185,Santa Cruz County,California,Police,https://www.scottsvalleypd.com,TRUE,TRUE,,https://www.scottsvalleypd.com/_files/ugd/385dfa_8bf0836ef7c24beea7ac209b7584efa5.pdf?index=true,https://www.scottsvalleypd.com/_files/ugd/385dfa_7b089a0014cf4ad89c189682d0e17c34.pdf?index=true,,
SB978-510,Seal Beach Police Department,,no,yes,Seal Beach,33.74256,-118.1052,Orange County,California,Police,https://www.sealbeachca.gov,TRUE,TRUE,,https://www.sealbeachca.gov/Portals/0/Documents/Seal%20Beach%20Department%20Online%20Policy%20Manual%20January%202020.pdf?ver=2020-01-29-113743-830,https://2sr7d8472n573iqofw1mfsq0-wpengine.netdna-ssl.com/wp-content/uploads/2022/04/Seal-Beach-PD-Policy-706-Military-Equipment.pdf,,
SB978-511,Seaside Police Department,,no,yes,Seaside,36.60390,-121.8530,Monterey County,California,Police,http://www.ci.seaside.ca.us,TRUE,TRUE,,http://www.ci.seaside.ca.us/676/Department-Policies,http://www.ci.seaside.ca.us/DocumentCenter/View/12856/AB-481-Military-Equipment,,
SB978-512,Sebastopol Police Department,,no,yes,Sebastopol,38.40179,-122.8251,Sonoma County,California,Police,https://ci.sebastopol.ca.us,TRUE,TRUE,,https://ci.sebastopol.ca.us/SebastopolSite/media/Documents/Police_Dept/Police-Policy-Manual-March-2021.pdf?ext=.pdf,https://ci.sebastopol.ca.us/SebastopolSite/media/Documents/Police_Dept/Policy-705.pdf,,
SB978-513,Selma Police Department,,no,yes,Selma,36.56754,-119.6108,Fresno County,California,Police,http://www.cityofselma.com,TRUE,TRUE,,https://www.cityofselma.com/Document_Center/Department/Police/Selma_PD_Policy_Manual%20031822.pdf,https://www.cityofselma.com/Document_Center/Department/Police/Military%20policy.pdf,,
SB978-514,Shafter Police Department,,no,yes,Shafter,35.50472,-119.2767,Kern County,California,Police,https://www.shafter.com,TRUE,TRUE,,https://www.shafter.com/DocumentCenter/View/5061/2022-01-12-SPD-Policy-Manual?bidId=,https://www.shafter.com/DocumentCenter/View/5220/Military_Equipment_Use_Policy-3-FINAL?bidId=,,
SB978-517,Shasta County Sheriff's Department,,no,yes,Redding,40.58760,-122.3925,Shasta County,California,Sheriff,https://www.co.shasta.ca.us,TRUE,TRUE,,https://www.shastacounty.gov/sheriff/page/shasta-county-sheriffs-office-policy-manual,https://www.co.shasta.ca.us/docs/libraries/sheriff-docs/docs/military_equipment-704-policy.pdf?sfvrsn=c891ab89_0,,
SB978-520,Sierra County Sheriff's Office,,no,yes,Downieville,39.56031,-120.8288,Sierra County,California,Sheriff,http://sierracounty.ca.gov,TRUE,FALSE,FALSE,http://www.sierracounty.ca.gov/DocumentCenter/View/4362/Sierra-County-LE-Policy-Manual,,,
SB978-521,Sierra Madre Police Department,,no,yes,Sierra Madre,34.16187,-118.0572,Los Angeles County,California,Police,https://www.cityofsierramadre.com,TRUE,TRUE,,https://cdn5-hosted.civiclive.com/UserFiles/Servers/Server_212309/File/Departments/Police%20Department/Policy/SMPD%20Policy%20Manual.pdf,https://www.cityofsierramadre.com/UserFiles/Servers/Server_212309/File/Departments/Police%20Department/Police%20Dept%20Files/Military%20Equipment%20policy%20(2).pdf,,
SB978-522,Signal Hill Police Department,,no,yes,Signal Hill,33.79677,-118.1677,Los Angeles County,California,Police,https://www.cityofsignalhill.org,TRUE,TRUE,,https://www.cityofsignalhill.org/DocumentCenter/View/8399/Signal_Hill_PD_Policy_Manual-2022?bidId=,https://www.cityofsignalhill.org/DocumentCenter/View/8399/Signal_Hill_PD_Policy_Manual-2022?bidId=,,
SB978-523,Simi Valley Police Department,,no,yes,Simi Valley,34.28946,-118.7177,Ventura County,California,Police,https://www.simivalley.org,TRUE,TRUE,,https://www.simivalley.org/home/showpublisheddocument/24304/637976364208530000,https://www.simivalley.org/home/showpublisheddocument/24953/637882888375070000,,
SB978-525,Siskiyou County Sheriff's Department,,no,yes,Yreka,41.73122,-122.6357,Siskiyou County,California,Sheriff,https://www.co.siskiyou.ca.us,TRUE,FALSE,FALSE,https://www.co.siskiyou.ca.us/sites/default/files/fileattachments/enforcement_division/page/1491/so_20191231_policymanual.pdf,,,
SB978-529,Solano County Sheriff's Department,,no,yes,Fairfield,38.24924,-122.0443,Solano County,California,Sheriff,https://www.solanocounty.com,TRUE,TRUE,TRUE,https://public.powerdms.com/SolanoCounty/tree,https://www.solanocounty.com/civicax/filebank/blobdload.aspx?blobid=37676,https://www.solanocounty.com/civicax/filebank/blobdload.aspx?blobid=37673,
SB978-531,Soledad Police Department,,no,yes,Soledad,36.42843,-121.3277,Monterey County,California,Police,https://cityofsoledad.com,TRUE,TRUE,,https://www.cityofsoledad.com/download/soledad-pd-policy-manual/,https://www.cityofsoledad.com/2022/04/25/military-equipment-policy-and-ordinance/,,
SB978-534,Sonoma County Probation Department,,no,no,Santa Rosa,38.43808,-122.7125,Sonoma County,California,Probation,https://sonomacounty.ca.gov,TRUE,FALSE,FALSE,https://sonomacounty.ca.gov/Microsites/Permit%20Sonoma/Documents/Archive/Misc/Code-of-Conduct-ADA.pdf,,,
SB978-535,Sonoma County Sheriff's Office,,no,yes,Santa Rosa,38.43808,-122.7125,Sonoma County,California,Sheriff,https://www.sonomasheriff.org,TRUE,TRUE,,https://static1.squarespace.com/static/542ec317e4b0d41ade8801fb/t/5fea1c3a58d2771921767265/1609178182899/Manual+12-23-2020.pdf,https://static1.squarespace.com/static/542ec317e4b0d41ade8801fb/t/628d5f807e73be7919a8c8b7/1653432193010/Military_Equipment+5-24-22.pdf,,
SB978-536,Sonoma Police Department,Sonoma County Sheriff's Department,yes,yes,Sonoma,38.29188,-122.4573,Sonoma County,California,Police,https://www.sonomasheriff.org,TRUE,TRUE,,https://static1.squarespace.com/static/542ec317e4b0d41ade8801fb/t/5fea1c3a58d2771921767265/1609178182899/Manual+12-23-2020.pdf,https://static1.squarespace.com/static/542ec317e4b0d41ade8801fb/t/628d5f807e73be7919a8c8b7/1653432193010/Military_Equipment+5-24-22.pdf,,
SB978-537,Sonora Police Department,,no,yes,Sonora,37.98329,-120.3822,Tuolumne County,California,Police,https://www.sonorapd.com,TRUE,TRUE,,https://www.sonorapd.com/wp-content/uploads/2020/02/Sonora_PD_Policy_Manual1-01-28-2020.pdf,https://www.sonorapd.com/wp-content/uploads/2022/02/Military_Equipment-Policy.pdf,,
SB978-538,South Gate Police Department,,no,yes,South Gate,33.95722,-118.2056,Los Angeles County,California,Police,http://www.cityofsouthgate.org,TRUE,TRUE,,https://www.cityofsouthgate.org/files/sharedassets/public/departments/police/documents/south_gate_pd_policy_manual-1.pdf,https://www.cityofsouthgate.org/files/sharedassets/public/departments/police/documents/military_equipment-02152022.pdf,,
SB978-539,South Lake Tahoe Police Department,,no,yes,South Lake Tahoe,38.91162,-120.0078,El Dorado County,California,Police,https://www.cityofslt.us,TRUE,TRUE,,https://www.cityofslt.us/DocumentCenter/View/13226/September-2020-PD-Policy-update?bidId=,https://www.cityofslt.us/DocumentCenter/View/16581/02-POLICY---Military-Equipment--030122-complete,,
SB978-540,South Pasadena Police Department,,no,yes,South Pasadena,34.11582,-118.1518,Los Angeles County,California,Police,https://www.southpasadenaca.gov,TRUE,TRUE,,https://www.southpasadenaca.gov/home/showpublisheddocument/26461/637613518181470000,https://www.southpasadenaca.gov/home/showpublisheddocument/30458/637981381165570000,,
SB978-541,South San Francisco Police Department,,no,yes,South San Francisco,37.65607,-122.4142,San Mateo County,California,Police,https://www.ssf.net,TRUE,TRUE,TRUE,https://www.ssf.net/Home/ShowDocument?id=17063,https://www.ssf.net/home/showpublisheddocument/28456/638058498573370000,,
SB978-542,Southwestern Community College Police Department,,no,yes,Chula Vista,32.64090,-117.0843,San Diego County,California,College/University,https://www.swccd.edu,TRUE,FALSE,FALSE,https://www.swccd.edu/student-support/college-police/community-programs-and-events/_files/southwestern-college-police-department-procedure-manual-030420.pdf,,,
SB978-544,Stanford University Department of Public Safety,,no,no,Palo Alto,37.44466,-122.1608,Santa Clara County,California,College/University,https://police.stanford.edu,TRUE,FALSE,FALSE,https://police.stanford.edu/policy-procedure-deck.html,,,
SB978-546,Stanislaus County Sheriff's Department,,no,yes,Modesto,37.64155,-121.0035,Stanislaus County,California,Sheriff,https://www.scsdonline.com,TRUE,TRUE,,https://www.scsdonline.com/admin-forms.html?download=175:military-equipment-policy-forms,https://www.scsdonline.com/admin-forms.html?download=175:military-equipment-policy-forms,,
SB978-548,Stockton Police Department,,no,yes,Stockton,37.95373,-121.2905,San Joaquin County,California,Police,http://ww1.stocktonca.gov,TRUE,TRUE,,http://ww1.stocktonca.gov/-/media/Stockton-Website/Departments/Police-Homepage/About-the-Police-Department/Rules-and-Regulations/Files/2c1-RulesandRegsRevisions2017.pdf?la=en&hash=44479EE941CE76034FD1743A317B9CB4746D7FEA,http://ww1.stocktonca.gov/-/media/Stockton-Website/Departments/Police-Homepage/About-the-Police-Department/General-Orders/2022-updates/30222-update/F-02a.pdf?la=en&hash=60A34B21E7AFCF44DFD604C8FE71CAB593A21AE3,,
SB978-551,Suisun City Police Department,,no,yes,Suisun City,38.23912,-122.0369,Solano County,California,Police,https://police.suisun.com,TRUE,TRUE,,https://police.suisun.com/wp-content/uploads/2020/06/Suisun-PD-Policy-Manual.pdf,https://police.suisun.com/wp-content/uploads/2022/03/SCPD-Military-Equipment-Policy-Draft.pdf,,
SB978-552,Sunnyvale Department of Public Safety,,no,yes,Sunnyvale,37.37172,-122.0380,Santa Clara County,California,Police,https://sunnyvale.ca.gov,TRUE,TRUE,,https://www.sunnyvale.ca.gov/home/showpublisheddocument/534/637819071041670000,https://www.sunnyvale.ca.gov/home/showpublisheddocument/3292/637883869782870000,,
SB978-556,Sutter County Sheriff's Department,,no,yes,Yuba City,39.14094,-121.6198,Sutter County,California,Sheriff,https://www.suttercounty.org,TRUE,TRUE,TRUE,https://www.suttersheriff.org/home/showpublisheddocument/5553/637883981428600000,https://www.suttersheriff.org/home/showpublisheddocument/5553/637883981428600000,https://www.suttercounty.org/home/showpublisheddocument/5557,
SB978-558,Taft Police Department,,no,yes,Taft,35.14247,-119.4574,Kern County,California,Police,https://www.cityoftaft.org,TRUE,TRUE,TRUE,https://www.cityoftaft.org/files/documents/TaftPDPolicyManual1743055921021621PM.pdf,https://www.cityoftaft.org/files/documents/MilitaryEquipmentPolicy1739015534051622PM.pdf,https://www.cityoftaft.org/files/documents/MilitaryEquipmentInventory1739020541051622PM.pdf,
SB978-559,Tehachapi Police Department,,no,yes,Tehachapi,35.13224,-118.4491,Kern County,California,Police,https://www.liveuptehachapi.com/29/Tehachapi-Police-Department,TRUE,FALSE,FALSE,https://www.liveuptehachapi.com/DocumentCenter/View/5747/Tehachapi-Police-Department-Manual-of-Policy-and-Procedures,,,
SB978-561,Tehama County Sheriff's Department,,no,yes,Red Bluff,40.17806,-122.2354,Tehama County,California,Sheriff,https://tehamaso.org,TRUE,TRUE,TRUE,https://tehamaso.org/wp-content/uploads/2022/04/RELEASE_20220201_T181753_Tehama_County_SO_Policy_Manual.pdf,https://tehamaso.org/wp-content/uploads/2022/04/RELEASE_20220201_T181753_Tehama_County_SO_Policy_Manual.pdf,https://tehamaso.org/wp-content/uploads/2022/07/reportable-military-equipment-062122.pdf,
SB978-563,Tiburon Police Department,,no,yes,Tiburon,37.88157,-122.4666,Marin County,California,Police,http://www.townoftiburon.org/159/Police,TRUE,TRUE,,https://www.townoftiburon.org/DocumentCenter/View/1991/Tiburon_PD_Policy_Manual_May-2022?bidId=,https://www.townoftiburon.org/DocumentCenter/View/3712/Military_Equipment-Policy-May-reference-draft-OLD?bidId=,,
SB978-564,Torrance Police Department,,no,yes,Torrance,33.83707,-118.3432,Los Angeles County,California,Police,https://www.torranceca.gov/our-city/police,TRUE,TRUE,,https://www.torranceca.gov/home/showpublisheddocument/75700/637937386743070000,https://www.torranceca.gov/home/showpublisheddocument/75626/637934050962700000,,
SB978-565,Tracy Police Department,,no,yes,Tracy,37.73970,-121.4264,San Joaquin County,California,Police,https://www.cityoftracy.org/our-city/departments/police-department,TRUE,TRUE,,https://www.cityoftracy.org/home/showpublisheddocument/142/637447527843330000,https://www.cityoftracy.org/home/showpublisheddocument/12632,,
SB978-569,Trinity County Sheriff's Department,,no,yes,Weaverville,40.73243,-122.9404,Trinity County,California,Sheriff,https://www.trinitycounty.org/Sheriff-Department,TRUE,FALSE,FALSE,https://www.trinitycounty.org/sites/default/files/Sheriff/documents/RELEASE_20210510_T134755_Trinity_County_Sheriff_s_Office_Policy_Manual.pdf,,,
SB978-570,Truckee Police Department,,no,yes,Truckee,39.32612,-120.2121,Nevada County,California,Police,https://www.truckeepolice.com,TRUE,TRUE,,https://www.truckeepolice.com/wp-content/uploads/2020/06/Policy_Manual.pdf,https://www.truckeepolice.com/wp-content/uploads/2022/04/Military-equipment-policy-032822-DRAFT-1.pdf,,
SB978-573,Tulare County Sheriff's Department,,no,yes,Visalia,36.33377,-119.2926,Tulare County,California,Sheriff,https://tularecounty.ca.gov,TRUE,TRUE,,https://tularecounty.ca.gov/sheriff/divisions/policy-training/redacted-detentions-policy/,https://tularecounty.ca.gov/sheriff/community/public-notices/ab-481-military-equipment-policy/,,
SB978-574,Tulare Police Department,,no,yes,Tulare,36.20649,-119.3430,Tulare County,California,Police,https://www.tulare.ca.gov/government/departments/police,TRUE,TRUE,,https://www.tulare.ca.gov/home/showpublisheddocument/19320/637945298959400000,https://www.tulare.ca.gov/home/showpublisheddocument/18986/637868359405300000,,
SB978-577,Tuolumne County Sheriff's Department,,no,yes,Sonora,37.98329,-120.3822,Tuolumne County,California,Sheriff,https://www.tuolumnecounty.ca.gov/341/Sheriffs-Office,TRUE,FALSE,FALSE,https://www.tuolumnecounty.ca.gov/DocumentCenter/View/12131/TCSO-Policy-Manual,,,
SB978-578,Turlock Police Department,,no,yes,Turlock,37.49528,-120.8467,Stanislaus County,California,Police,https://www.cityofturlock.org/policedepartment/index.asp,TRUE,TRUE,TRUE,https://www.cityofturlock.org/_pdf/sb978document.asp?id=52,https://www.cityofturlock.org/_pdf/sb978document.asp?id=52,https://www.cityofturlock.org/_pdf/sb978document.asp?id=51,
SB978-579,Tustin Police Department,,no,yes,Tustin,33.74425,-117.8188,Orange County,California,Police,https://www.tustinca.org,TRUE,TRUE,,https://public.powerdms.com/TUSPD/tree,https://www.tustinca.org/DocumentCenter/View/7010/General-Order-708-Military-Equipment-Use---DRAFT-PDF?bidId=,,
SB978-580,Twin Rivers Unified School District Police Services,,no,yes,McClellan Park,38.662222,-121.401667,Sacramento County,California,School District,https://www.twinriversusd.org,TRUE,FALSE,FALSE,https://www.twinriversusd.org/documents/Police%20Services/Policy%20Manual%2020120807.pdf,,,
SB978-581,UC Berkeley Police Department,,no,yes,Berkeley,37.86988,-122.2705,Alameda County,California,College/University,https://ucpd.berkeley.edu,TRUE,TRUE,TRUE/Draft,https://ucpd.berkeley.edu/sites/default/files/university_of_california_berkeley_police_department_policy_manual_august_2020.pdf,https://ucpd.berkeley.edu/sites/default/files/ucpd_ab_481_report_0.pdf,https://ucpd.berkeley.edu/sites/default/files/ab-481.pdf,This details equipment for each UC PD and has images
SB978-582,UC Davis Police Department,,no,yes,Davis,38.54669,-121.7446,Yolo County,California,College/University,https://police.ucdavis.edu,TRUE,TRUE,TRUE,https://ucdavis.box.com/v/police-dept-policy-manual,https://ucdavis.box.com/s/0snzkk4l1nnuscfhiadxghg7xe2vrmue,https://police.uci.edu/how-do-i/_img/AB481-UC_Equip.pdf,
SB978-583,UC Irvine Police Department,,no,yes,Irvine,33.68730,-117.8259,Orange County,California,College/University,https://www.police.uci.edu,TRUE,TRUE,TRUE,https://www.police.uci.edu/how-do-i/_img/ucipd_policy_manual.pdf,https://www.police.uci.edu/how-do-i/_img/AB481-draft.pdf,https://www.police.uci.edu/how-do-i/_img/AB481-UC_Equip.pdf,
SB978-584,UC Los Angeles Police Department,,no,yes,Los Angeles,34.05357,-118.2454,Los Angeles County,California,College/University,https://www.police.ucla.edu,TRUE,TRUE,TRUE,https://ucla.box.com/v/UCPDPolicyManual,https://ucla.app.box.com/v/706MilitaryEquipment,https://ucla.app.box.com/v/AB481UCEquipment,
SB978-585,UC Merced Police Department,,no,yes,Merced,37.30152,-120.4869,Merced County,California,College/University,https://police.ucmerced.edu,TRUE,TRUE,TRUE,https://police.ucmerced.edu/sites/police.ucmerced.edu/files/page/documents/release_20220829_t180735_uc_merced_police_department_policy_manual_2_1.pdf,https://police.ucmerced.edu/sites/police.ucmerced.edu/files/documents/military_equipment_draft_policy_for_website.pdf,https://police.ucmerced.edu/sites/police.ucmerced.edu/files/documents/ab481-uc_equip.pdf,
SB978-586,UC Riverside Police Department,,no,yes,Riverside,33.98171,-117.3740,Riverside County,California,College/University,https://police.ucr.edu,TRUE,FALSE,FALSE,https://www.google.com/url?sa=t&rct=j&q=&esrc=s&source=web&cd=&cad=rja&uact=8&ved=2ahUKEwjq8pKlmuv6AhX1BjQIHQnyBmwQFnoECAMQAQ&url=https%3A%2F%2Fpolice.ucr.edu%2Fmedia%2F671%2Fdownload%3Fattachment&usg=AOvVaw1LK11GOyhUEWFFYfth7Fuh,,https://police.ucr.edu/document/ab481-uc-equipment,
SB978-587,UC San Diego Police Department,,no,yes,San Diego,32.71568,-117.1617,San Diego County,California,College/University,http://police.ucsd.edu,TRUE,TRUE,,https://policy.ucop.edu/doc/4000382/PoliceProceduresManual,https://police.ucsd.edu/_files/MilitaryEquipmentPolicy.pdf,,
SB978-588,UC San Francisco Police Department,,no,yes,San Francisco,37.75570,-122.4428,San Francisco County,California,College/University,https://police.ucsf.edu,TRUE,FALSE,FALSE,https://www.powerdms.com/public/UCSF/tree,,,
SB978-589,UC Santa Barbara Police Department,,no,yes,Santa Barbara,34.41938,-119.6990,Santa Barbara County,California,College/University,https://www.police.ucsb.edu,TRUE,TRUE,TRUE,https://www.google.com/url?sa=t&rct=j&q=&esrc=s&source=web&cd=&ved=2ahUKEwimxOTjl-v6AhVAGTQIHYAOCJ0QFnoECC4QAQ&url=https%3A%2F%2Fwww.police.ucsb.edu%2Fsites%2Fdefault%2Ffiles%2FPolicy_Manual_RELEASE_03-19-13.pdf&usg=AOvVaw0mHN7TuOVQSVClkFiJ_KD6,https://www.police.ucsb.edu/sites/default/files/Draft%20Military%20Equipment%20Policy%20V10%20Santa%20Barbara%20Final%208.16.22.pdf,https://www.police.ucsb.edu/sites/default/files/AB481-UC_Equip.pdf,
SB978-590,UC Santa Cruz Police Department,,no,yes,Santa Cruz,36.97424,-122.0310,Santa Cruz County,California,College/University,https://police.ucsc.edu,TRUE,TRUE,TRUE,https://police.ucsc.edu/report/policies/index.html,https://police.ucsc.edu/report/policies/chapter-700/military_equipment_policy_710.pdf,https://police.ucsc.edu/ab481-equip.pdf,
SB978-591,Ukiah Police Department,,no,yes,Ukiah,39.15093,-123.2079,Mendocino County,California,Police,https://www.ukiahpolice.com,TRUE,FALSE,FALSE,https://www.ukiahpolice.com/site/assets/files/2785/ukiah_pd_policy_manual_february_2022.pdf,,,
SB978-592,Union City Police Department,,no,yes,Union City,37.58883,-122.0275,Alameda County,California,Police,https://www.unioncity.org/197/Police,TRUE,TRUE,,https://www.unioncity.org/441/Police-Department-Policies,https://www.unioncity.org/DocumentCenter/View/8135/Final-approved-Military_Equipment-16-1,,
SB978-597,Upland Police Department,,no,yes,Upland,34.09940,-117.6510,San Bernardino County,California,Police,https://www.uplandca.gov,TRUE,TRUE,,https://www.uplandca.gov/uploads/images/RELEASE_20220120_T194941_Upland_Police_Department_Policy_Manual.pdf,https://www.uplandca.gov/uploads/files/Military_Equipment%20final%20draft(5).pdf,,
SB978-598,Vacaville Police Department,,no,yes,Vacaville,38.35218,-121.9926,Solano County,California,Police,https://www.ci.vacaville.ca.us,TRUE,TRUE,,https://www.ci.vacaville.ca.us/home/showpublisheddocument/19777/637776603235970000,https://www.ci.vacaville.ca.us/home/showpublisheddocument/20325/637862449845900000,,
SB978-600,Vallejo Police Department,,no,yes,Vallejo,38.10095,-122.2549,Solano County,California,Police,https://vallejopd.net,TRUE,FALSE,FALSE,https://www.vallejopd.net/UserFiles/Servers/Server_16397369/Image/Public%20Information/Codes%20and%20Policies/RELEASE_20210921_T164033_Vallejo_PD_Policy_Manual%20(1).pdf,,,
SB978-601,Ventura County Community College District Police Department,,no,yes,Camarillo,34.22340,-119.0507,Ventura County,California,College/University,https://www.vcccd.edu,TRUE,TRUE,,https://www.vcccd.edu/departments/police/documents-forms,https://www.vcccd.edu/sites/default/files/media/pdf_document/2022/Military%20Equipment%20Policy%20704.pdf,,
SB978-602,Ventura County District Attorney,,no,yes,Ventura,34.28082,-119.2923,Ventura County,California,District Attorney,https://www.vcdistrictattorney.com,TRUE,TRUE,,https://www.vcdistrictattorney.com/wp-content/uploads/2020/08/Ventura-County-DA-CA-Policy-Manual-rev-2021-04-13.pdf,https://www.vcdistrictattorney.com/wp-content/uploads/2022/03/Policy-703-Military-Equipment-word-DRAFT.pdf,,
SB978-603,Ventura County Sheriff's Department,,no,yes,Ventura,34.28082,-119.2923,Ventura County,California,Sheriff,https://www.venturasheriff.org,TRUE,TRUE,,https://www.venturasheriff.org/wp-content/uploads/2021/05/RELEASE_20210504_T182427_Ventura_County_Sheriff_s_Office_Policy_Manual-Public-Copy.pdf,https://s29762.pcdn.co/wp-content/uploads/2022/06/Military_Equipment.pdf,,
SB978-605,Ventura Police Department,,no,yes,Ventura,34.28082,-119.2923,Ventura County,California,Police,https://www.cityofventura.ca.gov,TRUE,FALSE,FALSE,https://www.cityofventura.ca.gov/DocumentCenter/View/27387/Ventura-PD-Policy-Manual-Release,,,
SB978-606,Vernon Police Department,,no,yes,Vernon,34.00513,-118.2302,Los Angeles County,California,Police,http://www.cityofvernon.org,TRUE,TRUE,,https://www.cityofvernon.org/home/showpublisheddocument/106/637611223376000000,https://view.officeapps.live.com/op/view.aspx?src=https%3A%2F%2Fwww.cityofvernon.org%2Fhome%2Fshowpublisheddocument%2F2239%2F637849120932670000&wdOrigin=BROWSELINK,,
SB978-607,Victor Valley College Police Department,,no,yes,Victorville,34.51167,-117.3236,San Bernardino County,California,College/University,http://www.vvc.edu,TRUE,FALSE,FALSE,https://www.vvc.edu/sites/default/files/2022-01/Lexipol%20Manual%2012-15-21.pdf ,,,
SB978-608,Visalia Police Department,,no,yes,Visalia,36.33377,-119.2926,Tulare County,California,Police,https://www.visalia.city/depts/police/default.asp,TRUE,TRUE,,https://www.visalia.city/depts/police/public_records_act/policy_manual/preface.asp,https://www.visalia.city/documents/Police/Mandated%20Disclosures/708%20-%20Military_Equipment%20(Final)%20(002)-online.pdf,,
SB978-609,Walnut Creek Police Department,,no,yes,Walnut Creek,37.90162,-122.0619,Contra Costa County,California,Police,https://www.walnut-creek.org/departments/public-safety/police,TRUE,TRUE,TRUE,https://www.walnut-creek.org/home/showpublisheddocument/27466,https://www.walnut-creek.org/home/showpublisheddocument/27611/637842530037000000,https://www.walnut-creek.org/home/showpublisheddocument/27613/637842530082330000,
SB978-610,Watsonville Police Department,,no,yes,Watsonville,36.90903,-121.7555,Santa Cruz County,California,Police,https://www.cityofwatsonville.org/2324/Police,TRUE,TRUE,,https://www.cityofwatsonville.org/DocumentCenter/View/15812/Policy-Manual-2021,https://www.cityofwatsonville.org/DocumentCenter/View/18444/DRAFT-Military-Equipment-Policy-and-Attachment,,
SB978-611,Weed Police Department,,no,yes,Weed,41.42507,-122.3843,Siskiyou County,California,Police,https://www.ci.weed.ca.us/police,TRUE,TRUE/Draft,FALSE,http://www.ci.weed.ca.us/vertical/sites/%7BC0495501-9512-4786-A427-BAB3AEBDEA56%7D/uploads/Weed_Police_Department_Policy_Manual(1).pdf,https://www.ci.weed.ca.us/vertical/sites/%7BC0495501-9512-4786-A427-BAB3AEBDEA56%7D/uploads/WPD_Military_Equipment_policy(1).pdf,,
SB978-612,West Cities Police Communications Center,,no,yes,Seal Beach,33.74256,-118.1052,Orange County,California,Communications,http://www.west-comm.org,TRUE,FALSE,FALSE,http://www.west-comm.org/wp-content/uploads/Policy-Procedure.pdf,,,
SB978-613,West Covina Police Department,,no,yes,West Covina,34.07214,-117.9381,Los Angeles County,California,Police,https://wcpd.org,TRUE,TRUE,,https://www.wcpd.org/wp-content/uploads/2022/07/20220708_West_Covina_PD_Policy_Manual_Redacted.pdf,https://www.wcpd.org/wp-content/uploads/2022/07/20220708_West_Covina_PD_Policy_Manual_Redacted.pdf,,
SB978-614,West Sacramento Police Department,,no,yes,West Sacramento,38.57162,-121.5501,Yolo County,California,Police,https://www.cityofwestsacramento.org/government/departments/police,TRUE,TRUE,,https://www.cityofwestsacramento.org/Home/ShowDocument?id=7842,https://www.cityofwestsacramento.org/home/showpublisheddocument/13263/637833771864828750,,
SB978-615,West Valley-Mission Community College District Police Department,,no,yes,Saratoga,37.27105,-122.0140,Santa Clara County,California,College/University,https://wvm.edu/services/police/Pages/default.aspx,TRUE,TRUE,TRUE,https://wvm.edu/services/police/Pages/default.aspx#Tab5,https://wvm.edu/services/police/Documents/Policy%20709%20Military_Equipment_BOT%20approved%206.21.22.pdf,https://wvm.edu/services/police/Documents/Current%20Equipment%20Category%20List_4.18.22.pdf,
SB978-616,Westminster Police Department,,no,yes,Westminster,33.75931,-117.9858,Orange County,California,Police,https://www.westminster-ca.gov/departments/police,TRUE,TRUE,,https://www.westminster-ca.gov/home/showpublisheddocument/4066/637673004687170000,https://www.westminster-ca.gov/home/showpublisheddocument/5135/637915155674300609,,
SB978-618,Wheatland Police Department,,no,yes,Wheatland,39.00956,-121.4251,Yuba County,California,Police,http://www.wheatland.ca.gov/departments/police/,TRUE,TRUE,,http://www.wheatland.ca.gov/wp-content/uploads/RELEASE_20220705_T120950_Wheatland_PD_Policy_Manual.pdf,http://www.wheatland.ca.gov/wp-content/uploads/RELEASE_20220705_T120950_Wheatland_PD_Policy_Manual.pdf,,
SB978-620,Whittier Police Department,,no,yes,Whittier,33.97542,-118.0339,Los Angeles County,California,Police,https://www.cityofwhittier.org/government/police,TRUE,TRUE,TRUE,https://www.cityofwhittier.org/home/showpublisheddocument/6434/637861240116070000,https://www.cityofwhittier.org/home/showpublisheddocument/6434/637861240116070000,https://www.cityofwhittier.org/home/showpublisheddocument/10088/637861239790870000,
SB978-622,Willits Police Department,,no,yes,Willits,39.40415,-123.3518,Mendocino County,California,Police,http://cityofwillits.org/148/Police,TRUE,FALSE,FALSE,https://cityofwillits.org/148/Police,,,
SB978-623,Windsor Police Department,Sonoma County Sheriff's Department,yes,yes,Windsor,38.54938,-122.8132,Sonoma County,California,Police,https://www.townofwindsor.com/174/Police-Department,TRUE,FALSE,FALSE,https://www.windsorpd.com/DocumentCenter/View/218/Windsor-Police-Department-Policy,,,
SB978-624,Winters Police Department,,no,yes,Winters,38.52192,-121.9707,Yolo County,California,Police,http://www.winterspolice.org,TRUE,TRUE,,https://www.winterspolice.org/wp-content/uploads/2022/07/RELEASE_20220705_T165602_Winters_Police_Department_Policy_Manual.pdf,https://www.winterspolice.org/wp-content/uploads/2022/07/RELEASE_20220705_T165602_Winters_Police_Department_Policy_Manual.pdf,,
SB978-626,Woodland Police Department,,no,yes,Woodland,38.67854,-121.7731,Yolo County,California,Police,https://www.cityofwoodland.org,TRUE,TRUE,,https://cityofwoodland.org/DocumentCenter/View/7572/Woodland_PD_Policy_Manual-12_27_2021_Redacted?bidId=,https://cityofwoodland.org/DocumentCenter/View/7793/Military-Equipment-Policy-706-DRAFT?bidId=,,
SB978-627,Yolo County District Attorney,,no,yes,Woodland,38.67854,-121.7731,Yolo County,California,District Attorney,https://yoloda.org,TRUE,FALSE,FALSE,https://yoloda.org/wp-content/uploads/2020/06/RELEASE_20200612_T141909_Yolo_County_DA_Policy_Manual.pdf,,,
SB978-628,Yolo County Sheriff's Department,,no,yes,Woodland,38.67854,-121.7731,Yolo County,California,Sheriff,https://www.yolocountysheriff.com,TRUE,FALSE,FALSE,https://www.yolocountysheriff.com/wp-content/uploads/2020/03/Sheriffs-Office-Policy-Manual.pdf,,https://www.yolocountysheriff.com/wp-content/uploads/2022/04/AB-481.pdf,
SB978-629,Yreka Police Department,,no,yes,Yreka,41.73122,-122.6357,Siskiyou County,California,Police,http://www.ci.yreka.ca.us,TRUE,TRUE,TRUE,http://ci.yreka.ca.us/DocumentCenter/View/824/Yreka_PD_Policy_Manual,http://ci.yreka.ca.us/DocumentCenter/View/1192/Policy-706?bidId=,https://ci.yreka.ca.us/DocumentCenter/View/1205/Military-Equipment-Use-Policy,
SB978-630,Yuba City Police Department,,no,yes,Yuba City,39.14094,-121.6198,Sutter County,California,Police,https://www.yubacity.net/city_hall/departments/police_department,TRUE,TRUE,,https://www.yubacity.net/common/pages/DisplayFile.aspx?itemId=17298234,https://www.yubacity.net/common/pages/DisplayFile.aspx?itemId=18404650,,
SB978-633,Yuba County Sheriff's Department,,no,yes,Marysville,39.14497,-121.5872,Yuba County,California,Sheriff,https://sheriff.co.yuba.ca.us,TRUE,FALSE,FALSE,https://files4.revize.com/yubaca/Yuba%20County/Sheriff/Jail/Jail%20Policy%20Manual%20(9-16-2021).pdff,,,
